Name,Contact-info,Address,Category,area,latitude,longitude
Hotel Swagath De Royal,tel:9246534441,"Beside Apollo Medico Care
Address
H No. 2-36,
Kondapur X Road,
Kondapur,
Hyderabad - 500081
Telangana.

Telephone: 9246268222
40 23000333
40 23001333",HOTEL,kondapur,17.458429,78.366134
Hotel Garden View Inn,tel:40 42000604,"Beside State Bank of Mysore
Address
Plot No. 16,
White Fields,
Kondapur,
Hyderabad - 500081
Telangana.",HOTEL,kondapur,17.454259,78.369992
Siesta Hitech Hotel,tel:9963937815,"Beside KIMS Hospital
Address
Plot No. 55/E,
Marthanda Nagar, Kothaguda,
Kondapur,
Hyderabad - 500081
Telangana.
40 42420000",HOTEL,kondapur,17.474231,78.363581
Siesta Hitech Hotel,tel:9963937815,"Beside KIMS Hospital
Address
Plot No. 55/E,
Marthanda Nagar, Kothaguda,
Kondapur,
Hyderabad - 500081
Telangana.
40 42420000",BUSINESS HOTEL,kondapur,17.474231,78.363581
Hotel Garden View Inn,tel:40 42000604,"Beside State Bank of Mysore
Address
Plot No. 16,
White Fields,
Kondapur,
Hyderabad - 500081
Telangana.",BUDGET HOTEL,kondapur,17.454259,78.369992
Satya Sree Clinic,tel:40 64644744,"Address
Shop No. 1-55/PP/2, 1st Floor ,
Sri Ram Nagar,
Kondapur,
Hyderabad - 500081
Telangana.",HOSPITAL,kondapur,17.458429,78.366134
Dr. Abhilash Raavi,tel:9866587579,"Near Chirec Public School
Address
Heritage Fresh Road,
Kondapur,
Hyderabad - 500081
Telangana.",HOSPITAL,kondapur,17.458429,78.366134
Universal Superspeciality Dental Hospital,tel:40 23004558,"Above Sujana Super Market
Address
H. No. 1-6-2/1, Tirumala Subhash Complex,
2nd Floor, Kothaguda X Roads,
Kondapur,
Hyderabad - 500081
Telangana.
40 23004559",HOSPITAL,kondapur,17.458429,78.366134
Anceta-The Skin & Orthopaedic Speciality Care,tel:9666309382,"Above Crome Showroom
Address
3rd Floor, Nagarjuna Ikon ,
Near Bajaj Electronics,
Kondapur,
Hyderabad - 500081
Telangana.
40 40209382",HOSPITAL,kondapur,17.458429,78.366134
Dr. Challagulla Vijay Kumar,tel:9949232222,"Beside Botanical Gardens
Address
Flat No. 243, Block B,
Kondapur Main Road, Sri Ramnagar,
Kondapur,
Hyderabad - 500081
Telangana.

Telephone: 8499941111",HOSPITAL,kondapur,17.458429,78.366134
Siri Retail Ventures Pvt. Ltd.,+91 8790937998,"Opposite Croma
Address
Shop No. 2, Plot No. 140,
Kondapur,
Hyderabad - 500081
Telangana.
40 42617447",HOME NEED,kondapur,17.458429,78.366134
Safe Hands Laundry,+91 40 65810287,"Near Chirec School
Address
Plot No. 1-57/A/12,
Sriram Nagar Colony,
Kondapur,
Hyderabad - 500081
Telangana.",HOME NEED,kondapur,17.458429,78.366134
National Furniture & Plywood,+91 9885634522,"Gachibowli X Road,
Kondapur,
Hyderabad - 500081
Telangana.

Telephone: 7842197563",FURNITURE,kondapur,17.458429,78.366134
Prince Wood Handicraft,+91 8790334747,"Opp. Government Hospital
Address
Plot No. 5, B-Block,
Sri Ram Nagar,
Kondapur,
Hyderabad - 500081
Telangana.",FURNITURE,kondapur,17.458429,78.366134
Naveen Wood Works,+91 9700168543,"Near to Andhra Bank,
Kondapur,
Hyderabad - 500081
Telangana.",INTERIOR DESIGNERS,kondapur,17.4602,78.3551
Happy Homes Designers,+91 9032158338,"Police Battalion Lane, Reliance Fresh
Address
Kondapur X Road,
Kondapur,
Hyderabad - 500081
Telangana.",INTERIOR DESIGNERS,kondapur,17.458429,78.366134
Adnaan Wood Work,+91 9701456357,"Opp. Renault Showroom
Address
Shilpa Park,
Kondapur,
Hyderabad - 500081
Telangana.

Telephone: 9347379745",INTERIOR DESIGNERS,kondapur,17.458429,78.366134
Bluebell Interiors,+91 9848911478,"Flat No. 503, Plot No. 2, Survey No. 11,
Surakshaa Signature, Lakshmi Cybercity Road,
Kondapur,
Hyderabad - 500081
Telangana.

Telephone: 9949964809",INTERIOR DESIGNERS,kondapur,17.458429,78.366134
Timbor Cucine,+91 9959593000,"sri ram nagar colony A- block
            Address
            plot no -67A,
            challas mansion,
            Kondapur,
            Hyderabad - 500081
            Telangana.
            
            Telephone: 9959595000",INTERIOR DESIGNERS,kondapur,,
Prince Wood Handicraft,+91 8790334747,"Opp. Government Hospital
            Address
            Plot No. 5, B-Block,
            Sri Ram Nagar,
            Kondapur,
            Hyderabad - 500081
            Telangana.
            
            Telephone: 9000290766",INTERIOR DESIGNERS,kondapur,,
Vibrant Interiors,+91 9949885558,"RTA Office
            Address
            Flat No. 7, 3rd Floor,
            SK Building, Bikshapathi Nagar,
            Kondapur,
            Hyderabad - 500081
            Telangana.",INTERIOR DESIGNERS,kondapur,17.458429,78.366134
Croma Electronics,+91 9676570077,"Beside Karur Vysya Bank
            Address
            Plot No. 5 & 6,
            Nagarjuna Ikon,
            Kondapur,
            Hyderabad - 500081
            Telangana.",HOME APPLIANCES,kondapur,17.458429,78.366134
Adishwar Electro World,+91 40 42027961,"Opposite Botanic Garden
            Address
            GHMC No.2-91/68/TH/687,
            Kondapur,
            Hyderabad - 500081
            Telangana.",HOME APPLIANCES,kondapur,17.458429,78.366134
Honesty Cooling Services,+91 9912305587,"Railway Station
            Address
            Shop No. 49,
            New Hafeezpet, Aditya Nagar,
            Kondapur,
            Hyderabad - 500081
            Telangana.
            
            Telephone: 9700721668",HOME APPLIANCES,kondapur,,
Sri Dandagunda Electrical Services,+91 9700045835,"Gem Motor Service
            Address
            No. 2,
            Raghavendra Colony,
            Kondapur,
            Hyderabad - 500081
            Telangana.
            
            Telephone: 9394030384",HOME APPLIANCES,kondapur,,
B S Electronics,+91 8523047555,"Bus Stand
            Address
            Shop No. 2-41/14A,
            Kondapur Cross Road,
            Kondapur,
            Hyderabad - 500081
            Telangana.",HOME APPLIANCES,kondapur,17.45825608,78.36929915
Cyber Electrical & Electronics,+91 9885114215,"Tsp Camp
            Address
            No. 1-111/2/2/1,
            Kondapur,
            Hyderabad - 500081
            Telangana.
            
            Telephone: 8801074142",HOME APPLIANCES,kondapur,17.458429,78.366134
Hi Tech Refrigeration & Air Condition,+91 9949518496,"Anand Nagar Bus Stand
            Address
            No. 142 Masjid,
            Complex Anand Nagar,
            Kondapur,
            Hyderabad - 500081
            Telangana.
            
            Telephone: 7386207459",HOME APPLIANCES,kondapur,,
Deepak Electric Works,+91 9177909740,"Kondapur Rto Office
            Address
            No. 1/110A/9A,
            Gopal Reddy Nagar,
            Kondapur,
            Hyderabad - 500081
            Telangana.",HOME APPLIANCES,kondapur,17.473172,78.363583
Studio 11,+91 7569696990,"Near Botanical gardens
            Address
            2nd Floor, Shivam Complex,
            Above Andhra Bank, Sairam Colony,
            Kondapur,
            Hyderabad - 500081
            Telangana",SPA & SALON,kondapur,,
Tarash Family Salon & Spa,+91 7893782623,"Above Croma Showroom
            Address
            2nd Floor, Nagarjuna Ikon,
            Kondapur,
            Hyderabad - 500081
            Telangana.",SPA & SALON,kondapur,17.458429,78.366134
Green Trends Unisex Hair & Style Salon,+91 7702888070,"H-No. 1-60/30/9/5/9 & 1-60/30/10,
            Miyapur Main Road,
            Kondapur,
            Hyderabad - 500081
            Telangana.
            
            Telephone: 9010155515",SPA & SALON,kondapur,,
VLCC Health Care Limited,+91 40 23370708,"Opposite Jayabheri Silicon County
            Address
            Shop No. 291/14/9/2,
            Upper Ground Floor, Bhasker Empire,
            Kondapur,
            Hyderabad - 500081
            Telangana.",SPA & SALON,kondapur,,
Rejoice Beauty Saloon,+91 8688277776,"Area Hospital
            Address
            Flat 8A,
            Chirag Public School Lane,
            Kondapur,
            Hyderabad - 500081
            Telangana.
            040 32572255",SPA & SALON,kondapur,17.458429,78.366134
Lakme Saloon,+91 40 65526555,"Beside Google
            Address
            Flat No. 201, 1st Floor,
            SMR Vinay Techno polis,
            Kondapur,
            Hyderabad - 500081
            Telangana.",SPA & SALON,kondapur,17.458429,78.366134
Naturals Hair & Beauty Salon,+91 9092626262,"Beside Google
            Address
            Flat-No. 202,
            SMR Vinay Technopolis,
            Kondapur,
            Hyderabad - 500081
            Telangana.",SPA & SALON,kondapur,17.458429,78.366134
ABC Saloon,+91 8977994747,"Near Chirec Public School
            Address
            H.No. 1-57/27,
            Plot No. 27, KP Plaza,
            Kondapur,
            Hyderabad - 500081
            Telangana.",SPA & SALON,kondapur,17.458429,78.366134
Saffron's Family Salon & Spa,+91 9966988713,"Above Rathadeep Super Market
            Address
            2nd Floor,
            Ektha Pearl, Kothaguda,
            Kondapur,
            Hyderabad - 500081
            Telangana.",SPA & SALON,kondapur,17.474231,78.363581
The Chocolate Room,+91 7032737394,"Beside Heritage Fresh Supermarket
            Address
            Shop No. G1,
            Lake View Hitech,
            Kondapur,
            Hyderabad - 500081
            Telangana.",CAFE,kondapur,17.458429,78.366134
Barista Espresso Bar,+91 9059980025,"Beside Subway
            Address
            Survey No. 13,
            S.M.R. Vinay Technopoll, Hi Tech City,
            Kondapur,
            Hyderabad - 500081
            Telangana.",CAFE,kondapur,17.458429,78.366134
Dr. Abhilash Raavi,+91 9866587579,"Near Chirec Public School
            Address
            Heritage Fresh Road,
            Kondapur,
            Hyderabad - 500081
            Telangana",DENTAL CLINIC,kondapur,17.458429,78.366134
Partha Dental,+91 40 64611077,"Opp. Leaf Hospitals
            Address
            H. No. 2-41/A/1, Plot No. 145/1, 1st Floor,
            Kondapur Main Road, Near by Toyota Showroom,
            Kondapur,
            Hyderabad - 500081
            Telangana.",DENTAL CLINIC,kondapur,,
Dr. Challagulla Vijay Kumar,+91 9949232222,"Beside Botanical Gardens
            Address
            Flat No. 243, Block B,
            Kondapur Main Road, Sri Ramnagar,
            Kondapur,
            Hyderabad - 500081
            Telangana.
            
            Telephone: 8499941111",DENTAL CLINIC,kondapur,,
Vijay Dental Hospital,+91 9640662000,"Above Ratnadeep Super Market
            Address
            2nd Floor,
            Kothaguda X Road,
            Kondapur,
            Hyderabad - 500081
            Telangana.
            40 40216155",DENTAL CLINIC,kondapur,,
Universal Superspeciality Dental Hospital,+91 40 23004558,"Above Sujana Super Market
            Address
            H. No. 1-6-2/1, Tirumala Subhash Complex,
            2nd Floor, Kothaguda X Roads,
            Kondapur,
            Hyderabad - 500081
            Telangana.",DENTAL CLINIC,kondapur,,
Satya Sree Clinic,+91 40 64644744,"Shop No. 1-55/PP/2, 1st Floor ,
            Sri Ram Nagar,
            Kondapur,
            Hyderabad - 500081
            Telangana.",DENTAL CLINIC,kondapur,17.46173801,78.35208301
National Furniture & Plywood,+91 9885634522,"Gachibowli X Road,
            Kondapur,
            Hyderabad - 500081
            Telangana.
            
            Telephone: 7842197563",FURNITURE,kondapur,17.458429,78.366134
Prince Wood Handicraft,+91 8790334747,"Opp. Government Hospital
            Address
            Plot No. 5, B-Block,
            Sri Ram Nagar,
            Kondapur,
            Hyderabad - 500081
            Telangana.
            
            Telephone: 9000290766",FURNITURE,kondapur,,
Rize Up Gym,+91 9985644264,"Kothguda X Road,
            Kondapur,
            Kondapur,
            Hyderabad - 500081
            Telangana.",GYM,kondapur,17.458429,78.366134
The Gymnasium Personal Fitness Studio,+91 9581369261,"Plot No:.117/A,
            Mashjid Band, Sri Ram Nagar,
            Kondapur,
            Hyderabad - 500081
            Telangana.",GYM,kondapur,17.458429,78.366134
Fitness One Gym,+91 40 40184455,"Opp. Botanical Garden
            Address
            Plot No. 5, Park View Building ,
            2nd Floor, Above Heritage Fresh, Whitefields,
            Kondapur,
            Hyderabad - 500081
            Telangana.",GYM,kondapur,,
The Chocolate Room,+91 7032737394,"Beside Heritage Fresh Supermarket
            Address
            Shop No. G1,
            Lake View Hitech,
            Kondapur,
            Hyderabad - 500081
            Telangana.",ICECREAM CENTER,kondapur,17.458429,78.366134
Lords Ocean Cold Stone,+91 7207144455,"Shop No. 13,
            Beside Google Office,
            Kondapur,
            Hyderabad - 500081
            Telangana",ICECREAM CENTER,kondapur,17.408184,78.449607
Scoops Ice Cream Parlour,+91 9390033008,"Opposite Eye Way Opticals
            Address
            Sriram Nagar,
            Kondapur,
            Hyderabad - 500081
            Telangana.",ICECREAM CENTER,kondapur,17.458429,78.366134
Kakes N Krisps Bakery,+91 9849872668,"Opposite Appolo Clinic
            Address
            H No. 2-26,
            Kothaguda,
            Kondapur,
            Hyderabad - 500081
            Telangana.
            40 64571188
            40 64571199",ICECREAM CENTER,kondapur,,
Baskin Robbins Bakery,+91 9177115520,"Next To Chirec Public School
            Address
            Plot No. 1-57/2, A Block,
            Sriram Nagar Colony,
            Kondapur,
            Hyderabad - 500081
            Telangana.",ICECREAM CENTER,kondapur,17.458429,78.366134
Rishab Jewellers,+91 9885507221,"Near 8th Battalion
            Address
            D No. 2-41/4,
            Kothaguda,
            Kondapur,
            Hyderabad - 500081
            Telangana.",JEWELLERY SHOP,kondapur,17.474231,78.363581
R.R Jewellers,+91 9550845141,"Near Chirec Public School
            Address
            Sri Ram Colony,
            Kondapur,
            Hyderabad - 500081
            Telangana.",JEWELLERY SHOP,kondapur,17.458429,78.366134
Venkat Sai Medical Stores,+91 9440410631,"Harsha Toyota
            Address
            Door No. 2-41/15/A,
            Hafeezpet Road,
            Kondapur,
            Hyderabad - 500081
            Telangana.
            40 23000610",MEDICAL SHOP,kondapur,17.458429,78.366134
Sangeeta Mobile Private Limited,+91 9951279666,"Opposite Honda Show Room
            Address
            Shop No. 2-4-1/11,
            Kothaguda,
            Kondapur,
            Hyderabad - 500081
            Telangana.",MOBILE SHOP,kondapur,17.474231,78.363581
Mobile Hub,+91 9700686736,"Near Chirec School
            Address
            Shop No. 7/136,
            Anjayya Nagar,
            Kondapur,
            Hyderabad - 500081
            Telangana.",MOBILE SHOP,kondapur,17.458429,78.366134
Value Mart Super Market,+91 040 65656033,"Botanical Garden
            Address
            Plot No. 37, 38 & 39,
            Sri Ram Nagar,
            Kondapur,
            Hyderabad - 500081
            Telangana.",GROCERY,kondapur,17.464045,78.35555396
Sri Vinayaka Kirana & General Store,+91 9949506465,"Opposite Renault Showroom
            Address
            Kondapur X Raods,
            Kondapur,
            Hyderabad - 500081
            Telangana.
            
            Telephone: 8897899146",GROCERY,kondapur,17.458429,78.366134
Safe Hands Laundry,+91 40 65810287,"Near Chirec School
            Address
            Plot No. 1-57/A/12,
            Sriram Nagar Colony,
            Kondapur,
            Hyderabad - 500081
            Telangana.",LAUNDRY,kondapur,17.458429,78.366134
Eeshwar Illu,tel:40 40072222,"Near Forum Sujana Mall
Address
Plot No. 20/10,
KPHB 6th Phase,
Kukatpally,
Hyderabad - 500072
Telangana.
40 40073333",HOTEL,Kukatpally,17.5030765,78.4041699
Hotel One Place,tel:8008758899,"Beside KPHB Bus Stop
Address
D. No. 2-22-298/7/2,
Kukatpally,
Hyderabad - 500072
Telangana.
40 44558899",HOTEL,Kukatpally,17.5030765,78.4041699
Balaji Residency,tel:9246399912,"Near Forum Sujana Mall
Address
Hotel Ring View Building, 2nd Floor, Beside Rajiv Gandhi Circle,
KPHB 6th Phase,
Kukatpally,
Hyderabad - 500072
Telangana.
40 23156633
40 23156644",HOTEL,Kukatpally,17.5030765,78.4041699
Hotel Swagath Residency,tel:9246507575,"Beside RS Brothers
Address
MIG 1-228, KPHB Main Road,
Kukatpally,
Hyderabad - 500072
Telangana.

Telephone: 9246508585",HOTEL,Kukatpally,17.5030765,78.4041699
Balaji Residency,tel:9246399912,"Near Forum Sujana Mall
Address
Hotel Ring View Building, 2nd Floor, Beside Rajiv Gandhi Circle,
KPHB 6th Phase,
Kukatpally,
Hyderabad - 500072
Telangana.
40 23156633
40 23156644",BUDGET HOTEL,Kukatpally,17.5030765,78.4041699
Hotel Swagath Residency,tel:9246507575,"Beside RS Brothers
Address
MIG 1-228, KPHB Main Road,
Kukatpally,
Hyderabad - 500072
Telangana.

Telephone: 9246508585",BUDGET HOTEL,Kukatpally,17.5030765,78.4041699
Idea Clinics,tel:40 40042000,"Triveni Towers,
Road No. 1,
Kukatpally,
Hyderabad - 500072
Telangana.",HOSPITAL,Kukatpally,17.488021,78.399821
Sai Shourya Hospital,tel:9912532520,"Near Malaysian Township
Address
No. HIG 181,
Kukatpally,
Hyderabad - 500072
Telangana.",HOSPITAL,Kukatpally,17.480407,78.390194
Amrita Ent Head & Neck Hospital,tel:7032255931,"Above 9X Men Showroom
Address
2nd Floor,
Ganesh Plaza, 4th Phase, JNTU,
Kukatpally,
Hyderabad - 500072
Telangana.
040 40064008",HOSPITAL,Kukatpally,17.5030765,78.4041699
S.V. Medicals Surgicals,tel:7799194466,"Opposite Vignesh Nursing Home
Address
G-1, MIG-262,
Bhavani Enclave,
Kukatpally,
Hyderabad - 500072
Telangana.
40 40189797",HOSPITAL,Kukatpally,17.5030765,78.4041699
J S Raos Eye Clinic,tel:9346192626,"Beside Kalamandir
Address
Flat No. 203-204,
Padmavathi Plaza,
Kukatpally,
Hyderabad - 500072
Telangana.
40 23061086",HOSPITAL,Kukatpally,17.5030765,78.4041699
Icon Hospitals,tel:8885522197,"Near Malysian Ship
Address
S. No. 540/1 & 2,
JNTU - Hitech City Road,
Kukatpally,
Hyderabad - 500072
Telangana.
40 23159666",HOSPITAL,Kukatpally,17.5030765,78.4041699
Amrutha Hospital & Medical,tel:8297221155,"Remedy Hospital Lane
Address
M.I.G -410, Ground Floor,
Sai Divya Residency, Road No. 4,
Kukatpally,
Hyderabad - 500072
Telangana.",HOSPITAL,Kukatpally,17.5030765,78.4041699
Prasad Hospital,tel:40 64519124,"Address
MIG - 204,
1st Road, KPHB Phase I, KPHB Colony,
Kukatpally,
Hyderabad - 500072
Telangana.
40 64514074",HOSPITAL,Kukatpally,17.4775722,78.39495855
Safe Hospitals,tel:7842527999,"MIG-144, MIG No 1,
KPHB Colony, Road No. 1,
Kukatpally,
Hyderabad - 500072
Telangana.
040 23151257",HOSPITAL,Kukatpally,17.49143702,78.40168301
Prime Hospital,tel:40 44568888,"Address
Plot No. MIG 113 & 114,
Road No. 1, KPHB Colony,
Kukatpally,
Hyderabad - 500072
Telangana.",HOSPITAL,Kukatpally,17.48749989,78.37924789
The Birthplace,tel:7331143499,"Beside Boi Bank
Address
Plot No. 138, VI Phase,
Kukatpally,
Hyderabad - 500072
Telangana.
040 47997999
040 67139999",HOSPITAL,Kukatpally,17.5030765,78.4041699
Vignesh Nursing Home,tel:40 23055330,"Remedy Hospital Lane
Address
MIG-318 & 260,
Kukatpally,
Hyderabad - 500072
Telangana.
40 23058934",HOSPITAL,Kukatpally,17.5030765,78.4041699
Pearl Vision Eye Care,tel:9705926062,"Beside Huda Park
Address
H. No. 2-22-153/A, Shop No. 1,
Subhodaya Colony,
Kukatpally,
Hyderabad - 500072
Telangana.

Telephone: 9666552499",EYE & CHILD SPECIALIST HOSPITAL,Kukatpally,17.497838,78.4078457
Pearl Vision Eye Care,tel:9705926062,"Beside Huda Park
Address
H. No. 2-22-153/A, Shop No. 1,
Subhodaya Colony,
Kukatpally,
Hyderabad - 500072
Telangana.

Telephone: 9666552499",EYE & CHILD SPECIALIST HOSPITAL,Kukatpally,17.497838,78.4078457
Rainbow Children's Hospital,tel:40 42462300,"Beside Hydernagar Bus Stop
Address
Plot No. 1, Door No. 1-2-22,
Hydernagar,
Kukatpally,
Hyderabad - 500072
Telangana.",EYE & CHILD SPECIALIST HOSPITAL,Kukatpally,17.5030765,78.4041699
,,,EYE & CHILD SPECIALIST HOSPITAL,Kukatpally,18.77609574,100.773935
Aditya Dental Care,tel:9177433116,"Beside HDFC ATM
Address
Plot No. 561 & 562, Poojitha Land Mark,
Main Road, Pragathi Nagar,
Kukatpally,
Hyderabad - 500072
Telangana.

Telephone: 9652057471
40 64330659",DENTAL CLINIC,Kukatpally,17.51573135,78.39929865
Dentx Dental Care & Pediatric Center,tel:8886226007,"Opposite Andhra Bank
Address
Shop No. 2,
Surya Central Apartment, Beside Karur Vysya Bank, Pragathi Nagar,
Kukatpally,
Hyderabad - 500072
Telangana.
40 42226060",DENTAL CLINIC,Kukatpally,17.51573135,78.39929865
Wellness Dental Hospital,tel:9154010010,"Opp. JNTU, Below HDFC Bank
Address
Plot No. 1344, Maruthi Complex,
Pragathi Nagar,
Kukatpally,
Hyderabad - 500072
Telangana.",DENTAL CLINIC,Kukatpally,17.51573135,78.39929865
Ur Dentist,tel:8885526262,"Address
Shop No. A5, A/21, Kapil Complex,
6th Phase, KPHB Colony,
Kukatpally,
Hyderabad - 500072
Telangana.
40 64526262",DENTAL CLINIC,Kukatpally,17.4775722,78.39495855
Satya Dental Hospital,tel:40 40265657,"Near Mani Plaza
Address
No. 39, Gokul Plot, 9th Phase,
KPHB 6th Phase,
Kukatpally,
Hyderabad - 500072
Telangana.",DENTAL CLINIC,Kukatpally,17.5030765,78.4041699
Positive Dental,tel:9290901003,"Mro Office Lane
Address
203, HIG, MRO Lane, Dharmareddy Colony,
Raithu Bazar Road,
Kukatpally,
Hyderabad - 500072
Telangana.
40 23151103",DENTAL CLINIC,Kukatpally,17.5030765,78.4041699
Focus Dental Care,tel:040 65542525,"Above Axis Bank
Address
2nd Floor, 6th Phase,
MILLENNIUM SQUARE BUILDING,
Kukatpally,
Hyderabad - 500072
Telangana.",DENTAL CLINIC,Kukatpally,17.5030765,78.4041699
Dr. Gopinadh Anne,tel:9848022243,"Beside Ramalayam kaman
Address
D No. 1-100/1,
Ramalayam Road, Shanthi Nagar,
Kukatpally,
Hyderabad - 500072
Telangana.

Telephone: 9848122243",DENTAL CLINIC,Kukatpally,17.5030765,78.4041699
Dr. Sravanthi,tel:040 23157830,"Address
MIG Plot No. 276,
Road No. 4, KPHB Colony,
Kukatpally,
Hyderabad - 500072
Telangana.",DENTAL CLINIC,Kukatpally,17.4902071,78.3823579
Dr. Naga Neelima Devi,tel:9848022243,"Beside Ramalayam Kaman
Address
Shanthi Nagar,
Ramalayam Road,
Kukatpally,
Hyderabad - 500072
Telangana.
40 23064051",DENTAL CLINIC,Kukatpally,17.5030765,78.4041699
Sravanthi Dental Care,tel:8885588092,"Beside Mee Seva
Address
LIG Flat No. 20/7,
3rd Phase, KPHB Colony,
Kukatpally,
Hyderabad - 500072
Telangana.
40 64590211",DENTAL CLINIC,Kukatpally,17.4775722,78.39495855
Tru Dental Care,tel:040 23055650,"Near Mamatha Hospital
Address
M.I.G - 292, 4th Lane,
Remedy Hospital Road KPHB Colony,
Kukatpally,
Hyderabad - 500072
Telangana.",DENTAL CLINIC,Kukatpally,17.4775722,78.39495855
Home Needs Packers and Movers,tel:9912072041,"Near Vijetha Super Market
Address
Hig 611,
Kukatpally Jntu Road,
Kukatpally,
Hyderabad - 500072
Telangana.",HOME NEED,Kukatpally,17.5030765,78.4041699
Beyond Basics Furniture,tel:9030573005,"Near Pavan Bar
Address
H. No. 4-19,
Sumitra Nagar,
Kukatpally,
Hyderabad - 500072
Telangana.
40 23163005",FURNITURE,Kukatpally,17.5030765,78.4041699
Sofa World,tel:9603515660,"Address
Plot No. 4, Shilpa Paradise,
Kukatpally,
Hyderabad - 500072
Telangana.",FURNITURE,Kukatpally,17.5030765,78.4041699
Jugnu Furnitures,tel:40 23160515,"Yadaih Complex, Juan Road,
Vivekananda Nagar,
Kukatpally,
Hyderabad - 500072",FURNITURE,Kukatpally,17.495458,78.410227
The Cane Interiorer,tel:9347029883,"Shop No. 007, Down Town Mall,
Kukatpally,
Hyderabad - 500072
Telangana.

Telephone: 7396916342",FURNITURE,Kukatpally,17.5030765,78.4041699
Home Style Furniture,tel:40 23156359,"Plot No:1, Vasanth Nagar, Hyder Nagar,
Nizampet Rd,
Kukatpally,
Hyderabad - 500072
Telangana.",FURNITURE,Kukatpally,17.5030765,78.4041699
GNK Interior Infra Pvt. Ltd.,tel:9393664646,"Plot No. 20 MIG,
2nd Floor, Vamsee Plaza, Hyder Nagar,
Kukatpally,
Hyderabad - 500072
Telangana.",FURNITURE,Kukatpally,17.5030765,78.4041699
SS Furnitures,tel:8885555595,"Near Pragathi Nagar Lake
Address
G-4, Plot No. 30, 31, Mythri's Lake Front Apartments,
Pragathi Nagar,
Kukatpally,
Hyderabad - 500072
Telangana.
40 64647647",FURNITURE,Kukatpally,17.51573135,78.39929865
Classic Furniture,tel:9492032565,"Near Foot Over Bridge
Address
LIG-29/8,
4th Phase, K.P.H.B. Colony ,
Kukatpally,
Hyderabad - 500072
Telangana.

Telephone: 9848709274",FURNITURE,Kukatpally,17.4775722,78.39495855
Tirumal Furnitures,tel:9666977719,"Pragathi Nagar
Address
Plot No. 159/A,
Sai Srinivasa Tower, Addagutta Colony,
Kukatpally,
Hyderabad - 500072
Telangana.
40 69995789
40 65887789",FURNITURE,Kukatpally,17.5030765,78.4041699
Nesta Modular Kitchen,tel:7660097447,"Opposite Landmark Hospital
Address
Plot No. 964, Vasant Nagar,
Hyder Nagar, NH9,
Kukatpally,
Hyderabad - 500072
Telangana.",FURNITURE,Kukatpally,17.5030765,78.4041699
Sri Sai Elite Interiors,tel:8106246622,"Beside TVS Showroom
Address
Shop No. G1, G2,
Nizampet Road,
Kukatpally,
Hyderabad - 500072
Telangana.
40 40177008",FURNITURE,Kukatpally,17.50067689,78.38939648
Shah Home Appliances (P) LTD.,tel:9348025013,"KPHB Main Road
Address
Shop No. 22/240, Plot No. 5,
Bhagyanagar Colony,
Kukatpally,
Hyderabad - 500072
Telangana",HOME APPLINCES,Kukatpally,17.49514429,78.40121932
Hyper city,"Telephone: 9100169216
            40 48480097","Opp. JNTU
Address
Sy. No:1050,
Manjeera Trinity Mall,
Kukatpally,
Hyderabad - 500072
Telangana.",HOME APPLINCES,Kukatpally,17.5030765,78.4041699
Shiv Home World,tel:9949404440,"Road No. 1,
KPHB Colony,
Kukatpally,
Hyderabad - 500072
Telangana.
40 23156166",HOME APPLINCES,Kukatpally,17.48749989,78.37924789
Blue Star,tel:9246288289,"Behind Sumithra Nagar Bus Stop
Address
D-No. 4-19, 1st Floor,
Sumithra Nagar,
Kukatpally,
Hyderabad - 500072
Telangana.
40 64542434",HOME APPLINCES,Kukatpally,17.5030765,78.4041699
kola power Streetems,tel:90001 09955,"KPHB housing board,
Yallamma banda,
Kukatpally,
Hyderabad - 500072
Telangana.",HOME APPLINCES,Kukatpally,17.5030765,78.4041699
Keeline Appliance Pvt. Ltd,tel:40 2307 9356,"5-33/23, Plot No 11,
Kukatpally,
Hyderabad - 500072
Telangana.
40 23077293",HOME APPLINCES,Kukatpally,17.4955461,78.41367395
U R Enterprises,+91 8686667966,"Behind Metro Cash N Carry
            Address
D No. 5-5-33/36, Plot No. 8,
Vignanpuri Colony,
Kukatpally,
Hyderabad - 500072
Telangana.",INTERIOR DESIGNER,Kukatpally,17.5030765,78.4041699
Radhakrishna Interiors,+91 9666628439,"Ushamulapudi Hospital Backside
            Address
            Srinivas Nagar,
            Kukatpally,
            Hyderabad - 500072
            Telangana.",INTERIOR DESIGNER,Kukatpally,17.502226,78.39261
INS Interiors,+91 9052053333,"Opposite to water tank
            Address
            Hyder Nagar,
            Near to SBI bank,
            Kukatpally,
            Hyderabad - 500072
            Telangana.
            Telephone: 9703673333",INTERIOR DESIGNER,Kukatpally,,
Interior Designer Hyderabad,+91 098480 33794,"B -307 phase 1, ,
            Kukatpally,
            Hyderabad - 500072
            Telangana.",INTERIOR DESIGNER,Kukatpally,17.5030765,78.4041699
Aakanti Glass Interiors,+91 9391011616,"Address
            Plot No.17,18,19 & 20,
            Survey No.166, A.S.Raju Nagar, Main Road,
            Kukatpally,
            Hyderabad - 500072
            Telangana.",INTERIOR DESIGNER,Kukatpally,17.5030765,78.4041699
Modern Dizzart Interiors,+91 8686916755,"Plot No. 1693-1694, Flat No. 304,
            Nivarana Mylan, Pragathi Nagar,
            Kukatpally,
            Hyderabad - 500072
            Telangana",INTERIOR DESIGNER,Kukatpally,17.4944351,78.4262231
Kreative Interiors,+91 9885016157,"D. No. 21-79/B, Kumar Road, Balaji Nagar ,
            Kukatpally,
            Hyderabad - 500072
            Telangana",INTERIOR DESIGNER,Kukatpally,17.483316,78.410374
Trend Interior,+91 093930 88866,"Shop No. 2,
            Balakrishnagar,
            Kukatpally,
            Hyderabad - 500072
            Telangana.",INTERIOR DESIGNER,Kukatpally,17.5030765,78.4041699
Gnanadurga Interiors,+91 9440472929,"D No.5, 203 Gagowthri Nagar,
            Addaguta,
            Kukatpally,
            Hyderabad - 500072
            Telangana",INTERIOR DESIGNER,Kukatpally,17.5030765,78.4041699
Axiom Designs,+91 9618533906,"H.No. 106,
            Murthy Mansion, KPHB Colony,
            Kukatpally,
            Hyderabad - 500072
            Telangana.
            
            Telephone: 8008927878",INTERIOR DESIGNER,Kukatpally,17.4775722,78.39495855
Kranthi Wood Works,+91 9440496625,"Door No. 1-2-712,
            Sree Maremma Nagar,
            Kukatpally,
            Hyderabad - 500072
            Telangana.
            
            Telephone: 9030811603",INTERIOR DESIGNER,Kukatpally,17.5030765,78.4041699
JC Innovates,+91 9640049619,"Flat No. 202, KPHB Colony,
            Nandini Residency , Addagutta Society,
            Kukatpally,
            Hyderabad - 500072
            Telangana.",INTERIOR DESIGNER,Kukatpally,17.5030765,78.4041699
Legend Interiors,+91 7416444400,"Plot No. 80 & 81,
            Survey No.76,
            Kukatpally,
            Hyderabad - 500072
            Telangana.
            40 64440000",INTERIOR DESIGNER,Kukatpally,17.5030765,78.4041699
Modern 9 Interiors & Exteriors,+91 9949060491,"Plot No. 201, 2nd floor, Road no 4,
            Sridevi Residency, K.P.H.B Colony,
            Kukatpally,
            Hyderabad - 500072
            Telangana.
            
            Telephone: 9603902627",INTERIOR DESIGNER,Kukatpally,,
,,,INTERIOR DESIGNER,Kukatpally,18.77609574,100.773935
AAI Interiors,+91 9652229991,"Flat-No. 22-92,
            Vijayanagar Colony,
            Kukatpally,
            Hyderabad - 500072
            Telangana",INTERIOR DESIGNER,Kukatpally,17.49897,78.410132
Lucky Interio Designs,+91 9989010288,"Plot No. 1791,
            Gokul Plots, Venkataramana Colony,
            Kukatpally,
            Hyderabad - 500072
            Telangana",INTERIOR DESIGNER,Kukatpally,17.496031,78.395575
KDR Interior Designer,+91 9700431823,"House No.186, 1st Floor,
            yellamma banda masjid, KPHB Colony,
            Kukatpally,
            Hyderabad - 500072
            Telangana.
            
            Telephone: 9177922165",INTERIOR DESIGNER,Kukatpally,17.4775722,78.39495855
Kapil Chit Fund,+91 9848877224,"Plot No. 51,52 & 53,
            KPHB Colony, 9th Phase,
            Kukatpally,
            Hyderabad - 500072
            Telangana.
            40 23056845",LEGAL & FINANCIAL SERVICES,Kukatpally,17.5030765,78.4041699
Idea Service Centre,+91 9848002683,"D-No. 8/1/523/246/3,
            Brindavan Colony,
            Kukatpally,
            Hyderabad - 500072
            Telangana",INTERNET SERVICE PROVIDER,Kukatpally,17.5048224,78.3862085
Tata Tele Services,+91 8885566188,"JNTU Road,
            Kukatpally,
            Hyderabad - 500072
            Telangana.
            40 69808080",INTERNET SERVICE PROVIDER,Kukatpally,17.48459428,78.39004608
Reliance Mobile Store,+91 9347001122,"Shop No 4,
            Sai Satya Complex, KPHB Main Road,
            Kukatpally,
            Hyderabad - 500072
            Telangana.",INTERNET SERVICE PROVIDER,Kukatpally,17.51876334,78.38583496
Airtel Relationship Centre,+91 8008000456,"H.No. 1-2-25/11,
            Aatmaram Estate, Hydernagar,
            Kukatpally,
            Hyderabad - 500072
            Telangana",INTERNET SERVICE PROVIDER,Kukatpally,17.5030765,78.4041699
Trendz Salon,+91 9985731304,"1st Floor, Raghava Reddy Function Hall Complex,
            Nizampet Road,
            Kukatpally,
            Hyderabad - 500072
            Telangana.
            40 6555708",HAIR STYLISTS,Kukatpally,17.49870447,78.38950121
New Show Men Hair Saloon,+91 9666355444,"P.S. Raju towers,
            6th Phase Road,
            Kukatpally,
            Hyderabad - 500072
            Telangana.",HAIR STYLISTS,Kukatpally,17.48352702,78.41097804
Green Trends Beauty & Hair Salon,+91 40 40210333,"1st Floor, Samitha Avenue,
            Sangamitra High School, Nizampet Road,
            Kukatpally,
            Hyderabad - 500072
            Telangana",HAIR STYLISTS,Kukatpally,17.49870447,78.38950121
Green Trends Hair Salon,+91 40 40208111,"Plot-No. 83, 9th Phase,
            KBHP,
            Kukatpally,
            Hyderabad - 500072
            Telangana",HAIR STYLISTS,Kukatpally,17.5030765,78.4041699
SBT Salon,+91 9959573763,"LIG - 68/5,
                4th Phase, JNTU- Hi Tech Road,
                Kukatpally,
                Hyderabad - 500072
                Telangana.
                40 40245566",HAIR STYLISTS,Kukatpally,17.5030765,78.4041699
Revlon Mens Parlour Saloon,+91 8121836781,"Shop No. 1, Plot No. 544,
                Lotus Aditya Apartments, HIG 6th phase,
                Kukatpally,
                Hyderabad - 500072
                Telangana.",HAIR STYLISTS,Kukatpally,17.49506198,78.40326501
Vennela Beauty Parlour,+91 7396124442,"Plot No. 923, Sai Krupa Nilayam,
                Pragathi Nagar,
                Kukatpally,
                Hyderabad - 500072
                Telangana.
                
                Telephone: 7306222113
                40 32491989",HAIR STYLISTS,Kukatpally,,
Anoos Beauty Parlour,+91 40 23259999,"D-No. 15-24-10,
                MIG Colony, MCK House,
                Kukatpally,
                Hyderabad - 500072
                Telangana.
                40 40254151",HAIR STYLISTS,Kukatpally,17.5030765,78.4041699
Lakme Saloon,+91 40 64641666,"HIG, 486 ,
                Phase-6, V-Square, KBHP,
                Kukatpally,
                Hyderabad - 500072
                Telangana.",HAIR STYLISTS,Kukatpally,17.5030765,78.4041699
Star Looks Unisex Beauty Saloon,+91 9700341939,"Plot No. 1034/35/F-2/B,
                Pragathi Nagar,
                Kukatpally,
                Hyderabad - 500072
                Telangana.
                
                Telephone: 9666756446
                40 40183138",HAIR STYLISTS,Kukatpally,,
Naturals Hair And Beauty Saloon,+91 8019494899,"Shop No. 1-2-39/10 & 11,
                Nizampet Road,
                Kukatpally,
                Hyderabad - 500072
                Telangana.
                40 4007544",HAIR STYLISTS,Kukatpally,17.51625072,78.38257562
Hair Lounge Saloon & Spa,+91 9985258877,"Shop No. 3-100/2/B,
                1st Floor, Kolam Haritha Complex,
                Kukatpally,
                Hyderabad - 500072
                Telangana.",HAIR STYLISTS,Kukatpally,17.5030765,78.4041699
Kriskuts Professional Unisex Salon,+91 9989829982,"Plot No.1, HIG 6th phase,
                Shalivahna To,
                Kukatpally,
                Hyderabad - 500072
                Telangana.",HAIR STYLISTS,Kukatpally,17.5030765,78.4041699
Neeta Varmas Beauty Parlour,+91 9866227744,"Beside Sujana Forum Mall
                Address
                Flat-No. 401, 6th phase,
                KPHB,
                Kukatpally,
                Hyderabad - 500072
                Telangana.
                40 64631999",HAIR STYLISTS,Kukatpally,,
Green Trends Salon,+91 40 65995522,"Opposite V.V. Nagar Bus Stop
                Address
                Plot-No. 279,
                Vivekananda Nagar, Sangeetha Nagar Society, KPHB,
                Kukatpally,
                Hyderabad - 500072
                Telangana.",HAIR STYLISTS,Kukatpally,,
She Shine,+91 7799222884,"Opposite Balaji Park Town
                Address
                House-No. 1-157/A/1,
                Sri Balaji Mithai Bhandar, Nizampet,
                Kukatpally,
                Hyderabad - 500072
                Telangana.
                40 42625888",HAIR STYLISTS,Kukatpally,,
Green Trends Unisex Hair Salon,+91 40 65536902,"Beside Oriental Bank of Commerce
                Address
                D-No. 29-1000-H-208,
                HIG, Phase 1 & 2, KPHB Colony,
                Kukatpally,
                Hyderabad - 500072
                Telangana.",HAIR STYLISTS,Kukatpally,,
My Choice Saloon,+91 8801717557,"Near Sujana Forum Mall
                Address
                6th phase, Suryajyoti Apartments,
                KPHB,
                Kukatpally,
                Hyderabad - 500072
                Telangana.",HAIR STYLISTS,Kukatpally,,
Cat Walk Hair & Beauty Care,+91 9959673434,"Phase 3, JNTU Road,
                K P H B ,
                Kukatpally,
                Hyderabad - 500072
                Telangana.",HAIR STYLISTS,Kukatpally,17.48459428,78.39004608
Page 3 Luxury Mens Beauty Parlour & Salon,+91 9618073743,"Behind Bank Of India
                Address
                Plot No. 136 & 137,
                HIG 6th Phase, Revanth Nilayam,
                Kukatpally,
                Hyderabad - 500072
                Telangana.",HAIR STYLISTS,Kukatpally,,
Enhance Saloon,+91 9676847646,"Near Forum Sujana Mall
                Address
                Kapil Complex,No. 21/A,
                6th Phase KBHP,
                Kukatpally,
                Hyderabad - 500072
                Telangana.",HAIR STYLISTS,Kukatpally,,
My Colours Spa & Salon,+91 9989916859,"Opposite Bata
                Address
                Plot-No. 43,
                Road No. 1, Balaji Nagar,Heritage Fresh,
                Kukatpally,
                Hyderabad - 500072
                Telangana.
                40 40115055",HAIR STYLISTS,Kukatpally,,
Colours Beauty Parlour,+91 8179189189,"Near Temple Bus Stop
                Address
                Plot No. 489,
                Srinivasa Nilayam KBHP Colony, 3rd Phase,
                Kukatpally,
                Hyderabad - 500072
                Telangana",HAIR STYLISTS,Kukatpally,,
Sparsh Beauty Salon,+91 9912175391,"Beside Hyderabad Chefs
                Address
                1st Floor, Ayyappa Towers,
                9th Phase, KPHB,
                Kukatpally,
                Hyderabad - 500072
                Telangana.",HAIR STYLISTS,Kukatpally,,
Naturals Saloon & Spa,+91 8801791100,"Opposite HDFC Bank
                Address
                Plot No. 631,
                YVR Plaza, V.V. Nagar,
                Kukatpally,
                Hyderabad - 500072
                Telangana.",HAIR STYLISTS,Kukatpally,,
APSRTC Kukatpally Bus Stand,,"NH 65, Bhavani Nagar, Moosapet, Hyderabad, Telangana 500072",BUS STAND,Kukatpally,17.46972287,78.4275098
Kukatpally RTC bus stand,,"High 68, Behind Temple Bus Stop, beside Dr. Rao's Hospital, Kukatpally Housing Board Colony, Kukatpally, Hyderabad, Telangana 500072",BUS STAND,Kukatpally,17.5030765,78.4041699
Kukatpally bus stop,,"APSRTC Kukatpally Bus Stand, Mumbai Hwy, Bjp Office, Bhavani Nagar, Moosapet, Hyderabad, Telangana 500072",BUS STAND,Kukatpally,17.4666363,78.429682
"TSRTC Bus Depot , Kukatpally",,"6-47, Moosapet Rd, Bhavani Nagar, Moosapet, Hyderabad, Telangana 500018",BUS STAND,Kukatpally,17.4703011,78.4187338
Kukatpally Bus Depot,,"Pragathi Nagar, Moosapet, Hyderabad, Telangana 500072",BUS STAND,Kukatpally,17.4734886,78.4244377
KPHB Colony Bus Stop,040 6944 0000,"FCV2+W3R, Hmt Sathavahana Nagar, Kukatpally, Hyderabad, Telangana 500072",BUS STAND,Kukatpally,17.4980062,78.4026265
Pavan Enterprises,+91 9581650551,"Near Balaji Park Town
            Address
            Plot No. 3-136, Shop No. 1 & 2,
            Nizampet Village, Main Road,
            Kukatpally,
            Hyderabad - 500072
            Telangana.",ELECTRICIAN,Kukatpally,,
Electrician Services,+91 9121006283,"Plot No. 401,
            5th Floor, Alluri Trade Centre, Bhagya Nagar Colony ,
            Kukatpally,
            Hyderabad - 500072
            Telangana.",ELECTRICIAN,Kukatpally,17.4932224,78.4036638
S S Enterprises,+91 40 23068095,"Near Kukatpally Bus Stop
            Address
            D No. 2-1-1/A,
            Kukatpally,
            Hyderabad - 500072
            Telangana.",ELECTRICIAN,Kukatpally,17.484998,78.411872
Aeroclub Woodland Shoes & Apparels,+91 40 66037224,"Shop No. 3 & 4, 1st Floor,
            Manjeera Mall, JNTU Road,
            Kukatpally,
            Hyderabad - 500072
            Telangana.",FOOTWEAR,Kukatpally,17.490077,78.392905
Ibis Foot Solemate,+91 40 42306902,"Plot No. MIG - 209,
            Road No. 1, KPHB Colony,
            Kukatpally,
            Hyderabad - 500072
            Telangana.
            
            Telephone: 40 23157733",FOOTWEAR,Kukatpally,17.48749989,78.37924789
Jetro Foot Wear,+91 9246261694,"Opposite More Mega Mall
            Address
            Padmavathi Tower,
            Kukatpally,
            Hyderabad - 500072
            Telangana.
            40 23055911",FOOTWEAR,Kukatpally,17.5030765,78.4041699
Jetro Footwear & Luggage Store,+91 9246261694,"Opposite More Mega Mall
            Address
            Padmavathi Tower,
            Kukatpally,
            Hyderabad - 500072
            Telangana.
            40 23055911",FOOTWEAR,Kukatpally,17.5030765,78.4041699
Centro,+91 40 66313233,"HIG-232, Shanti Plaza ,
            Phase No.1, S.V.R Travels Complex,
            Kukatpally,
            Hyderabad - 500072
            Telangana.",FOOTWEAR,Kukatpally,17.5030765,78.4041699
MSL Footwear,+91 9052178611,"D-Mart, Survey No. 1009, Vijim Circle, Malasian Township,
            Kukatpally,
            Hyderabad - 500072
            Telangana.",FOOTWEAR,Kukatpally,17.479046,78.391384
Health Sole Footwear,+91 9652768899,"Beside Vasi Reddy Sweets
            Address
            Flat No. 406, Bhavya Enclave,
            Road No. 4, KPHB Colony, Phase 3,
            Kukatpally,
            Hyderabad - 500072
            Telangana.",FOOTWEAR,Kukatpally,,
Foot Fashions,+91 8886166870,"Shop No. 2,
            Krishna Classic Building,
            Kukatpally,
            Hyderabad - 500072
            Telangana.
            40 40048876",FOOTWEAR,Kukatpally,17.5021305,78.3886504
Mayuri Foot Wear,+91 9849000453,"Beside Government JR College
            Address
            Kukatpally Main Road,
            Vivek Nagar,
            Kukatpally,
            Hyderabad - 500072
            Telangana.",FOOTWEAR,Kukatpally,17.481185,78.413562
Bata Foot Wear,+91 9849685768,"Beside JC Brothers
            Address
            Flat No. MIG 229,
            Travelers Road,
            Kukatpally,
            Hyderabad - 500072
            Telangana.
            40 40126558",FOOTWEAR,Kukatpally,17.5030765,78.4041699
Lavie Bags And Shoes,+91 8030534022,"Shop No. 111, 2nd Floor,
            Forum Sujana Mall, KPHB Colony,
            Kukatpally,
            Hyderabad - 500072
            Telangana",FOOTWEAR,Kukatpally,17.4775722,78.39495855
Rana Selections Footwear,+91 9951709245,"Beside HDFC Bank ATM
            Address
            Plot No. 564,
            Shop No. 3, Pragathi Nagar,
            Kukatpally,
            Hyderabad - 500072
            Telangana.
            
            Telephone: 9700110245",FOOTWEAR,Kukatpally,,
Bata India Limited,+91 9392135824,"Shop No. 15-21-48/1 & 2,
            Srinivasa complex, Balaji Nagar,
            Kukatpally,
            Hyderabad - 500072
            Telangana",FOOTWEAR,Kukatpally,17.484171,78.411941
Janta Family Footwear,+91 7842872121,"Shop No. C-3,
            Laxmi Commercial Complex,
            Kukatpally,
            Hyderabad - 500072
            Telangana.
            40 68332003",FOOTWEAR,Kukatpally,17.5030765,78.4041699
S.S.S. Foot Wear,+91 9032551344,"Shop No. 3 & 4, UMCC Road ,
            AS Raju Nagar, KPHB Colony,
            Kukatpally,
            Hyderabad - 500072
            Telangana.",FOOTWEAR,Kukatpally,17.4775722,78.39495855
New Step-In Footwear,+91 40 65510366,"Below Narayana Junior College
            Address
            Jaya Complex,
            Kukatpally,
            Hyderabad - 500072
            Telangana",FOOTWEAR,Kukatpally,17.5030765,78.4041699
Khadims India Limited,+91 9620103828,"Beside Padmavathi Plaza
            Address
            Shop No. 192, Sree Plaza,
            Saptagiri Complex,
            Kukatpally,
            Hyderabad - 500072
            Telangana.
            40 40064440",FOOTWEAR,Kukatpally,,
Anils Footwear,+91 9842123161,"Shop No. C-3,
            Sanoja Complex, KPHB Main Road,
            Kukatpally,
            Hyderabad - 500072
            Telangana.
            40 42204344",FOOTWEAR,Kukatpally,17.5030765,78.4041699
Reliance Foot Print,+91 9100927731,"Ground Floor, S1, Survey No 1043 & 1048,
            NSL Centrum, KPHB Colony,
            Kukatpally,
            Hyderabad - 500072
            Telangana.
            40 4019222",FOOTWEAR,Kukatpally,17.4775722,78.39495855
K.N Foot Wear,+91 9676381962,"Near SBI ATM
            Address
            Plot No. 1058,
            Shop No. 3, Pagathi Nagar,
            Kukatpally,
            Hyderabad - 500072
            Telangana.
            040 40071996",FOOTWEAR,Kukatpally,,
Beyond Basics Furniture,+91 9030573005,"Near Pavan Bar
            Address
            H. No. 4-19,
            Sumitra Nagar,
            Kukatpally,
            Hyderabad - 500072
            Telangana.
            40 23163005",FURNITURE SHOP,Kukatpally,17.5030765,78.4041699
Home Style Furniture,+91 40 23156359,"Opp.Bramaramba Mallikarjuna Theatres
            Address
            Plot No:1, Vasanth Nagar, Hyder Nagar,
            Nizampet Rd,
            Kukatpally,
            Hyderabad - 500072
            Telangana",FURNITURE SHOP,Kukatpally,,
Sri Sai Elite Interiors,+91 8106246622,"Beside TVS Showroom
            Address
            Shop No. G1, G2,
            Nizampet Road,
            Kukatpally,
            Hyderabad - 500072
            Telangana.
            40 40177008",FURNITURE SHOP,Kukatpally,17.50067689,78.38939648
SS Furnitures,+91 8885555595,"Near Pragathi Nagar Lake
            Address
            G-4, Plot No. 30, 31, Mythri's Lake Front Apartments,
            Pragathi Nagar,
            Kukatpally,
            Hyderabad - 500072
            Telangana.
            40 64647647",FURNITURE SHOP,Kukatpally,,
The Cane Interiorer,+91 9347029883,"Shop No. 007, Down Town Mall,
            Kukatpally,
            Hyderabad - 500072
            Telangana.
            
            Telephone: 7396916342",FURNITURE SHOP,Kukatpally,17.5030765,78.4041699
Sofa World,+91 9603515660,"Plot No. 4, Shilpa Paradise,
            Kukatpally,
            Hyderabad - 500072
            Telangana.
            
            Telephone: 8977862013",FURNITURE SHOP,Kukatpally,17.5030765,78.4041699
GNK Interior Infra Pvt. Ltd.,+91 9393664646,"Plot No. 20 MIG,
            2nd Floor, Vamsee Plaza, Hyder Nagar,
            Kukatpally,
            Hyderabad - 500072
            Telangana",FURNITURE SHOP,Kukatpally,17.5030765,78.4041699
Jugnu Furnitures,+91 40 23160515,"Yadaih Complex, Juan Road,
            Vivekananda Nagar,
            Kukatpally,
            Hyderabad - 500072
            Telangana",FURNITURE SHOP,Kukatpally,17.495458,78.410227
Classic Furniture,+91 9492032565,"Near Foot Over Bridge
            Address
            LIG-29/8,
            4th Phase, K.P.H.B. Colony ,
            Kukatpally,
            Hyderabad - 500072
            Telangana.",FURNITURE SHOP,Kukatpally,17.4775722,78.39495855
Mayan Furniture,+91 9550805353,"Beside Weavers India Cloth Show Room
            Address
            Plot No. 45,
            9th Phase, Housing Board,
            Kukatpally,
            Hyderabad - 500072
            Telangana.
            40 65532715",FURNITURE SHOP,Kukatpally,,
Tirumal Furnitures,+91 9666977719,"Pragathi Nagar
            Address
            Plot No. 159/A,
            Sai Srinivasa Tower, Addagutta Colony,
            Kukatpally,
            Hyderabad - 500072
            Telangana.
            40 69995789",FURNITURE SHOP,Kukatpally,,
Nesta Modular Kitchen,+91 7660097447,"Opposite Landmark Hospital
            Address
            Plot No. 964, Vasant Nagar,
            Hyder Nagar, NH9,
            Kukatpally,
            Hyderabad - 500072
            Telangana.",FURNITURE SHOP,Kukatpally,17.5030765,78.4041699
Slim & Skin Gym,+91 9000971093,"Oppostite HDFC Bank
            Address
            Plot No. 631 ,
            2nd Floor, V.V. Nagar,
            Kukatpally,
            Hyderabad - 500072
            Telangana.
            40 40124739",GYM,Kukatpally,,
Ability Gym,+91 9059927225,"Beside G. Pulla Reddy Sweets
            Address
            3rd Floor,
            Yes Mart Building, KPHB,
            Kukatpally,
            Hyderabad - 500072
            Telangana.
            40 65949999",GYM,Kukatpally,,
Pro Fitness Gym,+91 9550455422,"Above Green Trends
            Address
            Plot No. 279,
            V.V. Nagar, KPHB,
            Kukatpally,
            Hyderabad - 500072
            Telangana.
            40 40182552",GYM,Kukatpally,17.479732,78.387325
Sona Gym,+91 9849259021,"Opposite R.S Brothers
            Address
            2nd Floor, Sapthagiri Complex,
            Kukatpally,
            Hyderabad - 500072
            Telangana",GYM,Kukatpally,17.5030765,78.4041699
Fitness King Gym,+91 9160099848,"House No 5-2-1/A,
            Vivek Nagar,
            Kukatpally,
            Hyderabad - 500072
            Telangana.
            
            Telephone: 9491493034",GYM,Kukatpally,17.481185,78.413562
300 The Gym,+91 9502285555,"MIG 21/6 ,
            Kukatpally Housing Board Colony, JNTU Road,
            Kukatpally,
            Hyderabad - 500072
            Telangana.",GYM,Kukatpally,17.495736,78.396893
Grace Gym & Fitness Hub,+91 9032015158,"D-No. 770,
            Pragathi Nagar Road,
            Kukatpally,
            Hyderabad - 500072
            Telangana.",GYM,Kukatpally,17.51850151,78.40047019
Hyderabad Mma Gym,+91 9502551083,"Opposite Corporation Bank
            Address
            4th Floor, 9TH Phase,
            MIG-II-13, Veera Reddy Complex ,
            Kukatpally,
            Hyderabad - 500072
            Telangana.",GYM,Kukatpally,,
Ice Stations,+91 9346239356,"Ground Floor, VC Plaza,
            Vivek Nagar,
            Kukatpally,
            Hyderabad - 500072
            Telangana.",ICECREAM & DESSERT PARLOR,Kukatpally,17.482681,78.413819
Tipsy Topsy Bakers & Confectioners,+91 9704978637,"Plot No. 750/1,
            Vivekananda Nagar,
            Kukatpally,
            Hyderabad - 500072
            Telangana",ICECREAM & DESSERT PARLOR,Kukatpally,17.4930199,78.41423248
Green Events,+91 9912334422,"Opp. JNTU Road, Beside SBH Bank
            Address
            Plot No. 1347,
            Pragathi Nagar Colony,
            Kukatpally,
            Hyderabad - 500072
            Telangana.",ICECREAM & DESSERT PARLOR,Kukatpally,17.49052727,78.39248028
Country Oven Bakers,+91 9666697197,"Lane Opp. JNTU Main Gate, Beside Grand RKS
            Address
            KPHB Colony,
            Kukatpally,
            Hyderabad - 500072
            Telangana.
            40 23056588",ICECREAM & DESSERT PARLOR,Kukatpally,17.4775722,78.39495855
Basket Chinese House,+91 8790029758,"Below Brand Factory
            Address
            KPHB Colony,
            Kukatpally,
            Hyderabad - 500072
            Telangana.",ICECREAM & DESSERT PARLOR,Kukatpally,17.4775722,78.39495855
RT Enterprises,+91 8978955884,"Opp. Bashyam School
            Address
            Plot No. 1256 & 1259, Pragathi Nagar,
            Satyabhama's Sri Nilayam, Ground Floor,
            Kukatpally,
            Hyderabad - 500072
            Telangana.
            40 4025003",ICECREAM & DESSERT PARLOR,Kukatpally,,
Brown Bear Bakery,+91 9553399899,"Near Southindia Shopping Mall
            Address
            D No. 2-22-79/3, Shop No. 1,
            A.S. Raju Nagar, KPHB Colony,
            Kukatpally,
            Hyderabad - 500072
            Telangana.
            40 65919102",ICECREAM & DESSERT PARLOR,Kukatpally,,
Scrummys Food,+91 7702673737,"Near Dhanalakshmi Centre
            Address
            KPHB Phase 1 & 2,
            Road No. 2,
            Kukatpally,
            Hyderabad - 500072
            Telangana.",ICECREAM & DESSERT PARLOR,Kukatpally,17.5030765,78.4041699
Sundays Ice Cream Shop,+91 9799530433,"Opposite Shiva Parvathi temple
            Address
            Shop No. 13,
            APHB Complex, KPHB Colony,
            Kukatpally,
            Hyderabad - 500072
            Telangana.",ICECREAM & DESSERT PARLOR,Kukatpally,17.4775722,78.39495855
K.S Bakers Private Limited,+91 9640300020,"No-3 & 4,
            Udai Krishna Appartments,
            Kukatpally,
            Hyderabad - 500072
            Telangana.
            040 66200023
            040 23160744",ICECREAM & DESSERT PARLOR,Kukatpally,17.5030765,78.4041699
Mia by Tanishq,+91 9052493883,"Near Malaysian Township
            Address
            The Forum Sujana Mall,
            Ground Floor,
            Kukatpally,
            Hyderabad - 500072
            Telangana.
            40 6768413",JEWELLERY SHOPS,Kukatpally,,
Tanishq,+91 40 49490552,"Near Malaysian Township Cross Road
            Address
            1&2, Alluri Trade Centre,
            KPHB Colony,
            Kukatpally,
            Hyderabad - 500072
            Telangana.
            40 40153080",JEWELLERY SHOPS,Kukatpally,,
Kalyan Jewellers,+91 40 23157333,"D No. 21-47/4, 21-19/1, Plot No. 25, 26,
            Balaji Nagar,
            Kukatpally,
            Hyderabad - 500072
            Telangana.
            40 23155333",JEWELLERY SHOPS,Kukatpally,,
Femina Jewels,+91 9700945759,"2nd Floor,
            Forum Sujana Mall, KPHB Colony,
            Kukatpally,
            Hyderabad - 500072
            Telangana.
            40 30534289",JEWELLERY SHOPS,Kukatpally,17.4775722,78.39495855
Aarya 24 Kt Jewellers,+91 7675984666,"SF 23, Manjeera Mall,
            Hitech City Road, JNTU,
            Kukatpally,
            Hyderabad - 500072
            Telangana.",JEWELLERY SHOPS,Kukatpally,17.5030765,78.4041699
Sri Venkateshwara Pearls & Jewellers,+91 9247395999,"Opposite Vertex Paradise Appartments
            Address
            Shop No. 1-2-31,
            Sri Sai Priya Residency,
            Kukatpally,
            Hyderabad - 500072
            Telangana.
            40 64509994",JEWELLERY SHOPS,Kukatpally,,
Mangatrai Jewellers,+91 9848011180,"Plot No. S-16, Survey No. 1009, K P H B Phase 6,
            Forum Sujana Mall,
            Kukatpally,
            Hyderabad - 500072
            Telangana.",JEWELLERY SHOPS,Kukatpally,17.5030765,78.4041699
Sujala Gems & Jewels,+91 9885487480,"Beside Padmavathi Plaza
            Address
            Shop No. 1,
            Saptagiri Complex , KPHB Colony,
            Kukatpally,
            Hyderabad - 500072
            Telangana.
            40 23162122",JEWELLERY SHOPS,Kukatpally,,
Sri Raja Rani Jewellers,+91 9246186684,"Adj. Vijay Textiles
            Address
            H No. 22-240/5, Plot No. 5,
            Bhagya Nagar Colony, KPHB,
            Kukatpally,
            Hyderabad - 500072
            Telangana.
            40 40176684",JEWELLERY SHOPS,Kukatpally,,
GRT Jewellers,+91 40 40251515,"Near Vishvanath Theatre
            Address
            No. 2-22-300, Plot No. 3,
            Bhagya Nagar Colony, KPHB,
            Kukatpally,
            Hyderabad - 500072
            Telangana.
            40 23414999",JEWELLERY SHOPS,Kukatpally,,
Kalamandir Wedding Collection,+91 40 64534567,"Hmt Sathavahana Nagar
            Address
            2-22-299-1-7-A, 1st Floor,
            PRR Estate, KPHB main Road,
            Kukatpally,
            Hyderabad - 500072
            Telangana.",JEWELLERY SHOPS,Kukatpally,17.5030765,78.4041699
Khazana Jewellery,+91 40 66314900,"MIG-344,
            phase- 5, KPHB colony,
            Kukatpally,
            Hyderabad - 500072
            Telangana.",JEWELLERY SHOPS,Kukatpally,17.4775722,78.39495855
Avantika Collection,+91 7799256265,"Shop No. 2, MIG 414,
            Road No 4, KPHB Colony,
            Kukatpally,
            Hyderabad - 500072
            Telangana.
            
            Telephone: 9908807561",JEWELLERY SHOPS,Kukatpally,17.4902071,78.3823579
Adharva Jewels,+91 7013143399,"Below Just Bake
            Address
            LIG - 15/4, Shop No. 1,,
            KPHB Phase 3, Hitech City Road, JNTU,
            Kukatpally,
            Hyderabad - 500072
            Telangana.",JEWELLERY SHOPS,Kukatpally,17.5030765,78.4041699
Tirupathi Jewellery,+91 96182 35801,"LIG-81 shop no.1 ,
            KPHB Phase 2 ,
            Kukatpally,
            Hyderabad - 500072
            Telangana.",JEWELLERY SHOPS,Kukatpally,17.484915,78.396108
Shri Rajarajeshwari,+91 9247248322,"Near KBHP Main Road
            Address
            Shop No. 101,
            Krishna Veni Complex,
            Kukatpally,
            Hyderabad - 500072
            Telangana.
            40 23160949",JEWELLERY SHOPS,Kukatpally,,
Tangibles,+91 8790562862,"Shop No. 1,
            Gayathri Residency,
            Kukatpally,
            Hyderabad - 500072
            Telangana.",JEWELLERY SHOPS,Kukatpally,17.49771041,78.41193399
Violet & Purple,+91 40 23053466,"Near Prime Hospitals
            Address
            MIGH-191 Road Number 1,
            KPHB Phase I, KPHB Colony ,
            Kukatpally,
            Hyderabad - 500072
            Telangana.",JEWELLERY SHOPS,Kukatpally,17.4775722,78.39495855
Jos Alukkas,+91 40 23053916,"Door No. 237,
            KPHB Colony,
            Kukatpally,
            Hyderabad - 500072
            Telangana.",JEWELLERY SHOPS,Kukatpally,17.4775722,78.39495855
Joyalukas Jewellers,+91 9440801032,"Door No. 2-22-306/1/1,
            KPHB Main Road,
            Kukatpally,
            Hyderabad - 500072
            Telangana.
            040 23892555
            040 23418205",JEWELLERY SHOPS,Kukatpally,17.5030765,78.4041699
Cross Word Book Store Limited,+91 9885189941,"HIG - 554, 3rd Floor,
            KPHB Colony, Forum Sujana Mall,
            Kukatpally,
            Hyderabad - 500072
            Telangana.",BOOK STORES,Kukatpally,17.4840487,78.3892184
Scribbles Book Store,+91 9618922336,"Beside Chennai Shopping Mall
            Address
            Alluri Commercial Complex,
            KPHB Colony,
            Kukatpally,
            Hyderabad - 500072
            Telangana.",BOOK STORES,Kukatpally,17.4775722,78.39495855
Sri Sai Padma Book Center & Stationery Store,+91 9949812337,"Addagutta Society,
            HMT Hills Road, HMT Hills,
            Kukatpally,
            Hyderabad - 500072
            Telangana",BOOK STORES,Kukatpally,17.50317597,78.39655621
Sai Krishna Books Stationary Store,+91 8978997399,"Opposite Bus Stop
            Address
            Shop No. 425/A,
            1st Phase, Allwyn Colony,
            Kukatpally,
            Hyderabad - 500072
            Telangana.",BOOK STORES,Kukatpally,17.501961,78.418811
Sai Krishna Books Stationary Store,+91 8978997399,"Opposite Bus Stop
              Address
              Shop No. 425/A,
              1st Phase, Allwyn Colony,
              Kukatpally,
              Hyderabad - 500072
              Telangana.",STATIONARY,Kukatpally,17.501961,78.418811
Jagdamba Stationery,+91 40 23053974,"MIG-511, 3rd Phase,
              KPHB Colony,
              Kukatpally,
              Hyderabad - 500072
              Telangana.",STATIONARY,Kukatpally,17.48305801,78.39299693
Himalaya Pack & Stationery,+91 9989332929,"Shop No. 5,
              Sony Business Complex, Prashanthi Nagar,
              Kukatpally,
              Hyderabad - 500072
              Telangana.
              40 23070157",STATIONARY,Kukatpally,17.477226,78.427517
Sri Sai Padma Book Center & Stationery Store,+91 9949812337,"Addagutta Society,
              HMT Hills Road, HMT Hills,
              Kukatpally,
              Hyderabad - 500072
              Telangana.",STATIONARY,Kukatpally,17.50317597,78.39655621
Bhagyalaxmi Stationary House,+91 9700186173,"Opposite Monkey Circle
              Address
              Plot No. 496,
              Pragathi Nagar,
              Kukatpally,
              Hyderabad - 500072
              Telangana.",STATIONARY,Kukatpally,17.51573135,78.39929865
Gayathri Stationary Store,+91 9866586881,"LIG-10,
              Kukatpally Housing Board Colony,
              Kukatpally,
              Hyderabad - 500072
              Telangana.
              
              Telephone: 9247714356",STATIONARY,Kukatpally,17.495736,78.396893
Chennai Shopping Mall,+91 40 23153030,"Beside Swagat Restaurant
            Address
            MIG 235,
            KPHB Colony, Bhagyanagar Colony,
            Kukatpally,
            Hyderabad - 500072
            Telangana",MALL,Kukatpally,17.5030765,78.4041699
9X Store Shopping Mall,+91 40 24051115,"Near Sujana Formum Mall
            Address
            Janesh Plaza,
            MIG Bus Stop, 6th Phase,
            Kukatpally,
            Hyderabad - 500072
            Telangana.",MALL,Kukatpally,17.5030765,78.4041699
Sri Mallikarjuna Goodwill Dry Cleaners,+91 9866430777,"Near Andhra Bank
            Address
            Plot No. 1078, Shop No. 2,
            Pragathi Nagar,
            Kukatpally,
            Hyderabad - 500072
            Telangana.",MALL,Kukatpally,17.51573135,78.39929865
South India Shopping Mall,+91 40 23164848,"Near Usha Mullapudi Arch
            Address
            Plot No. 17 to 20, Survey No. 166/P,
            Kukatpally Village,
            Kukatpally,
            Hyderabad - 500072
            Telangana.",MALL,Kukatpally,,
Sri Malleshwari Kuchipudi Arts Academy,+91 9396746890,"Gate No. 3, Usha Mullapudi Road,
            BIT - 2, Vivekananda Nagar Colony,
            Kukatpally,
            Hyderabad - 500072
            Telangana.",MALL,Kukatpally,17.4942639,78.40466269
Forum Sujana Mall,+91 40 30534053,"Opposite Malaysian Township
            Address
            Plot No. S-16, Survey No. 1009,
            KPHB 6th Phase,
            Kukatpally,
            Hyderabad - 500072
            Telangana.
            40 30534243",MALL,Kukatpally,,
Mallikarjun Electricals,+91 9642465256,"South India Mall
            Address
            Shop No. 7,
            Bhagya Nagar Rajima Tower,
            Kukatpally,
            Hyderabad - 500072
            Telangana",MALL,Kukatpally,17.5030765,78.4041699
Cogent Medical Diagnostics,+91 9490165605,"Opp. JNTU, Beside Andhra Bank
            Address
            Shop No. 3, Sudhakar Tower,
            Pragathi Nagar,
            Kukatpally,
            Hyderabad - 500072
            Telangana.",MEDICAL,Kukatpally,17.51573135,78.39929865
Ayuh Sree Herbals & Ayurvedic Medical Shop,+91 9052131013,"Opp. Deena Band
            Address
            Plot No. 1 & 2,
            Vivekananda Nagar Road,
            Kukatpally,
            Hyderabad - 500072
            Telangana.",MEDICAL,Kukatpally,17.48988486,78.41415833
Sri Bhargav Medical & General Stores,+91 9030995069,"Alluri Trade Centre,
            KPHB Colony,
            Kukatpally,
            Hyderabad - 500072
            Telangana.
            40 23165069",MEDICAL,Kukatpally,17.4775722,78.39495855
Amrutha Hospital & Medical,+91 8297221155,"Remedy Hospital Lane
            Address
            M.I.G -410, Ground Floor,
            Sai Divya Residency, Road No. 4,
            Kukatpally,
            Hyderabad - 500072
            Telangana.",MEDICAL,Kukatpally,,
Sri Sai Medical Hall,+91 9701237098,"Opp. Sai Keerthi Childrens Hospital
            Address
            D. No. 4-49,
            Vivekananda Nagar,
            Kukatpally,
            Hyderabad - 500072
            Telangana.",MEDICAL,Kukatpally,17.495458,78.410227
Apple Diagnostic & Medical Centre,+91 9246590009,"No. 266,
            Vivekananda Nagar Colony Main Road,
            Kukatpally,
            Hyderabad - 500072
            Telangana.
            040 65296669
            040 65265256",MEDICAL,Kukatpally,17.49752236,78.41323644
Sai Datta Medical & General Stores,+91 9848011951,"Opp. KPHB Colony
            Address
            Plot No. 128,
            Balaji Hills Apartment,
            Kukatpally,
            Hyderabad - 500072
            Telangana.",MEDICAL,Kukatpally,17.5030765,78.4041699
S.V. Medicals Surgicals,+91 7799194466,"Opposite Vignesh Nursing Home
            Address
            G-1, MIG-262,
            Bhavani Enclave,
            Kukatpally,
            Hyderabad - 500072
            Telangana.
            40 40189797",MEDICAL,Kukatpally,,
Sri Poojitha Medical Hall,+91 7337096594,"Opp. R.S. Brothers
            Address
            S. No. 5/22-298,
            ADR Estate,
            Kukatpally,
            Hyderabad - 500072
            Telangana",MEDICAL,Kukatpally,17.5030765,78.4041699
Asian Medical Diagnostics,+91 9010610610,"Near South India Shopping Mall
            Address
            D. No. 15-24-2, MIG 1,
            Main Road, Adj. to Road No. 1 Arch,
            Kukatpally,
            Hyderabad - 500072
            Telangana.
            40 23150610",MEDICAL,Kukatpally,,
Bharat Vikas Generic Medical Shop,+91 040 65557754,"Near To Post Office
            Address
            Society Office,
            Vivekananda Nagar,
            Kukatpally,
            Hyderabad - 500072
            Telangana",MEDICAL,Kukatpally,17.495458,78.410227
Bharat Vikas Generic Medical Shop,+91 040 64554799,"Near Bjp Office, Main Road
            Address
            MIG 426,
            KPHB Colony,
            Kukatpally,
            Hyderabad - 500072
            Telangana.",MEDICAL,Kukatpally,17.4775722,78.39495855
Bharat Vikas Generic Medical Shop,+91 040 65557744,"Near Sri Venkateswara Swamy Temple
            Address
            MIG 426, Road No. 4,
            Kukatpally,
            Hyderabad - 500072
            Telangana.",MEDICAL,Kukatpally,17.495132,78.387568
SIM Mobile Shopee,+91 9640577712,"Shop No 22,
            Manjeera Majastic Commercial, JNTU Road,
            Kukatpally,
            Hyderabad - 500072
            Telangana.",MOBILE REPAIR SHOP,Kukatpally,17.4912785,78.3937283
Reliance Mobile Store,+91 9347001122,"Shop No 4,
            Sai Satya Complex, KPHB Main Road,
            Kukatpally,
            Hyderabad - 500072
            Telangana",MOBILE REPAIR SHOP,Kukatpally,17.51876334,78.38583496
BiG C Mobile Store,+91 9966042888,"Unit No 003, Ground Floor,
            Manjeera Majastic Commercial Complex,
            Kukatpally,
            Hyderabad - 500072
            Telangana.",MOBILE REPAIR SHOP,Kukatpally,17.4912785,78.3937283
LG Mobile Shoppe,+91 40 30534130,"Shop No 313, 3rd Floor,
            Forum Sujana Mall,
            Kukatpally,
            Hyderabad - 500072
            Telangana.
            40 30534129",MOBILE REPAIR SHOP,Kukatpally,17.4840487,78.3892184
AMC Accessory & Mobile Concepts,+91 40 65555830,"LG-11,
            Manjeera Trinity Mall,
            Kukatpally,
            Hyderabad - 500072
            Telangana.",MOBILE REPAIR SHOP,Kukatpally,17.489711,78.394041
Sri Sai Marketing Ideal Mobile Services,+91 9848005334,"Beside Ramalayan Arch
            Address
            H.No 1-97/1,
            Kukatpally,
            Hyderabad - 500072
            Telangana.",MOBILE REPAIR SHOP,Kukatpally,17.5030765,78.4041699
The Mobile Store Limited,+91 9966155010,"H.No. 1-1-25/12,
            Atmaram Estates, Nizampet X Roads,
            Kukatpally,
            Hyderabad - 500072
            Telangana.
            40 64510234",MOBILE REPAIR SHOP,Kukatpally,17.5030765,78.4041699
Sri Srujana Mobile & Communications,+91 9949988589,"MIG 15/3, Shop No. 2,
            Just Bake Bakery Building, KPHB Colony,
            Kukatpally,
            Hyderabad - 500072
            Telangana.",MOBILE REPAIR SHOP,Kukatpally,17.4775722,78.39495855
Mobile Basket,+91 9393007777,"Opposite ZP High School
            Address
            D-No 2-127,
            Nizampet Road,
            Kukatpally,
            Hyderabad - 500072
            Telangana.
            40 31003131",MOBILE REPAIR SHOP,Kukatpally,17.5015774,78.38913857
The Mobile Mart,+91 9542766676,"Opposite KPHB Bus Stop
            Address
            Shop No. 101 & 102,
            Padmavathi Plaza,
            Kukatpally,
            Hyderabad - 500072
            Telangana.",MOBILE REPAIR SHOP,Kukatpally,17.49519999,78.40069998
Kolors Mobile Services,+91 9032339944,"Beside ICICI Bank
            Address
            Shop No. 9, Block B,
            Nagarjuna Homes, Nijampet Road,
            Kukatpally,
            Hyderabad - 500072
            Telangana.
            40 65149944",MOBILE REPAIR SHOP,Kukatpally,,
web designing & development and hybrid mobile applications,+91 9985704896,"Plot No. 202,
            S. S. Colony, Vasanth Nagar,
            Kukatpally,
            Hyderabad - 500072
            Telangana.",MOBILE REPAIR SHOP,Kukatpally,17.4976538,78.3878844
Kotons Clothing Store,+91 8686619355,"Plot No. 57, Shop No. G1,
            Sardar Patel Nagar, Sri Gurudatta Complex,
            Kukatpally,
            Hyderabad - 500072
            Telangana.
            40 40188299",CLOTHING STORE,Kukatpally,17.5030765,78.4041699
Kaira Clothing Store,+91 9100996556,"Opposite KS Bakers
            Address
            S.No. 1 & 2, Ground Floor,
            Sapthagiri Complex, KPHB Colony,
            Kukatpally,
            Hyderabad - 500072
            Telangana.
            40 23067353",CLOTHING STORE,Kukatpally,,
Shreya Features Clothing Store,+91 9848457003,"Opposite RS Brothers
            Address
            Shop No. 192, Sree Plaza,
            Bhagyanagar Colony,
            Kukatpally,
            Hyderabad - 500072
            Telangana.",CLOTHING STORE,Kukatpally,17.5030765,78.4041699
,,,CLOTHING STORE,Kukatpally,18.77609574,100.773935
Lotus Incorporation Clothing Store,+91 40 23155299,"Near Brand Factory
            Address
            Plot No. 1043 & 1048,
            1st Floor, NSL Centrum Mall, KPHB,
            Kukatpally,
            Hyderabad - 500072
            Telangana.",CLOTHING STORE,Kukatpally,17.479732,78.387325
Glitz Womens Clothing Store,+91 9000176111,"Shop No. 1-2-49/3/1,
            Ground Floor, Nizampet Road,
            Kukatpally,
            Hyderabad - 500072
            Telangana.
            40 42300755",CLOTHING STORE,Kukatpally,17.50547008,78.38645301
Vastra Trendz Clothing Store,+91 9700008333,"Near JNTU
            Address
            Dharmareddy Colony,
            MRO Office Road,
            Kukatpally,
            Hyderabad - 500072
            Telangana.",CLOTHING STORE,Kukatpally,17.5030765,78.4041699
Sri Smart Collection Clothing Store,+91 9248077699,"Padmaya Complex,
            MIG Centre,
            Kukatpally,
            Hyderabad - 500072
            Telangana.
            40 64627699",CLOTHING STORE,Kukatpally,17.5030765,78.4041699
Kanish Collections Clothing Store,+91 9391023380,"Plot No. 171,
            Pragathi Nagar,
            Kukatpally,
            Hyderabad - 500072
            Telangana.
            40 23892380",CLOTHING STORE,Kukatpally,17.4944351,78.4262231
Radhika Selection Clothing Store,+91 9246809669,"Near HDFC Bank ATM
            Address
            Plot No. 561 & 562,
            Pragathi Nagar,
            Kukatpally,
            Hyderabad - 500072
            Telangana.",CLOTHING STORE,Kukatpally,17.51573135,78.39929865
Priyanka Womens Clothing Store,+91 40 66516299,"MIG 221, Phase 1,
            Kukatpally,
            Hyderabad - 500072
            Telangana.",CLOTHING STORE,Kukatpally,17.5030765,78.4041699
Daman Organic Products Limited,+91 7032033366,"Near Pillar No. 39
            Address
            Hydernagar,
            Kukatpally,
            Hyderabad - 500072
            Telangana.
            
            Telephone: 9100725666",GROCERY,Kukatpally,17.5030765,78.4041699
Spoorthi Super Market,+91 9704096600,"Near South India shopping Mall
            Address
            Plot No. 98, A.S. Raju Nagar,
            Usha Mullapudi Road,
            Kukatpally,
            Hyderabad - 500072
            Telangana",GROCERY,Kukatpally,,
24 Mantra Organic,+91 7032708092,"Opp. Manjeera Water Tank
            Address
            Plot No: 72, HIG, 3rd Phase, KPHB Colony ,
            Kukatpally,
            Hyderabad - 500072
            Telangana.",GROCERY,Kukatpally,17.4775722,78.39495855
Sri Dhana Lakshmi Kirana & General Stores,+91 40 33084408,"MIG 183, Road No 2,
            Dhana Lakshmi Center,
            Kukatpally,
            Hyderabad - 500072
            Telangana.",GROCERY,Kukatpally,17.49763157,78.39634091
Laundry Box,+91 9553323336,"Near Sujana Forum Mall
            Address
            Kapil Complex,
            KPHB Colony, Phase VI,
            Kukatpally,
            Hyderabad - 500072
            Telangana.
            40 42310277",LAUNDRY,Kukatpally,,
Westin Hotels,tel:40 67676767,"Building No 15,
Raheja IT Park, Hi-Tech City Road,
Madhapur,
Hyderabad - 500081
Telangana.",HOTEL,madhavpur,17.43614051,78.39338039
Hotel Danish,tel:8008729729,"H NO. 1-89/C/18/11, Survey No. 43 to 47,
Hitech City, Durgam Cheru Rd, Kavuri Hills,
Madhapur,
Hyderabad - 500081
Telangana.",HOTEL,madhavpur,17.439413,78.393164
Trident Hotel,tel:40 66232323,"Near Shilpakala Vedika
Address
Survey No. 64,
Hitech City Main Road,
Madhapur,
Hyderabad - 500081
Telangana.",HOTEL,madhavpur,17.44887761,78.3839552
M Hotels,tel:9666345555,"Above Ratnadeep Super Market
Address
Plot No. 20, Sector 1,
Jubilee Techno Enclave,
Madhapur,
Hyderabad - 500081
Telangana.
40 47774545
40 31009999",HOTEL,madhavpur,17.4528277,78.3824439
Trident Hotel,tel:40 66232323,"Near Shilpakala Vedika
Address
Survey No. 64,
Hitech City Main Road,
Madhapur,
Hyderabad - 500081
Telangana.",HOTEL,madhavpur,17.44887761,78.3839552
M Hotels,tel:9666345555,"Above Ratnadeep Super Market
Address
Plot No. 20, Sector 1,
Jubilee Techno Enclave,
Madhapur,
Hyderabad - 500081
Telangana.
40 47774545
40 31009999",HOTEL,madhavpur,17.4528277,78.3824439
Nera Regency,tel:7675881177,"Opposite Image Hospital
Address
Plot No. 10 & 11,
Vittal Rao Nagar,
Madhapur,
Hyderabad - 500081
Telangana.
40 65306777",HOTEL,madhavpur,17.4528277,78.3824439
Hotel Novotel Convention Centre,tel:40 66824422,"Near P.O Bag 1101
            Address
            Kavuri Hills,
            Hi-Tech City,
            Madhapur,
            Hyderabad - 500081
            Telangana.",HOTEL,madhavpur,17.439413,78.393164
Hotel Nera Residency,tel:9908884869,"Opposite Image Hospital
                  Address
                  Plot No. 10, 11,
                  Vittal Rao Nagar,
                  Madhapur,
                  Hyderabad - 500081
                  Telangana.
                  40 65306777",BUSINESS HOTEL,madhavpur,,
Hotel Horizon Residency,tel:40 40100785,"Plot No. 1213,
Main Road, Ayyappa Society,
Madhapur,
Hyderabad - 500081
Telangana.",BUDGET HOTEL,madhavpur,17.4528277,78.3824439
NRS Royal Recreation,tel:7893442444,"Opposite Trident Hotel
                      Address
                      H No. 1-98/5/3/3,
                      Cyber Enclave,
                      Madhapur,
                      Hyderabad - 500081
                      Telangana.",BUDGET HOTEL,madhavpur,,
Hotel My Bliss,tel:9949642421,"Opposite Indian Oil Petrol Pump
Address
Plot No. 169,
Ayyappa Society,
Madhapur,
Hyderabad - 500081
Telangana.
40 40214431
40 42212323",BUDGET HOTEL,madhavpur,17.4528277,78.3824439
Rainbow Children Hospital,tel:40 64642020,"Opposite Shilparamam
Address
No. 25, Survey No. 11/2,
Madhapur,
Hyderabad - 500081
Telangana.",HOSPITAL,madhavpur,17.4528277,78.3824439
Maxcure Hospital,tel:40 46404540,"Behind Cyber Towers
Address
Plot No. 7 to 11, S No. 64,
Patrika Nagar,
Madhapur,
Hyderabad - 500081
Telangana.",HOSPITAL,madhavpur,17.4528277,78.3824439
Maxivision Super Speciality Eye Hospital,tel:40 33681055,"Opposite Cyber Towers
Address
D No. 1-118/124, Plot 24,
Jaihind Enclave,
Madhapur,
Hyderabad - 500081
Telangana.",HOSPITAL,madhavpur,17.447505,78.385881
Maxivision Super Speciality Eye Hopitals,tel:9394855678,"Opposite Cyber towers
Address
S. No. 64, Plot No 24, Door No. 1-118/24,
Madhapur,
Hyderabad - 500081
Telangana.",HOSPITAL,madhavpur,17.4528277,78.3824439
Omni Hospitals,tel:8790400544,"Address
Kaveri Hills,
Madhapur,
Hyderabad - 500081
Telangana.
040 39151500",HOSPITAL,madhavpur,17.4528277,78.3824439
Shathayu Ayurveda,tel:9177220066,"Near IMAGE Hospital
Address
Plot No. 21, House No. 1-90/2/6/1/21,
Main Road,
Madhapur,
Hyderabad - 500081
Telangana.
04 40110494",CLINIC,madhavpur,17.4528277,78.3824439
Lifespan,tel:40 23111055,"Opp. Silicon Towers
Address
Flat No. 301,
Bhaskar Empire ,
Madhapur,
Hyderabad - 500081
Telangana.",CLINIC,madhavpur,17.4528277,78.3824439
S Shure,tel:9705578543,"Address
Flat no-112,
Magans Lake View Appartment,
Madhapur,
Hyderabad - 500081
Telangana.",CLINIC,madhavpur,17.4528277,78.3824439
Dr. Anji Reddy,tel:9391035086,"Address
Plot No. 33,
Image Gardens Road,
Madhapur,
Hyderabad - 500081
Telangana.",CLINIC,madhavpur,17.45209818,78.3859378
Dr. Samba Siva Rao,tel:9849378796,"Near Image Hospital
Address
Sri Laxmi Nilaya Apartments ,
1st Floor,
Madhapur,
Hyderabad - 500081
Telangana.",CLINIC,madhavpur,17.4528277,78.3824439
Nightingle Healthcare,tel:40 29809190,"Behind Cyber Towers
Address
Balaji Empire, Upper Ground Floor,
Madhapur,
Hyderabad - 500081
Telangana.",CLINIC,madhavpur,17.4528277,78.3824439
Dr.Batra's,tel:040 42008000,"Before Kritunga Restaurant, Besides Ioc Petrol Pump
Address
1st Floor, 1-98/90/24/1/1,
Madhapur,
Hyderabad - 500081
Telangana.",CLINIC,madhavpur,17.4528277,78.3824439
Kapil Sri Appliances,tel:9290403675,"Opposite Pillar No. 47 & 48
Address
Plot No. 1-40/A, Main Road,
Madhapur,
Hyderabad - 500081
Telangana.",HOME NEED,madhavpur,17.4528277,78.3824439
Devki Interior,tel:40 65162216,"Beside Vijayalaxmi Super Market
Address
Plot No. 538,
Krishna Heights, Ayyappa Society Road ,
Madhapur,
Hyderabad - 500081
Telangana.",HOME FURNITURE,madhavpur,17.4528277,78.3824439
Fabindia,tel:40 40171616,"Address
Unit No. G1-10, Lower Ground Floor,
Inorbit Mall, Hi-Tech City,
Madhapur,
Hyderabad - 500081
Telangana.",HOME FURNITURE,madhavpur,17.4410165,78.38934145
Beyond Home Solutions Pvt Ltd,"Telangana.

                                    Telephone: 9642881800
                                    40 40035900
                                    40 65601111","Address
D no. 1-65/2/65, Kavuri Hills,
Madhapur,
Hyderabad - 500081",HOME FURNITURE,madhavpur,17.43836302,78.39592003
Reliance Retail Limited,tel:40 40122233,"Opposite Durgam Cheruvu
Address
G-15A, S. No. 64 Part,
Inorbit Mall, Rahejas Building, Hitech City,
Madhapur,
Hyderabad - 500081
Telangana.",HOME APPLINCES,madhavpur,17.4410165,78.38934145
Sri Sai Venkat Electronics Mobile Point,tel:9849672205,"Docomo Showroom
Address
Shop No. 3, Sri Rama Colony,
Hitech City Road,
Madhapur,
Hyderabad - 500081
Telangana.

Telephone: 9885592711",HOME APPLINCES,madhavpur,17.4528277,78.3824439
Comfort Systems,tel:7801097033,"CGR School
Address
No. 22/1A,
Ayyappa Society Road,
Madhapur,
Hyderabad - 500081
Telangana.

Telephone: 7801094762",HOME APPLINCES,madhavpur,17.4528277,78.3824439
Kavya Electronics,tel:9030059746,"Indian Oil Petrol Pump
Address
Shop No 1-98/91/91/1,Ayyappa Society Road, Sai Nagar Colony,
Madhapur,
Hyderabad - 500081
Telangana.

Telephone: 9948411571",HOME APPLINCES,madhavpur,17.447391,78.39190602
Sony Cool Tech,tel:8897548494,"Government School
Address
No.1,
Chandra Nayak Thanda,
Madhapur,
Hyderabad - 500081
Telangana.",HOME APPLINCES,madhavpur,17.4528277,78.3824439
Satya Shiva Electrical Works,tel:9666667484,"Madhapur Police Station
Address
No. 1/62/2/18,
Madhapur Main Road,
Madhapur,
Hyderabad - 500081
Telangana.

Telephone: 8885587484",HOME APPLINCES,madhavpur,17.4528277,78.3824439
Rk Solutions 1,tel:9700993145,"India Oil Petrol Pump
Address
Image Hospital Road,
Madhapur,
Hyderabad - 500081
Telangana.

Telephone: 8686903578",HOME APPLINCES,madhavpur,17.4528277,78.3824439
ABN Interiors & Exteriors,tel:9963630940,"Meridian School
Address
No. 405, CSR Residency,
Ayyappa Society,
Madhapur,
Hyderabad - 500081
Telangana.",Interior DESINGNER,madhavpur,17.4528277,78.3824439
Honeybee Interior Designers,tel:9849454207,"Above State Bank of Patiala
Address
Main Road,HiTec City ,
Madhapur,
Hyderabad - 500081
Telangana.",Interior DESINGNER,madhavpur,17.4410165,78.38934145
Urban Living Spaces,tel:8886880990,"Image Hospital
Address
Flat No. 306, Aliens Blend,
Gaffoor Nagar,
Madhapur,
Hyderabad - 500081
Telangana.",Interior DESINGNER,madhavpur,17.4528277,78.3824439
Bella Design Concepts,tel: 9542111196,"Near IndianOil PetrolPump
Address
Megha Hills, Sri Sai Nagar,
Madhapur,
Hyderabad - 500081
Telangana.

Telephone: 9701402028
402311 9965",Interior DESINGNER,madhavpur,17.443402,78.389387
Bella Design Concepts,tel: 9542111196,"Near IndianOil PetrolPump
Address
Megha Hills, Sri Sai Nagar,
Madhapur,
Hyderabad - 500081
Telangana.

Telephone: 9701402028
402311 9965",Interior DESINGNER,madhavpur,17.443402,78.389387
APSE Design Private Limited,tel:9912583775,"State Bank of Hyderabad
Address
7th Floor,
Mega Hills Apartment,
Madhapur,
Hyderabad - 500081
Telangana.
40 23116899",Interior DESINGNER,madhavpur,17.4528277,78.3824439
Thinxmart Solutions Pvt. Ltd,tel:9703568556,"Address
Flat No. 102,
Kailash Meadows ,
Madhapur,
Hyderabad - 500081
Telangana.
40 40072178",Interior DESINGNER,madhavpur,17.4528277,78.3824439
Glance Designers & Interiors,tel:4064566456,"Above Evlas Saloon
Address
Flat no 202, Spline Arcade, Plot No. 1208,
Sri Sai Nagar, Ayyappa Society Main Road,
Madhapur,
Hyderabad - 500081
Telangana.

Telephone: 80080 86669",Interior DESINGNER,madhavpur,17.4528277,78.3824439
Deeksha Interiors,tel:9701001680,"Near Durgam Cheruvu
Address
Flat-No 61,
Madhapur,
Hyderabad - 500081
Telangana.",Interior DESINGNER,madhavpur,17.4528277,78.3824439
Fortune9 Architects & Interior Designers,tel:9160074949,"Beside Fortune Towers
Address
4F, RR Plaza ,
DurgamCheruvu Road,
Madhapur,
Hyderabad - 500081",Interior DESINGNER,madhavpur,17.43792031,78.39285901
JSKM,tel:8790706787,"Adjacent to Mercedes Showroom
Address
1st Floor, Plot 64/A, ,
Kavuri Hills,
Madhapur,
Hyderabad - 500081
Telangana.",Interior DESINGNER,madhavpur,17.43670001,78.38190004
Axiom Designss,tel:9052177661,"Indian Bank
Address
No. 1-98/4/5,
Vital Rao Nagar,
Madhapur,
Hyderabad - 500081
Telangana.",Interior DESINGNER,madhavpur,17.4416584,78.3869385
Vknow Services,tel:9908539550,"Address
Flat No. 201,
2nd Floor, Reliance Cyber Ville, Vittal Rao Nagar,
Madhapur,
Hyderabad - 500081
Telangana.",LIGAL AND FINANACE,madhavpur,17.4528277,78.3824439
Reliance Mobile Store,tel:9395555223,"Beside Karachi Bakery
Address
Plot No 25,
Arunodaya Colony,
Madhapur,
Hyderabad - 500081
Telangana.",INTERNATE SERVICE PROVIDER,madhavpur,17.4528277,78.3824439
Airtel Store,tel:8374473240,"Opposite Cyber Gateway
Address
Ground Floor,
Huda Techno Enclave,
Madhapur,
Hyderabad - 500081
Telangana.
40 23118383",INTERNATE SERVICE PROVIDER,madhavpur,17.4528277,78.3824439
Inorbit Mall,"04065357221
,
04066280065-66","64, APIIC Software Layout, Madhapur, Hyderabad - 500081, Telangana",MALL,madhavpur,17.4528277,78.3824439
Firstcry.com Baby Store,tel:40 42021691,"Shop No. 101, 1st Floor ,
Maphar EK Eternal, Kavuri Hills,
Madhapur,
Hyderabad - 500081
Telangana",BABY STORE,madhavpur,17.439413,78.393164
Mom & Me,tel:40 33590590,"HiTech City,
Madhapur,
Hyderabad - 500081
Telangana",BABY STORE,madhavpur,17.4410165,78.38934145
Babyoye,tel:40 33590590,"Plot No. 1, Sector-2, Huda Techno Enclave,
2nd Floor, Hitech City,
Madhapur,
Hyderabad - 500081
Telangana",BABY STORE,madhavpur,17.4410165,78.38934145
Dream Loreal Unisex Saloon,tel:8121861850,"Shop No. 98/91/2/B,
Near Andhra Bank, Ayyappa Society,
Madhapur,
Hyderabad - 500081
Telangana.",Spa & Saloon,madhavpur,17.408184,78.449607
De Rush Spa & Saloon,tel:8801423291,"IMAGE Hospital,
Venkateshwara Art College,
Madhapur,
Hyderabad - 500081
Telangana.",Spa & Saloon,madhavpur,17.4528277,78.3824439
Lavender Spa,tel:40 3190 7070,"Plot No. 22, 3RoadFloor,
Suntowers, Sector - 1, Huda Techno Enclave, Hi-Tech City,
Madhapur,
Hyderabad - 500081
Telangana",Spa & Saloon,madhavpur,17.4410165,78.38934145
Sumants Haven,tel:9030088890,"N Square Building,
Phase 2, Durgam Cheruvu Road, Kavuri Hills,
Madhapur,
Hyderabad - 500081
Telangana.
40 60606633",Spa & Saloon,madhavpur,17.43831422,78.39369181
Sumants Haven,tel:9030088890,"N Square Building,
Phase 2, Durgam Cheruvu Road, Kavuri Hills,
Madhapur,
Hyderabad - 500081
Telangana.
40 60606633",Spa & Saloon,madhavpur,17.43831422,78.39369181
Sri Rosini Ladies Beauty Parlour,tel:9246591818,"Flat No. 271, Ayyappa Society Main Road,
Megha Hills, Hi-Tech City,
Madhapur,
Hyderabad - 500081
Telangana.",Spa & Saloon,madhavpur,17.44946924,78.39192388
Waffle World Cafe Lounge,tel:9542800888,"Ground Floor,
Madhapur,
Hyderabad - 500081
Telangana",CAFE,madhavpur,17.4528277,78.3824439
Hyderabad Chai Adda,tel:40 65127127,"H No. 1-99/2,
Ayyappa Society Main Road,
Madhapur,
Hyderabad - 500081
Telangana.",CAFE,madhavpur,17.44651446,78.39224805
Stop and Sip Bistro,tel:9100303835,"G-4 Magans Lake View Appartments,
Madhapur,
Hyderabad - 500081
Telangana.",CAFE,madhavpur,17.4528277,78.3824439
McDonald's,tel:40 66000666,"Plot No. 1, Sector 2, Survey No. 64,
Huda Techno Enclave, Hi-Tech City,
Madhapur,
Hyderabad - 500081
Telangana",CAFE,madhavpur,17.4410165,78.38934145
Dr. Anji Reddy,tel:9391035086,"Plot No. 33,
Image Gardens Road,
Madhapur,
Hyderabad - 500081
Telangana.",DENTAL CLINIC,madhavpur,17.45209818,78.3859378
Dr. Madhu,tel:9703100443,"Flat No. 255,
Fortune Residency, Kavuri Hills,
Madhapur,
Hyderabad - 500081
Telangana.",DENTAL CLINIC,madhavpur,17.439453,78.39529499
Hyderabad Smiles Dental Hospital,tel:9247864642,"Plot no-273,
Kavuri Hills ,
Madhapur,
Hyderabad - 500081
Telangana.",DENTAL CLINIC,madhavpur,17.439413,78.393164
Accessorize,tel:40 42407740,"G-29, Ground Floor, Inorbit Mall,
Inorbit Mall Road,
Madhapur,
Hyderabad - 500081
Telangana.",FOOTWEAR SHOP,madhavpur,17.43792031,78.39285901
Variety Foot Wear,tel:9849307410,"D-No. 1-98/90/2/B/G3,
Sri Sai Arcade, Ayyappa Society Road,
Madhapur,
Hyderabad - 500081
Telangana",FOOTWEAR SHOP,madhavpur,17.44455374,78.39207844
Hush Puppies Footwear,tel:40 40207124,"G-24, Ground Floor,
Madhapur,
Hyderabad - 500081
Telangana.",FOOTWEAR SHOP,madhavpur,17.44099502,78.39323397
Nike Store,tel:40 40036504,"Ground 1, Inorbit Mall,
Cyberabad,
Madhapur,
Hyderabad - 500081
Telangana.",FOOTWEAR SHOP,madhavpur,17.43799799,78.39387099
Sri Ganesh Foot Wear,tel:9346855357,"Shop No. 1-98/90/5,
Ayyappa Society Road,
Madhapur,
Hyderabad - 500081
Telangana.",FOOTWEAR SHOP,madhavpur,17.44725898,78.39192203
Beyond Home Solutions Pvt Ltd,Telephone: 964288180040 4003590040 65601111,"D no. 1-65/2/65, Kavuri Hills,
Madhapur,
Hyderabad - 500081
Telangana.",FURNITURE,madhavpur,17.43836302,78.39592003
Kavya Electronics,tel:9030059746,"Shop No 1-98/91/91/1,Ayyappa Society Road, Sai Nagar Colony,
Madhapur,
Hyderabad - 500081
Telangana.",ELECTRONIC,madhavpur,17.447391,78.39190602
Comfort Systems,tel:7801097033,"No. 22/1A,
Ayyappa Society Road,
Madhapur,
Hyderabad - 500081
Telangana.",ELECTRONIC,madhavpur,17.44455374,78.39207844
Sony Center,tel:40 6668525,"Door No. 1-99.64/30,
Cyber Height,
Madhapur,
Hyderabad - 500081
Telangana.",ELECTRONIC,madhavpur,17.4532324,78.3970969
Sri Sai Venkat Electronics Mobile Point,tel:9849672205,"Shop No. 3, Sri Rama Colony,
Hitech City Road,
Madhapur,
Hyderabad - 500081
Telangana.",ELECTRONIC,madhavpur,17.43614051,78.39338039
Hyderabad Electronics,tel:40 66838802,"D No. 4-4-329,
Giriraj Lane,
Madhapur,
Hyderabad - 500081
Telangana.",ELECTRONIC,madhavpur,17.4528277,78.3824439
Reliance Retail Limited,tel:40 40122233,"G-15A, S. No. 64 Part,
Inorbit Mall, Rahejas Building, Hitech City,
Madhapur,
Hyderabad - 500081
Telangana.",ELECTRONIC,madhavpur,17.4410165,78.38934145
Cross 15 Gym,tel:7660099369,"Do.no. 2-56/3,
Ayyappa Society,
Madhapur,
Hyderabad - 500081
Telangana.
04040030520",GYM,madhavpur,17.4528277,78.3824439
The Stallions Gym,tel:9000748758,"No. 1-98/11/12,
2nd Floor,
Madhapur,
Hyderabad - 500081
Telangana.",GYM,madhavpur,17.4528277,78.3824439
Mayur Pan House,tel:40 60503202,"Near Mercedes Benz Showroom,
Madhapur,
Hyderabad - 500081
Telangana.",ICE CREAM Parlour,madhavpur,17.4528277,78.3824439
Kwality Walls Ice Cream Parlour,tel:8712331155,"Ayyappa Society,
60 Feet Road,
Madhapur,
Hyderabad - 500081
Telangana.",ICE CREAM Parlour,madhavpur,17.44455374,78.39207844
Hinglish Grille Restaurant,tel:40 42000345,"Plot-No. 66, Jai Hind Enclave ,
Arunodaya Colony, Vittal Rao Nagar,
Madhapur,
Hyderabad - 500081
Telangana.",ICE CREAM Parlour,madhavpur,17.4528277,78.3824439
Mangatrai Pearls & Jewellery,tel:40 40100003,"D No. Flat No. 17, 18, 1st Floor,
Madhapur,
Hyderabad - 500081
Telangana.",JEWELRY SHOP,madhavpur,17.4528277,78.3824439
Gili,tel:40 42014627,"Inorbit Mall, Shop No. 3,
1st Floor, APIIC Software Layout,
Madhapur,
Hyderabad - 500081
Telangana.",JEWELRY SHOP,madhavpur,17.4528277,78.3824439
Jai Bhavani Pearls And Gems,tel:9291676599,"1-10 , 1st Floor, Shop No. 3,
Hitech City Rd, Sri Sai Nagar,
Madhapur,
Hyderabad - 500081",JEWELRY SHOP,madhavpur,17.43614051,78.39338039
Sri Siva Subramanya Medical & General Stores,tel:9908005206,"Beside Shantiniketan Public School
Address
Mega Hills,
Sainagar Colony, Ayappa Swamy Society Road,
Madhapur,
Hyderabad - 500081
Telangana.",MEDICAL SHOP /PHARMACIES,madhavpur,17.4528277,78.3824439
Mind Space Systems,tel:9885908503,"Opp Indian Oil Petrol Pump
Address
House No 2-56/33/18/1, Sai Nagar, ,
Ayyappa Society Road,
Madhapur,
Hyderabad - 500081
Telangana.",Mobile Repair,madhavpur,17.44455374,78.39207844
DA Milano,tel:40 42215491,"Address
Inorbit Mall,
Inorbit Mall Road, Vittal Rao Nagar, Hitech City,
Madhapur,
Hyderabad - 500081
Telangana.",Clothing Shop,madhavpur,17.4359681,78.38846788
ONLY,tel:40 43366070,"Opp. Durgamma Cheruvu
Address
Lower Ground Floor,
Inorbit Mall,
Madhapur,
Hyderabad - 500081
Telangana.",Clothing Shop,madhavpur,17.4528277,78.3824439
Label Ritu Kumar Clothing Store,tel:40 42000506,"Opposite Durgamma Cheruvu
Address
G1 - 14, Lower Ground Floor,
Inorbit Mall, Hitechcity,
Madhapur,
Hyderabad - 500081
Telangana.",Clothing Shop,madhavpur,17.4410165,78.38934145
Jashn Sarees,tel:40 42030580,"Address
Inorbit Mall,
Vittal Rao Nagar, Hitech City,
Madhapur,
Hyderabad - 500081
Telangana.",Clothing Shop,madhavpur,17.4359681,78.38846788
Lacoste Clothing store,tel:40 40063671,"Address
Shop No. G1 & G2, Ground Floor, Inorbit Mall,
Madhapur,
Hyderabad - 500081
Telangana.",Clothing Shop,madhavpur,17.43792031,78.39285901
Shoppers Stop,tel:40 44609502,"Address
Ground Floor & First Floor, Inorbit Mall,
Madhapur,
Hyderabad - 500081
Telangana.",Clothing Shop,madhavpur,17.4528277,78.3824439
Max Style,tel:40 40240005,"Opposite HDFC ATM
Address
H No. 256/33/7,
Ayyappa Society Road, Sai Nagar,
Madhapur,
Hyderabad - 500081
Telangana.",Clothing Shop,madhavpur,17.44455374,78.39207844
Chemistry,tel:40 40115079,"Opp. Durgam Cheruvu
Address
Flat no G-14, Inorbit Mall,
Inorbit Mall Road, Hitechcity,
Madhapur,
Hyderabad - 500081
Telangana.",Clothing Shop,madhavpur,17.4410165,78.38934145
Home Town,tel:8886037878,"Next to PVR, Inorbit Mall
Address
Shop No. 7, 3rd Floor, Level 5,
Madhapur,
Hyderabad - 500081
Telangana.

Telephone: 9223355999",Children Wear,madhavpur,17.4528277,78.3824439
Shoppers Stop,tel:40 44609502,"Address
Ground Floor & First Floor, Inorbit Mall,
Madhapur,
Hyderabad - 500081
Telangana.",Children Wear,madhavpur,17.4528277,78.3824439
Siri Super Market,tel:9666555341,"Address
Plot-No. 894, S-No. 11/14,
Ayyappa Society Park Road, Sri Sai Nagar,
Madhapur,
Hyderabad - 500081
Telangana.",Grocery Shop,madhavpur,17.443402,78.389387
Sri Vijayalaxmi Super Market,tel:9908888212,"Opposite Durga Matha Temple
Address
Plot No. 54-55,
Ayyappa Society Road,
Madhapur,
Hyderabad - 500081
Telangana.
40 40058138",Grocery Shop,madhavpur,17.4528277,78.3824439
Fresh N Crunch Super Market,tel:40 23110786,"Beside SBI Bank
Address
H No. 1-99/A/B/C,
Ayyappa Society,
Madhapur,
Hyderabad - 500081
Telangana.",Grocery Shop,madhavpur,17.4528277,78.3824439
,,,Grocery Shop,madhavpur,18.77609574,100.773935
Sound Kraft Music School,tel:40 66743753,"Address
Plot-No. 29, Jaihind Enclave,
Hi-Tech Road,
Madhapur,
Hyderabad - 500081
Telangana.",School,madhavpur,17.4528277,78.3824439
GEM Maruti Driving School,tel:9272506060,"Beside, Kavuri Hills Phase 1
Address
H. No. 9/90/26/C,
Fortune Towers,
Madhapur,
Hyderabad - 500081
Telangana.",School,madhavpur,17.4528277,78.3824439
Zion Beauty Solutions,tel:7893930002,Above Samporna Super Market,SPA AND SALOON,manikonda,28.642501,77.383707
Studio 11 Spa & Saloon,tel:8297076799,"Plot No. 3 & 4, SVR Towers,
Beside Dilip Super market,
Manikonda,
Hyderabad - 500089
Telangana.",SPA AND SALOON,manikonda,17.4182156,78.3706481
Celebrity Salon & Spa,tel:8885099357,"HP Gas Godown
Address
1st Floor,
Sree Nilayam,
Manikonda,
Hyderabad - 500089
Telangana.",SPA AND SALOON,manikonda,17.40197801,78.38929397
Kool Kuts Unisex Hair StudiO,tel:9000883758,"Opposite Preetam Hospital
Address
Flat No. 283, First Floor,
Lanco Hills Road, OU Colony,
Manikonda,
Hyderabad - 500089
Telangana.",SPA AND SALOON,manikonda,17.408042,78.391915
Senorita Spa Salon,tel:9948317221,"Above Sampurna Super Market
Address
Flat No. 202, 2nd Floor,
Shree Nilyam Apartments, OU Colony, Lanco HIlls Road,
Manikonda,
Hyderabad - 500089
Telangana.",SPA AND SALOON,manikonda,17.4182156,78.3706481
Vetcare Pet Clinic,tel:9246269449,"Opp. Kanakadurgamma Temple
Address
H. No. 8-1-234/OU/4B,
Manikonda,
Hyderabad - 500089
Telangana.",PET HOSPITAL,manikonda,17.4182156,78.3706481
Pearly Whites,tel:9550288419,"Near Kanakadurga Temple
Address
D No. 8-1-284/OU/23/B,
OU Colony,
Manikonda,
Hyderabad - 500089
Telangana.",PET HOSPITAL,manikonda,17.408042,78.391915
A S Sofa Makers,tel:9397803192,"Address
Plot No. 10,
Pipe Line Road,
Manikonda,
Hyderabad - 500089
Telangana.",FURNITURE,manikonda,17.4182156,78.3706481
RKS Furniture,tel:9700297733,"Address
Shop No. G1 Plot no-8,9,10,s, Puppalaguda,
Manikonda Main Rd, Friends Colony,
Manikonda,
Hyderabad - 500089
Telangana",FURNITURE,manikonda,17.3993556,78.39214
The Home Concepts,tel:9866307855,"Near Harivillu Apartments
Address
Plot No. 83, H. No. 2-2-82,
Manikonda,
Hyderabad - 500089
Telangana.

Telephone: 9959299957",HOME NEED,manikonda,17.4182156,78.3706481
Grace Furnishing Store,tel:9849003118,"Near SBI Bank
Address
S. No. 4, Sai Ram Colony,
Puppalguda,
Manikonda,
Hyderabad - 500089
Telangana.",HOME NEED,manikonda,17.4021589,78.3805759
1 Call All Service,tel:7893123181,"Lanco Hills Road
Address
No. 8-1-284/Ou/33/B/34/B,
Ou Colony,
Manikonda,
Hyderabad - 500089
Telangana.",HOME APPLINCES,manikonda,17.40749343,78.3864767
Ssb Air Conditioning,tel:9866952330,"Opp Lanco Hills
Address
Plot. No. 5, Sree Laxminagar ,
Marrichettu Junction,
Manikonda,
Hyderabad - 500089
Telangana.   Telephone: 9959199944",HOME APPLINCES,manikonda,17.4182156,78.3706481
Manzoor Electrical Works,tel:8897388848,"Gayathri Silks & Jewellers
Address
Shop No. 9/4/50/1,
Sai Ram Colony,
Manikonda,
Hyderabad - 500089
Telangana.telephone: 9700448235",HOME APPLINCES,manikonda,17.4182156,78.3706481
Cool Air Con Air Condition Services,tel:7675035290,"Swagath Restaurant
Address
Plot No. 11 & 12,
Puppalguda, Sai Ram Colony,
Manikonda,
Hyderabad - 500089
Telangana.

Telephone: 9396281620",HOME APPLINCES,manikonda,17.4182156,78.3706481
My Home Interiors,tel:9581513537,"S - Mart Super Market
Address
No. 6,
Manikonda,
Hyderabad - 500089
Telangana.

Telephone: 9705169045",INTERIOR DECORATION,manikonda,17.4182156,78.3706481
Unique Interior Decoratores,tel:8008261505,"Govt School
Address
Shop No 2-63,
Lanco Hills Road ,
Manikonda,
Hyderabad - 500089
Telangana.

Telephone: 8801094606",INTERIOR DECORATION,manikonda,17.41585119,78.36868544
Global I Source Infra,tel:9949777877,"Synergy infra
Address
Plot No. 15,
Lanco Hills, Sri Laxmi Nagar Colony,
Manikonda,
Hyderabad - 500089
Telangana.

Telephone: 9885467877",INTERIOR DECORATION,manikonda,17.405157,78.37318
TBM Constructions,tel:9866340582,"HDFC Bank
Address
Plot No. 81,
Tanashanagar,
Manikonda,
Hyderabad - 500089
Telangana.

Telephone: 9700181840",INTERIOR DECORATION,manikonda,17.4010905,78.3881395
Uma Interiors,tel:9550423245,"Near to Balaji Hotel
Address
Shop No. 3-78,
Employees Colony,
Manikonda,
Hyderabad - 500089
Telangana.",INTERIOR DECORATION,manikonda,17.4182156,78.3706481
J & J Bakery,tel:9666371477,"Near Durga Temple
Address
H No. 2-117/9/B,
Sree Nagar Colony,
Manikonda,
Hyderabad - 500089
Telangana.",CAKE SHOP,manikonda,17.4182156,78.3706481
Naman Agencies,tel:8413403492,"Near Harivillu Apartments
Address
Lanco Hills Road,
Manikonda,
Hyderabad - 500089
Telangana.",ELECTRONIC SUPPLIERS,manikonda,17.41585119,78.36868544
Kailash Electricals,tel:9703426098,"Opp. Lalamma Garden
Address
D No. Plot No. 33, Sai Ram Colony,
Puppalguda,
Manikonda,
Hyderabad - 500089
Telangana.",ELECTRONIC SUPPLIERS,manikonda,17.4021589,78.3805759
Jagadamba Enterprises,tel:9949143720,"Opp. Dilip Super Market
Address
Plot No. 48, Sai Ram Nagar Colony,
Puppalguda,
Manikonda,
Hyderabad - 500089
TelanganA",ELECTRONIC SUPPLIERS,manikonda,17.4021589,78.3805759
Plug Point Electricals,tel:9650009863,"Beside SBI Bank
Address
G-01, Hill View Enclave,
Harivillu Road,
Manikonda,
Hyderabad - 500089
Telangana.

Telephone: 9963011981",ELECTRONIC SUPPLIERS,manikonda,17.4182156,78.3706481
Jai Mateshwari Electricals,tel:9052200500,"Below Gouthami Talent School
Address
Plot No. 101,
Panchavati Colony,
Manikonda,
Hyderabad - 500089
Telangana.

Telephone: 9502313117",ELECTRONIC SUPPLIERS,manikonda,17.4099077,78.3837299
Hotel Sree Krishnaa Grand,tel:40 40020672,"Opp Sai Ranga Theater
Address
Miyapur X Roads,
Miyapur,
Hyderabad - 500049
Telangana.",HOTEL,miyapur,17.5200969,78.3538594
Sri Shankara Nethralaya,tel:9959635000,"Opp. Sbi
Address
No. 1-116/1,
Mumbai National Highway,
Miyapur,
Hyderabad - 500049
Telangana.
40 40123839
40 64545457",HOSPITAL,miyapur,17.5200969,78.3538594
Sri Sai Krishna Laser ENT Clinic,tel:9441227898,"Behind Miyapur Bus Stop
Address
Door No. 1-30,
Miyapur,
Hyderabad - 500049
Telangana.",HOSPITAL,miyapur,17.5200969,78.3538594
Naturals Salon,tel:8978958585,"Beside ICICI Bank
Address
Shop No. 101-103,
Hemadurga Plaza, Allwyn X Roads,
Miyapur,
Hyderabad - 500049
Telangana.
40 40070025",SPA & SALOON,miyapur,17.5200969,78.3538594
Green Trends Salon,tel:7845907544,"Opposite Ratna Deep Super Market
Address
D-No. 1-11/2, 1st Floor, Dominos ,
Miyapur,
Hyderabad - 500049
Telangana.
40 40114788",SPA & SALOON,miyapur,17.5200969,78.3538594
Radix Unisex Spa & Saloon,tel:7097909564,"Address
Shop No. 8-203, 2nd Floor,
Beijing Bistro Chinese Restaurant, Allwyn Colony,
Miyapur,
Hyderabad - 500049
Telangana.
40 40058588",SPA & SALOON,miyapur,17.5200969,78.3538594
Jyothi Cinema Theatre,tel:9346675651,"Bollaram Road,
Miyapur,
Hyderabad - 500049
Telangana.",CINEMA THEATRE,miyapur,17.50065305,78.36208974
Sai Ranga Cinema Theatre,tel:9440766994,"No. 1-138/1, Plot No. P-4 to 88,
Mumbai Highway,
Miyapur,
Hyderabad - 500049
Telangana.",CINEMA THEATRE,miyapur,17.49602235,78.3383123
Chandra Mouli Electrical & Electronics & Home Appliances,+91 9059024739,"Behind Bus Stop
            Address
            Shop No. 1-59,
            Miyapur,
            Hyderabad - 500049
            Telangana.
            
            Telephone: 9246184495",HOME NEEDS,miyapur,17.5200969,78.3538594
Siri Home Appliances,+91 40 40153434,"Opp Archana Hospital
            Address
            Shop No. 13, H. No. 55/C/12,
            Raghava Towers,
            Miyapur,
            Hyderabad - 500049
            Telangana.",HOME NEEDS,miyapur,17.5200969,78.3538594
Sri Siddivinayaka Furniture,+91 9966999429,"Old Hafeezpet,
          Bawarchi Hotel,
          Miyapur,
          Hyderabad - 500049
          Telangana",FURNITURE,miyapur,17.5200969,78.3538594
Vrishank Enterprises,+91 9000974666,"Near Bus Stop
          Address
          Madinaguda,
          Miyapur,
          Hyderabad - 500049
          Telangana.
          
          Telephone: 9000977666",FURNITURE,miyapur,17.5200969,78.3538594
Blooms Interiors,+91 9100102489,"Opp. RS Brother
          Address
          S. No. 2-133/1, First Floor,
          Madinaguda,
          Miyapur,
          Hyderabad - 500049
          Telangana.",FURNITURE,miyapur,17.5200969,78.3538594
Cama Beds,+91 9949465522,"Below Indus Ind Bank
          Address
          D No. 1-248,
          Bollaram Road,
          Miyapur,
          Hyderabad - 500049
          Telangana.
          
          Telephone: 9502102667",FURNITURE,miyapur,17.5200969,78.3538594
Naryana Electricals,+91 9985863222,"E Seva
            Address
            Shop No. 1-40/1,
            Main Road,
            Miyapur,
            Hyderabad - 500049
            Telangana.
            
            Telephone: 9849754193",HOME APPLIANCES,miyapur,17.5200969,78.3538594
Rathan Air Conditioners,+91 9705020555,"Opp. Janapriya Apartments
            Address
            D No. 2-1/8/2, Shop No. 1,
            Miyapur,
            Hyderabad - 500049
            Telangana.
            
            Telephone: 9885820595
            40 40042680",HOME APPLIANCES,miyapur,,
Sri Sai Electrical & Winding Works,+91 8099993299,"Backside of Agaara Restaurant
            Address
            H. No. 1-112-3/8,
            Balaji Nagar,
            Miyapur,
            Hyderabad - 500049
            Telangana.",HOME APPLIANCES,miyapur,17.5200969,78.3538594
Sony Electronics,+91 8885046008,"H. No. 44/2,
            Malla Reddy Complex,
            Miyapur,
            Hyderabad - 500049
            Telangana.
            
            Telephone: 8885046003",HOME APPLIANCES,miyapur,17.5200969,78.3538594
Balaji Electronics,+91 9849826571,"Near Sai Baba Temple
            Address
            H. No. 1-58, Fortune Heights, Shop No. 1 to 5,
            Survey No. 25, Madinaguda,
            Miyapur,
            Hyderabad - 500049
            Telangana.
            
            Telephone: 8046030530
            40 42210418
            40 65653336",HOME APPLIANCES,miyapur,,
World Cool,+91 9347372312,"Sai Teja Hospital
            Address
            Plot No. 23, Nandini Society, Old Police Station Rd, Hafeezpet, Ambedkar Nagar,
            Near Jana Priya Apartments,
            Miyapur,
            Hyderabad - 500049
            Telangana.
            
            Telephone: 7702935145",HOME APPLIANCES,miyapur,,
Sri Durga Bhavani Electricals,+91 9866915083,"Near Pragati Apartment
            Address
            No. 142,
            Jp Nagar Road, Madhava Nagar Colony, Balaji Nagar,
            Miyapur,
            Hyderabad - 500049
            Telangana.",HOME APPLIANCES,miyapur,,
Sunflame Enterprises Pvt Ltd,+91 9290990714,"Mamatha Estate's,
            Miyapur,
            Hyderabad - 500049
            Telangana.",HOME APPLIANCES,miyapur,17.5200969,78.3538594
Priya Electrical Works,+91 9959220747,"Near SRST Apartment
            Address
            H. No. 1-112/8,
            Widia Colony, Indira Nagar Colony, Talky Town Area,
            Miyapur,
            Hyderabad - 500049
            Telangana.",HOME APPLIANCES,miyapur,,
Chandramouli Electricals & Home Appliances,+91 9059024739,"Behind Miyapur Bus Stop
            Address
            Shop No. 1-59,
            Indira Nagar Colony,
            Miyapur,
            Hyderabad - 500049
            Telangana.",HOME APPLIANCES,miyapur,17.496033,78.358057
Vaishnavi Refrigerator & Electrical,+91 9866306990,"Miyapur E-Seva Center
            Address
            No. 1/49E,
            Vaddera Basti Road,
            Miyapur,
            Hyderabad - 500049
            Telangana.",HOME APPLIANCES,miyapur,17.5200969,78.3538594
Chandra Mouli Home Appliances & Electronics,+91 9246184495,"Miyapur Bus Stop
            Address
            No. 1-59,
            Miyapur,
            Hyderabad - 500049
            Telangana.
            
            Telephone: 7675913316
            040 64564495
            040 40182836",HOME APPLIANCES,miyapur,,
Rubi Fast Tech,+91 9542931605,"Bharat Petrol Bunk
            Address
            No. 1,
            Miyapur,
            Miyapur,
            Hyderabad - 500049
            Telangana.
            
            Telephone: 9966440808",HOME APPLIANCES,miyapur,17.5200969,78.3538594
Anand Electronics,+91 9949886532,"Anantha Ram Complex
            Address
            Shop No. 1,
            Old Police Station Road,
            Miyapur,
            Hyderabad - 500049
            Telangana.",HOME APPLIANCES,miyapur,17.48697716,78.3528158
Regency Interiors,+91 9885999409,"Near Sai Ranga Theatre
            Address
            Flat No.106,
            Sai Ranga Bhaskara Residency ,
            Miyapur,
            Hyderabad - 500049
            Telangana.
            
            Telephone: 9849637149
            040-40214568",INTERIOR DESIGNERS,miyapur,,
Archanaa Designs,+91 9963028666,"A.S.R. Raju Nagar,
            A.S.R. Raju Nagar,
            Miyapur,
            Hyderabad - 500049
            Telangana.
            
            Telephone: 9000531751",INTERIOR DESIGNERS,miyapur,17.5200969,78.3538594
Innovative Interiors,+91 9246333701,"Sathya Bharathi Convention Centre
            Address
            Shop No. 309, Block No. 2,
            Prajay Apartment,
            Miyapur,
            Hyderabad - 500049
            Telangana.",INTERIOR DESIGNERS,miyapur,17.5200969,78.3538594
SB Interior Solutions,+91 081426 66451,"No. 3, 1st floor, Sriven grand mall,
            miyapur,
            Miyapur,
            Hyderabad - 500049
            Telangana.
            
            Telephone: 8142666454
            040-23046451",INTERIOR DESIGNERS,miyapur,,
RN Interiors,+91 9989344533,"Plot no 896, HMT Suvurna puri Colony,
            Ramya Ground Road,
            Miyapur,
            Hyderabad - 500049
            Telangana.",INTERIOR DESIGNERS,miyapur,17.5200969,78.3538594
RBR Associates,+91 8897066600,"Reliance Fresh
            Address
            D No. 402, B Block,
            Kalki Chambers,
            Miyapur,
            Hyderabad - 500049
            Telangana.
            
            Telephone: 9030143350
            40 40178218",INTERIOR DESIGNERS,miyapur,,
Sri Sai Interiors,+91 9700656549,"Reddy Labs
            Address
            Aurobindo Colony,
            Lane No. 2, mira resdiency,
            Miyapur,
            Hyderabad - 500049
            Telangana.
            
            Telephone: 9391145373",INTERIOR DESIGNERS,miyapur,,
Krishna Interiors,+91 8712842001,"Janapriya Apartments
            Address
            Plot No. 4,
            Friends colony,
            Miyapur,
            Hyderabad - 500049
            Telangana.
            
            Telephone: 8686458058",INTERIOR DESIGNERS,miyapur,,
Varsha Multispeciality Dental Hospital,+91 40 23045522,"Beside Sairanga Theatre
            Address
            Ground Floor,
            Sai Ranga Bhaskar Residency,
            Miyapur,
            Hyderabad - 500049
            Telangana.",DENTAL CLINIC,miyapur,17.5200969,78.3538594
Dr. Vijay Simha Raju,+91 9640663000,"Above Allahabad Bank
            Address
            1st Floor,
            JP Nagar X Road,
            Miyapur,
            Hyderabad - 500049
            Telangana.
            40 42417777",DENTAL CLINIC,miyapur,17.5200969,78.3538594
Dr. Praveen,+91 9177776566,"Opp. More & Body Line Gym
            Address
            Indra Reddy Alwyn Colony,
            Opp. More & Body Line GymAllywn Colony 'X' Roads,
            Miyapur,
            Hyderabad - 500049
            Telangana.
            40 65403510",DENTAL CLINIC,miyapur,,
Dr. Nagaraju Mekala,+91 9177776566,"Opp. More & Body Line Gym
            Address
            Indra Reddy Alwyn Colony,
            Allywn Colony 'X' Roads,
            Miyapur,
            Hyderabad - 500049
            Telangana.
            40 65403510",DENTAL CLINIC,miyapur,,
Ayurv health plus,+91 7801040206,"Opp SR Estate
            Address
            Plot No. 29,
            Talkie Town Theatre Lane,
            Miyapur,
            Hyderabad - 500049
            Telangana.
            
            Telephone: 9010713971",DENTAL CLINIC,miyapur,,
Bhushans Homeo World,+91 9885663471,"Opposite Archana Hospital
            Address
            Ground Floor, Raghava Chambers,
            National Highway Madinaguda,
            Miyapur,
            Hyderabad - 500049
            Telangana.",DENTAL CLINIC,miyapur,,
Sri Balaji Foot Wear,+91 9542097273,"Beside K.S. Bakers
            Address
            Shop No. 2, 3, 4,
            Miyapur,
            Hyderabad - 500049
            Telangana.",FOOTWEAR,miyapur,17.5200969,78.3538594
Blooms Interiors,+91 9100102489,"Opp. RS Brother
            Address
            S. No. 2-133/1, First Floor,
            Madinaguda,
            Miyapur,
            Hyderabad - 500049
            Telangana.",FURNITURE,miyapur,17.5200969,78.3538594
Vrishank Enterprises,+91 9000974666,"Near Bus Stop
            Address
            Madinaguda,
            Miyapur,
            Hyderabad - 500049
            Telangana.
            
            Telephone: 9000977666",FURNITURE,miyapur,17.5200969,78.3538594
Sri Siddivinayaka Furniture,+91 9966999429,"Old Hafeezpet,
            Bawarchi Hotel,
            Miyapur,
            Hyderabad - 500049
            Telangana.",FURNITURE,miyapur,17.5200969,78.3538594
Cama Beds,+91 9949465522,"Below Indus Ind Bank
            Address
            D No. 1-248,
            Bollaram Road,
            Miyapur,
            Hyderabad - 500049
            Telangana.",FURNITURE,miyapur,17.50065305,78.36208974
Bodyline Gym,+91 9391035791,"Near HDFC Bank
            Address
            Bollaram Road,
            J P Nagar X Roads,
            Miyapur,
            Hyderabad - 500049
            Telangana.",GYM,miyapur,17.49916413,78.36198451
Real Fitness Gym,+91 8008004666,"Opp. Lalitha Gayatri Hospital
            Address
            H-No. 5-2/127, Phase 1,,Mythri Nagar, Madinaguda,
            Miyapur,
            Hyderabad - 500049
            Telangana.",GYM,miyapur,17.5200969,78.3538594
Model Fitness Gym,+91 9700321425,"3rd Floor, Model Manzil Building,
            Old Police Station Road,
            Miyapur,
            Hyderabad - 500049
            Telangana.",GYM,miyapur,17.48697716,78.3528158
Bliss Bakers & Confectionaries,+91 9666892626,"Beside Sri Krishna Grand
            Address
            Balaji Nagar,
            Miyapur,
            Hyderabad - 500049
            Telangana.",ICE CREAM CENTER,miyapur,17.5200969,78.3538594
Jai Bhavani Jewellers,+91 9030718911,"Beside Heritage Fresh
            Address
            Plot No. 1, Shop No. 2,
            JPN Nagar,
            Miyapur,
            Hyderabad - 500049
            Telangana.
            
            Telephone: 8464934610",JEWELLERY SHOP,miyapur,,
Sri Venkateshwara Mobiles,+91 9948058152,"Beside Narty Bakery
            Address
            Shop No. 1-264,
            Bollaram Road, Miyapur X Road,
            Miyapur,
            Hyderabad - 500049
            Telangana.",MOBILE SHOP,miyapur,17.49916413,78.36198451
Sri Laxmi Narasimha Swamy Mobiles,+91 9948997484,"Near Miyapur X Road
            Address
            Shop No. 1-112/3/1/11,
            Bollaram Road,
            Miyapur,
            Hyderabad - 500049
            Telangana.
            
            Telephone: 7799445512",MOBILE SHOP,miyapur,,
Indian Mobiles,+91 9059220293,"Near Miyapur X Road
            Address
            Shop No. 1-112/3/3,
            Bollaram Road,
            Miyapur,
            Hyderabad - 500049
            Telangana.",MOBILE SHOP,miyapur,17.50065305,78.36208974
OM Sai Mobiles,+91 9032404459,"Near Miyapur X Road
            Address
            Plot No. 1-254,
            Miyapur-Bollaram Road,
            Miyapur,
            Hyderabad - 500049
            Telangana.",MOBILE SHOP,miyapur,17.5200969,78.3538594
Ab Mobiles,+91 9059180602,"H.No 1-140/1, Janapriya Road,
            Old Police Station Road,
            Miyapur,
            Hyderabad - 500049
            Telangana.",MOBILE SHOP,miyapur,17.48697716,78.3528158
Vajra Brands In Clothing Store,+91 9553973066,"Opposite CBR Estates
            Address
            Deepthisri Nagar,
            Miyapur,
            Hyderabad - 500049
            Telangana.",CLOTHING STORE,miyapur,17.5010565,78.3397895
24 Mantra Organic,+91 9032123232,"Plot No: 183, BHEL HIG Phase II ,
            Madinaguda, Manjeera Road,
            Miyapur,
            Hyderabad - 500049
            Telangana.
            40 23041323",GROCERY SHOP,miyapur,17.5200969,78.3538594
Hotel Hyderabad Grand,tel:7729992786,"Opposite Trident Hospital
Address
11-2/4 & 11-2/5,
Madhura Nagar,
Shamshabad,
Hyderabad - 501218
Telangana.

Telephone: 8413200187",HOTEL,shamshadad,17.2586285,78.3796301
Hotel Swagath Grand,tel:9247024446,"NH7,
Airport Road,
Shamshabad,
Hyderabad - 501218
Telangana.",HOTEL,shamshadad,17.24333692,78.40779945
Hotel Novotel,tel:40 66250000,"Rajiv Gandhi Intl Airport,
Shamshabad,
Hyderabad - 501218
Telangana.",HOTEL,shamshadad,17.24333692,78.40779945
Hotel Deccan Park,tel:8886855505,"Near Shamshabad Airport
Address
11-3/4,
Madhura Nagar, NH 44,
Shamshabad,
Hyderabad - 501218
Telangana.

Telephone: 8886755565",HOTEL,shamshadad,17.264944,78.392222
Hotel Novotel,tel:40 66250000,"Address
Rajiv Gandhi Intl Airport,
Shamshabad,
Hyderabad - 501218
Telangana.",BUSINESS HOTEL,shamshadad,17.24333692,78.40779945
Various Electronics & Mobiles,+91 9848426042,"Bsnl Office
            Address
            No. 11/58,
            Mahaveer Complex Sdh Road,
            Shamshabad,
            Hyderabad - 501218
            Telangana.
            
            Telephone: 9010309480",HOME APPLIANCES,shamshadad,,
Laxmi Cinema Theatre,+91 9848629807,"Main Road,
            Shamshabad,
            Hyderabad - 501218
            Telangana.",CINEMA,shamshadad,17.264944,78.392222
Sri Prema Cinema Theatre,+91 9948092081,"Near New Airport
            Address
            Srishailam Main Road,
            Padisharif Maheshwar Mandal, Tukkuguda,
            Shamshabad,
            Hyderabad - 501218
            Telangana.",CINEMA,shamshadad,17.264944,78.392222
Various Electronics & Mobiles,+91 9848426042,"Bsnl Office
            Address
            No. 11/58,
            Mahaveer Complex Sdh Road,
            Shamshabad,
            Hyderabad - 501218
            Telangana.
            
            Telephone: 9010309480",MOBILE SHOP,shamshadad,,
Urbana Men Clothing,+91 40 66603996,"Unit No. ISU03,
            Level F, GMR International Airport,
            Shamshabad,
            Hyderabad - 501218
            Telangana.",Clothing,shamshadad,17.264944,78.392222
Hotel Sitara Residency,+91 9246543444,"Door No 8-3-945/1, 2nd Floor,
            Vishnu Classic,
            Ameerpet,
            Hyderabad - 500016
            Telangana.
            40 23750382
            40 66844449",Hotels,ameerpeth,17.44734,78.4499531
Hotel Athithi Inn,+91 9010611666,"Dharam Karan Road,
            Lal Bungalow Bus Stop,
            Ameerpet,
            Hyderabad - 500016
            Telangana.
            40 23739091",Hotels,ameerpeth,17.44196838,78.4502182
Aditya Park,+91 40 66788888,"Aditya Trade Centre,
            Satyam Theatre Road,
            Ameerpet,
            Hyderabad - 500016
            Telangana.",Hotels,ameerpeth,17.43683169,78.44397826
Hotel Silver Park,+91 40 66451123,"Beside Satyam Theatre
            Address
            H No. 7-1-209/1/A,
            Ram Mirra Towers, Slate School Road,
            Ameerpet,
            Hyderabad - 500016
            Telangana.
            40 66451124",Hotels,ameerpeth,,
Green Park Hotel,+91 40 66515151,"Main Road,
            Greenlands,
            Ameerpet,
            Hyderabad - 500016
            Telangana.
            40 67069999",Hotels,ameerpeth,17.44734,78.4499531
Hometel Hotel,+91 40 66308888,"Adjacent to Satyam Theatre
            Address
            Balkampet Road,
            Ameerpet,
            Hyderabad - 500016
            Telangana.",Hotels,ameerpeth,17.44734,78.4499531
Hotel Tanisha,+91 9059051439,"Near RK Grand Shopping Mall
            Address
            H No. 8-3-945/A/6/1,
            Ameerpet Main Road,
            Ameerpet,
            Hyderabad - 500016
            Telangana.",Hotels,ameerpeth,17.44734,78.4499531
Beccun Hotel,+91 40 40072372,"Plot No 45, H. No. 7-1-212/A/30,
            Shivabagh,
            Ameerpet,
            Hyderabad - 500016
            Telangana.
            40 40072373",Hotels,ameerpeth,17.44734,78.4499531
Hotel Sai Pearl,+91 9700878701,"Opp. Chennai Shopping Mall
            Address
            D. No. 8-3-944/9/D, Mahaboob Complex,
            Ameerpet Main Road,
            Ameerpet,
            Hyderabad - 500016
            Telangana.",Hotels,ameerpeth,,
Hotel Log Inn,+91 9248001619,"Cross Roads
            Address
            H No. 6-3-801 to 803, 4th Floor,
            Elephant House,
            Ameerpet,
            Hyderabad - 500016
            Telangana.
            40 23406611
            40 23406622",Hotels,ameerpeth,,
Hotel Grandeur,+91 8185042768,"Opposite Chennai Shopping Mall
            Address
            H No. 8-3-945/A/1/1,
            Metro Pillar Number 10,
            Ameerpet,
            Hyderabad - 500016
            Telangana.
            40 44354646",Hotels,ameerpeth,,
Aditya Hometel,+91 40 66308888,"Balkampet Road,
            Adjacent to Satyam Theatre,
            Ameerpet,
            Hyderabad - 500016
            Telangana",Hotels,ameerpeth,17.43948367,78.44827657
Nethra Eye Institute,+91 9505040040,"Opp. Icici Bank
            Address
            D No. 8-3-215,
            Srinivas Nagar Colony West,
            Ameerpet,
            Hyderabad - 500016
            Telangana.
            40 66312345",Accidental Hospital,ameerpeth,,
Prime Hospital,+91 40 44569999,"Besides Blue Fox Hotel
            Address
            Plot No. 4,
            Ameerpet,
            Hyderabad - 500016
            Telangana.",Accidental Hospital,ameerpeth,17.44734,78.4499531
Indo-US Hospital,+91 040 23782378,"No.7-1-57/B,
            Shyam Karan Road, Anand Bagh,
            Ameerpet,
            Hyderabad - 500016
            Telangana.",Accidental Hospital,ameerpeth,17.44177961,78.45277804
Casa Italia Furniture,+91 9347036969,"Opp. Allahabad Bank
            Address
            Dharamkaram Road Junction,
            Ameerpet,
            Hyderabad - 500016
            Telangana.
            40 66368930",Home Furniture,ameerpeth,17.44734,78.4499531
Cache Furniture,+91 9052052044,"Opp. Allahabad Bank
            Address
            D No. 7-1-29/2,
            Ameerpet,
            Hyderabad - 500016
            Telangana.",Home Furniture,ameerpeth,17.44734,78.4499531
Modern Living,+91 40 23733016,"D No. 7-1-24/2/D, Next To Green Park Hotel, Greenlands,
            Ameerpet Rd, Leelanagar,
            Ameerpet,
            Hyderabad - 500016
            Telangana.",Home Furniture,ameerpeth,17.44734,78.4499531
Sethia Electrical & Refrigeration Company,+91 9246212172,"Beside MCH Sports Complex
            Address
            D. No. 7/1/54/A, Shop No.1 & 2A, Satya Sai Residency,
            Dharam Karam Road,
            Ameerpet,
            Hyderabad - 500016
            Telangana.
            40 23735944",ELECTRICIAN,ameerpeth,,
Sri Sai Service Station,+91 9985466066,"Seesh Mahal Theatre
            Address
            Shop No. 7-1-94,
            Ameerpet,
            Hyderabad - 500016
            Telangana.
            040 40206066",ELECTRICIAN,ameerpeth,17.44734,78.4499531
Aditi Electronics,+91 9000737332,"Above Imroze Hotel Ameerpet X Roads
            Address
            7-1-616/130,
            Rahmath Complex , 1st floor,
            Ameerpet,
            Hyderabad - 500016
            Telangana.
            40-66660401",ELECTRICIAN,ameerpeth,,
S.S. Electronics,+91 40 40033634,"Ameerpet X Road
            Address
            Shop No. 5,
            1st Floor, Elephant House,
            Ameerpet,
            Hyderabad - 500016
            Telangana",ELECTRICIAN,ameerpeth,17.44734,78.4499531
Adith Electronics,+91 9246150400,"M.C.H. Market
            Address
            7-1-616/130,
            Rahmath Complex,
            Ameerpet,
            Hyderabad - 500016
            Telangana.",ELECTRICIAN,ameerpeth,17.44734,78.4499531
VTS Cooling Systems,+91 9848911485,"Image Hospital
            Address
            Flat No. 107, Sri Rama Krishna Towers,
            Nagarjuan Nagar,
            Ameerpet,
            Hyderabad - 500016
            Telangana.
            040 23737495",ELECTRICIAN,ameerpeth,,
Samsung Plaza,+91 40 23736302,"Near Green Land
            Address
            Door No. 7-1-23/1,
            Fly Over Turn,
            Ameerpet,
            Hyderabad - 500016
            Telangana",ELECTRICIAN,ameerpeth,17.44734,78.4499531
E-Zone Future Retail Limited,+91 40 6651 1037,"Old Gold Spot Building
            Address
            Big Bazar Mall, GS 24,
            Ameerpet,
            Hyderabad - 500016
            Telangana",ELECTRICIAN,ameerpeth,17.44734,78.4499531
M.M. Patel & Company,+91 9966331845,"Domalguda Building
            Address
            No. 302,
            Ameerpet,
            Hyderabad - 500016
            Telangana.
            
            Telephone: 9618091679",ELECTRICIAN,ameerpeth,17.44734,78.4499531
Vishal Electronics,+91 040 23754548,"Seesh Mahal Theatre
            Address
            No. 7-1-95/3,
            Swathi Avenue,
            Ameerpet,
            Hyderabad - 500016
            Telangana.",ELECTRICIAN,ameerpeth,17.43665,78.449248
Sri Manikanta Electrical Works,+91 9949161196,"Sonabai Temple
            Address
            Shop No. 7/1/413/11,
            Ameerpet Main Road,
            Ameerpet,
            Hyderabad - 500016
            Telangana.",ELECTRICIAN,ameerpeth,17.43557142,78.45192829
Ma Electronics Servicing Audio & Video,+91 9848272797,"Sri Sai Supermarket
            Address
            Shop No. 7-1-81/2,
            Ameerpet,
            Hyderabad - 500016
            Telangana.
            
            Telephone: 9848417570",ELECTRICIAN,ameerpeth,17.44734,78.4499531
Maruti Electrical Works,+91 9347036081,"Padala Rama Reddi Law College
            Address
            No. 8/3/713/12,
            Ameerpet,
            Hyderabad - 500016
            Telangana.
            
            Telephone: 8522854621",ELECTRICIAN,ameerpeth,17.44734,78.4499531
Aq Techno Service,+91 8185893020,"Noor Masjid
            Address
            No. 2-3-512/30/C,
            Chenna Reddy Nagar,
            Ameerpet,
            Hyderabad - 500016
            Telangana.
            
            Telephone: 8071602061
            040 65997860",ELECTRICIAN,ameerpeth,,
Azeem Electronic & Mobiles,+91 9951416190,"Rbi Quarters Lane
            Address
            Door No. 6-3-834/C,
            Preethi Complex, MCH Market Road,
            Ameerpet,
            Hyderabad - 500016
            Telangana.",ELECTRICIAN,ameerpeth,17.44734,78.4499531
Expert Cooling Controls,+91 9246584164,"Pjr Statue
            Address
            No. 8-3-169/264,
            Sanjeevaiah Colony, Raju Colony Road,
            Ameerpet,
            Hyderabad - 500016
            Telangana.",ELECTRICIAN,ameerpeth,17.44734,78.4499531
Ardes Architects & Interior Designers,+91 9849318214,"Near Laxmi Photo Studio
            Address
            H.No. 7-1-212,
            Shivbagh Complex,
            Ameerpet,
            Hyderabad - 500016
            Telangana.
            
            Telephone: 9849239664
            40 23753316",INTERIOR DESIGNER,ameerpeth,,
Architects And Interior Designers,+91 9849844248,"Opp.Gurudwara
            Address
            202, 1st Floor, Gurukrupa Complex,
            Ameerpet,
            Hyderabad - 500016
            Telangana.",INTERIOR DESIGNER,ameerpeth,17.44734,78.4499531
ARoades Architects & Interior Designers,+91 040-23753316,"Near to SR Nagar Police Station
            Address
            No. 7-1-212 ,
            Balkampet Road, ShivBagh,
            Ameerpet,
            Hyderabad - 500016
            Telangana.",INTERIOR DESIGNER,ameerpeth,17.44029999,78.44849996
Loura Interior Designers,+91 9885753773,"Flat No. 601,
            Vasan Eye Care Building, Siri Estate,
            Ameerpet,
            Hyderabad - 500016
            Telangana.",INTERIOR DESIGNER,ameerpeth,17.44734,78.4499531
Freelance Interior Designer,+91 40 33246696,"Sowmya Childern Hospital
            Address
            Door No.148/srt ,
            Sanjeeva Reddy Nagar,
            Ameerpet,
            Hyderabad - 500016
            Telangana.",INTERIOR DESIGNER,ameerpeth,17.441361,78.447323
Fantasies Financial Services,+91 9866700008,"Beside Bus Stop
            Address
            Shop No. 28,
            Huda Maitrivanam,
            Ameerpet,
            Hyderabad - 500016
            Telangana.",LEGAL & FINANCE SERVICES,ameerpeth,17.44734,78.4499531
Airtel Store,+91 9949155062,"Opposite Green Park Hotel
            Address
            H.No 6-3-866/A, Flat-No. 103,
            1 st Floor, Mayank Plaza,
            Ameerpet,
            Hyderabad - 500016
            Telangana.",INTERNET SERVICE PROVIDER,ameerpeth,,
Tata Tele Services,+91 7416227525,"Opposite Mytrivanam
            Address
            Shop No. 48,
            Nilgiri Block, Aditya Enclave,
            Ameerpet,
            Hyderabad - 500016
            Telangana.",INTERNET SERVICE PROVIDER,ameerpeth,17.44734,78.4499531
"OM'S Beauty Salon, Women & Men",+91 40 23735754,"Near Green Park Hotel
            Address
            Shop No. 14, 15,
            Divyasakthi Complex,
            Ameerpet,
            Hyderabad - 500016
            Telangana",SPA & SALOON,ameerpeth,17.44734,78.4499531
Lakme Saloon,+91 9505833739,"Beside Athithi Inn Hotel
            Address
            Shop No. 101B, 7-1-59/2 & 59/6,
            Mandhana Towers,
            Ameerpet,
            Hyderabad - 500016
            Telangana.
            40 66252013
            40 66202013",SPA & SALOON,ameerpeth,,
CV International Academy of Beauty,+91 9581020039,"Opposite Green Park Hotel
            Address
            1st Floor ,
            SBN Arcade, Green Lands,
            Ameerpet,
            Hyderabad - 500016
            Telangana.
            40 6651441133",SPA & SALOON,ameerpeth,,
Opulence Hair & Beauty Saloon,+91 9032003434,"Beside IDBI Bank
            Address
            3rd Floor, Karthik Chambers,
            Ameerpet,
            Hyderabad - 500016
            Telangana.
            40 40045087",SPA & SALOON,ameerpeth,17.44734,78.4499531
OM'S Beauty Saloon,+91 9849097516,"Shop no.2.11,Ground Floor ,
            Rahmath commercial complex,
            Ameerpet,
            Hyderabad - 500016
            Telangana.
            40-23732613",SPA & SALOON,ameerpeth,17.43694681,78.44401967
Naturals Salon,+91 9704556461,"Near Indo US Hospital
            Address
            D-No. 7-1-28/12/1, Survey No. 125,
            Serenity Plaza, Dharamkaram Road,
            Ameerpet,
            Hyderabad - 500016
            Telangana.
            
            Telephone: 7416665111
            40 66144421",SPA & SALOON,ameerpeth,,
Nayna Beauty Saloon,+91 9515578920,"Near KVB Bank, Bata Show Room Lane
            Address
            H.No. 8-3-94/K/L,
            1st Floor, LSY Estate,
            Ameerpet,
            Hyderabad - 500016
            Telangana.
            
            Telephone: 9100228003",SPA & SALOON,ameerpeth,,
Maya Academy Of Advanced Cinematics,+91 8712809078,"Beside Satyam Theater
            Address
            Flat-No. 201 & 301, 2 & 3rd Floors, Star Meena Mehtab Residency,
            Ameerpet,
            Hyderabad - 500016
            Telangana.
            
            Telephone: 9052404142
            40 40023555
            40 40032666",CINEMA,ameerpeth,,
Carnival Cinema Theatre,+91 9391374718,"H No. 8-3-949/1,
            G S 24 Carat Building,
            Ameerpet,
            Hyderabad - 500016
            Telangana.
            
            Telephone: 9391374729
            40 30581470
            40 39828000",CINEMA,ameerpeth,,
Minerva Coffee Shop,+91 40 23757525,"Opposite Aditya Trade Center
            Address
            Plot No. 3, Regency Plaza,
            Ameerpet,
            Hyderabad - 500016
            Telangana.",CAFE,ameerpeth,17.44734,78.4499531
Sridhar Super Speciality Dental Hospitals,+91 8121666111,"Opp. Big Bazar
            Address
            Sonali Pearl Apartment,
            Ameerpet,
            Hyderabad - 500016
            Telangana.
            40 66611166
            40 23417265",DENTAL CLINICS,ameerpeth,17.44734,78.4499531
Virajas Elite Dentistree,+91 9642442040,"Behind Huda Mythrivanam
            Address
            Plot No. 18/B,
            Prime Hospital-Minerva Coffee Shoppee Lane,
            Ameerpet,
            Hyderabad - 500016
            Telangana.",DENTAL CLINICS,ameerpeth,,
Dr. Samba Siva Rao,+91 40 23748577,"Flat No. 14,
            Ground Floor, Pancom Business Centre,
            Ameerpet,
            Hyderabad - 500016
            Telangana.",DENTAL CLINICS,ameerpeth,17.44734,78.4499531
Sai Dental Clinic,+91 9849218266,"Below Sri Ram Chit Fund
            Address
            D No. 7-1-616, Shop No. 115,
            Rahmat Commercial Complex,
            Ameerpet,
            Hyderabad - 500016
            Telangana.
            40 23737250
            40 23747210",DENTAL CLINICS,ameerpeth,,
Jyothi Footwear,+91 9703905630,"Opposite JC Brothers
            Address
            D. No. 8-3-945/4 ,
            Yaseen Complex,
            Ameerpet,
            Hyderabad - 500016
            Telangana.
            40 23735420",FOOTWEAR,ameerpeth,17.44734,78.4499531
Fancy Footwear,+91 9848844783,"Near Kanaka Durga Temple
            Address
            D-No. 7-1-612/12,
            Ameerpet,
            Hyderabad - 500016
            Telangana.
            40 23739689",FOOTWEAR,ameerpeth,17.44734,78.4499531
Nike Factory Store,+91 40 40189689,"D-No. 7-1-79/795,
            Girdharilal Estate, Ground Floor,
            Ameerpet,
            Hyderabad - 500016
            Telangana.",FOOTWEAR,ameerpeth,17.4348366,78.4497082
Pavan Foot Wear,+91 9848526389,"Opp. Surya Residency, Balkampet Road
            Address
            7-1-399/4BC ,
            Ameerpet,
            Hyderabad - 500016
            Telangana.
            
            Telephone: 9553822638",FOOTWEAR,ameerpeth,,
Sagar Footwear,+91 9160761786,"Beside Hanuman Temple
            Address
            H No. 6-3-803/1/14/A,
            Ameerpet Main Road,
            Ameerpet,
            Hyderabad - 500016
            Telangana.",FOOTWEAR,ameerpeth,17.43557142,78.45192829
MSL Footwear,+91 40 23313894,"Ameerpet Road
            Address
            D. No. 6-3-86, Green Circle,
            Ameerpet,
            Hyderabad - 500016
            Telangana.
            
            Telephone: 40 23314638
            40 40071176",FOOTWEAR,ameerpeth,,
Bata,+91 40 32599663,"Beside Gurudwara
            Address
            Shop No. 4, 7-1-201,
            Gurudwara Road,
            Ameerpet,
            Hyderabad - 500016
            Telangana.",FOOTWEAR,ameerpeth,17.44734,78.4499531
Multy Foot wear And Luggage Store,+91 40 66757865,"Opposite ICICI Bank
            Address
            H No. 8-3-215/S, 1 To 7,
            Karthik Chambers,
            Ameerpet,
            Hyderabad - 500016
            Telangana.",FOOTWEAR,ameerpeth,17.44734,78.4499531
Swagath Marriage Hall,+91 9246820620,"Beside Chandana Brothers
            Address
            H.No. 8-3-945/1,
            4th Floor, Vishnu Classic,
            Ameerpet,
            Hyderabad - 500016
            Telangana.",FUNCTION HALL,ameerpeth,17.44734,78.4499531
Casa Italia Furniture,+91 9347036969,"Opp. Allahabad Bank
            Address
            Dharamkaram Road Junction,
            Ameerpet,
            Hyderabad - 500016
            Telangana.
            40 66368930
            40 68368931",FURNITURE,ameerpeth,,
Cache Furniture,+91 9052052044,"Opp. Allahabad Bank
            Address
            D No. 7-1-29/2,
            Ameerpet,
            Hyderabad - 500016
            Telangana.",FURNITURE,ameerpeth,17.44734,78.4499531
Modern Living,+91 40 23733016,"D No. 7-1-24/2/D, Next To Green Park Hotel, Greenlands,
            Ameerpet Rd, Leelanagar,
            Ameerpet,
            Hyderabad - 500016
            Telangana.",FURNITURE,ameerpeth,17.44734,78.4499531
Pink Ladies Gym,+91 9985240566,"D-No. 7-1-71/H, Divyashakti Appartments ,
            D K Road,
            Ameerpet,
            Hyderabad - 500016
            Telangana.",GYM,ameerpeth,17.43703101,78.45091898
Force Gym,+91 90003 33377,"Near Saradhi Studio
            Address
            Yousufguda Main Road,
            Feeder Road,
            Ameerpet,
            Hyderabad - 500016
            Telangana",GYM,ameerpeth,17.44734,78.4499531
Darleys Ice Cream,+91 9885084786,"Opposite Big Bazar
            Address
            Shop No. 2, Sonali Pearl Complex,
            Near Chandana Bros,
            Ameerpet,
            Hyderabad - 500016
            Telangana.",ICE-CREAM CENTER & DESSERT PARLOUR,ameerpeth,17.44734,78.4499531
Sri Ganesh Jewellers,+91 9000971000,"Opposite Gurudwara Saheb
            Address
            D No. 7-1-454/5,
            Ameerpet,
            Hyderabad - 500016
            Telangana.
            40 23733337",JEWELLERY,ameerpeth,17.44734,78.4499531
Shagun Jewellers,+91 8885006008,"D No. 7-1-59/1,
            Merit Plaza, DK Road,
            Ameerpet,
            Hyderabad - 500016
            Telangana.",JEWELLERY,ameerpeth,17.44734,78.4499531
Sri Venkata Sai Pearls & Jewellery,+91 040 66627119,"Near Hotel Green Park
            Address
            Shop No. 23 & 24,
            Lal Bunglow Complex,
            Ameerpet,
            Hyderabad - 500016
            Telangana.",JEWELLERY,ameerpeth,17.44734,78.4499531
Shadez,+91 40 40038444,"Near Sathyam Theater
            Address
            D No. 7-1-451/14,
            Ameerpet,
            Hyderabad - 500016
            Telangana.",JEWELLERY,ameerpeth,17.44734,78.4499531
Sri Anand Ladies Emporium,+91 9849657527,"Shop No. 4,
            Rahamat Complex,
            Ameerpet,
            Hyderabad - 500016
            Telangana.",JEWELLERY,ameerpeth,17.44734,78.4499531
Sri Sai Ram Pearls & Jewellery,+91 9492048523,"Shop No. 18,
            Lal Bunglow,
            Ameerpet,
            Hyderabad - 500016
            Telangana.",JEWELLERY,ameerpeth,17.44734,78.4499531
Ashoka Jewellers,+91 9849867265,"Opposite Dr Reddys Lab
            Address
            D No. G-10,
            Lal Bunglow,
            Ameerpet,
            Hyderabad - 500016
            Telangana",JEWELLERY,ameerpeth,17.44734,78.4499531
Gautham Jewellers,+91 40 65592777,"Hotel Athithi Inn Complex
            Address
            No. 7-1-59/1, Shop No. 1,
            Merit Plaza, Dharam Karam Plaza,
            Ameerpet,
            Hyderabad - 500016
            Telangana.",JEWELLERY,ameerpeth,,
Puransons Jewellers,+91 40 66639432,"Opposite Green Park Hotel
            Address
            D No. 6-3-862/1/9,
            My Home Laxmi Nivas,
            Ameerpet,
            Hyderabad - 500016
            Telangana.",JEWELLERY,ameerpeth,17.44734,78.4499531
Sri Sampat Jewellers,+91 40 23745357,"D No. 7-1-59/1, Shop No. 2,
            Merit Plaza, Dharam Karam Road,
            Ameerpet,
            Hyderabad - 500016
            Telangana.
            40 65533040",JEWELLERY,ameerpeth,17.44104254,78.45331869
Puchala Pearls & Jewellers,+91 40 23710439,"Beside Lal Bungalow
            Address
            Shop No. 14, Ground Floor,
            Meridian Plaza, Hotel Green Park Road,
            Ameerpet,
            Hyderabad - 500016
            Telangana.
            40 66636572",JEWELLERY,ameerpeth,,
Harsh Jewellers,+91 9985032000,"Near Chermas
            Address
            No. 8-3-944/12/1 & 2,
            Ahmed Commercial Complex,
            Ameerpet,
            Hyderabad - 500016
            Telangana.",JEWELLERY,ameerpeth,17.44734,78.4499531
Ravi Raj Jewellers,+91 40 65189992,"Opposite Green Park Hotel
            Address
            D No. 6-3-862/1/10,
            My Home LaxminivasGreenlands,
            Ameerpet,
            Hyderabad - 500016
            Telangana",JEWELLERY,ameerpeth,17.44734,78.4499531
Maa Shanti Jewellers,+91 40 23746097,"Beside Maitrivanam
            Address
            Shop No10,
            Annapurna Block, Aditya Enclave,
            Ameerpet,
            Hyderabad - 500016
            Telangana.",JEWELLERY,ameerpeth,17.44734,78.4499531
Sri Ratnaraj Jewellers,+91 40 23413270,"Lal Banglow
            Address
            Shop No. 6 ,
            Ground Floor,,
            Ameerpet,
            Hyderabad - 500016
            Telangana.",JEWELLERY,ameerpeth,17.44734,78.4499531
Mahalakshmi Jewellers,+91 40 23740907,"Besides Guru Dhawara
            Address
            7-1-180/1,
            Ameerpet,
            Hyderabad - 500016
            Telangana.",JEWELLERY,ameerpeth,17.44734,78.4499531
Anu Karanz Violet & Purple,+91 9491187462,"Ground Floor,
            Crystal Arcade Complex,
            Ameerpet,
            Hyderabad - 500016
            Telangana.
            40 40143466",JEWELLERY,ameerpeth,17.432981,78.446941
New Mahamaya Jewellers,+91 9397020591,"Near Sathyam Theatre
            Address
            Shop No. 3, Ground Floor,
            KVR Enclave,
            Ameerpet,
            Hyderabad - 500016
            Telangana.",JEWELLERY,ameerpeth,17.44734,78.4499531
Sri Sai Vanitha Jewellers,+91 8143114629,"Shop No. 21,
            Lal Bunglow,
            Ameerpet,
            Hyderabad - 500016
            Telangana.",JEWELLERY,ameerpeth,17.44734,78.4499531
Siddhi Jewellers,+91 40 66660365,"D No. 6-3-862/A & B, Shop No. 2,3 & 4,
            Ground Floor, Lal Bunglow,
            Ameerpet,
            Hyderabad - 500016
            Telangana.
            40 66660366",JEWELLERY,ameerpeth,17.44734,78.4499531
Sri Lakshmi Narayana Jewellers,+91 8121547277,"Ground Floor,
            Lal Bunglow,
            Ameerpet,
            Hyderabad - 500016
            Telangana.
            
            Telephone: 9515762188
            40 66730999",JEWELLERY,ameerpeth,17.44734,78.4499531
RKS Grand Shopping Mall,+91 40 42607742,"D. No. 6-3-790, Shop No. 10-13 ,
            Delta Plaza,
            Ameerpet,
            Hyderabad - 500016
            Telangana.",JEWELLERY,ameerpeth,17.44734,78.4499531
Laxmi Ganapathy Paper Mills Limited,+91 40 23394315,"101, Arun Apartment,
            Red Hills,
            Ameerpet,
            Hyderabad - 500016
            Telangana.",STATIONARY,ameerpeth,17.44734,78.4499531
Neelkamal Look N Book,+91 40 24757140,"Adjacent ICICI Bank
            Address
            7-1-621- C/5,
            Ameerpet,
            Hyderabad - 500016
            Telangana.
            40 66569078",STATIONARY,ameerpeth,17.44734,78.4499531
Office World,+91 40 66753233,"Near Laxman Spot
            Address
            7-1-61/3 Dharam Karam Roads,
            Ameerpet,
            Hyderabad - 500016
            Telangana.",STATIONARY,ameerpeth,17.44734,78.4499531
Swasthik Stationery Store,+91 40 66785060,"Opposite R.S. Brothers
            Address
            Shop No. 1, Eureka Court Apartment,
            Nagarjuna Nagar Road,
            Ameerpet,
            Hyderabad - 500016
            Telangana.",STATIONARY,ameerpeth,17.44734,78.4499531
Central Book Shop,+91 40 23400789,"Opp. Green Park Hotel
            Address
            Shop No. 6-3-864/4,
            Saadat Manzil, Green lands,
            Ameerpet,
            Hyderabad - 500016
            Telangana.",STATIONARY,ameerpeth,17.44734,78.4499531
Chawlas Mall,+91 9849008298,"Beside Green Park Hotel
            Address
            D No. 7-1-24/2/C,
            Greenlands,
            Ameerpet,
            Hyderabad - 500016
            Telangana.",MALLS,ameerpeth,17.44734,78.4499531
Kalamandir Shopping Mall,+91 9246223998,"Beside RS Brothers
            Address
            D. No. 6-3-790/8 , Flat No.1. Bathina Apartments,
            Pavani Prestige,
            Ameerpet,
            Hyderabad - 500016
            Telangana.",MALLS,ameerpeth,,
R.S. Brothers Shopping Mall,+91 40 66860703,"Beside Kala Mandir
            Address
            D. No. 6-3-789,
            Pavani Prestige,
            Ameerpet,
            Hyderabad - 500016
            Telangana.",MALLS,ameerpeth,17.44734,78.4499531
RKS Grand Shopping Mall,+91 40 42607742,"D. No. 6-3-790, Shop No. 10-13 ,
            Delta Plaza,
            Ameerpet,
            Hyderabad - 500016
            Telangana.",MALLS,ameerpeth,17.44734,78.4499531
Sangam Ayurvedic Medical Hall,+91 9866071930,"H. No. 8-3-941/B,
            Yellareddyguda,
            Ameerpet,
            Hyderabad - 500016
            Telangana.
            40 66361930",MEDICAL,ameerpeth,17.44734,78.4499531
Krishna Sai Medical & General Store,+91 9849837539,"D No. 7-1-451/22, Shop No 9,
            Durga Bhavani Business Centre,
            Ameerpet,
            Hyderabad - 500016
            Telangana.",MEDICAL,ameerpeth,17.44734,78.4499531
Osmania Medical Book House,+91 9848197515,"Near Mytrivanam
            Address
            Shop No. 144, A-Block,
            Aditya Enclave,
            Ameerpet,
            Hyderabad - 500016
            Telangana.",MEDICAL,ameerpeth,17.44734,78.4499531
Paras Medical Books Private Limited,+91 9393934080,"Opposite Green Park Hotel
            Address
            H No. 6-3-866/A, Plot No. 101, 1st Floor,
            Mekins Maheswari, Mayank Plaza,
            Ameerpet,
            Hyderabad - 500016
            Telangana.",MEDICAL,ameerpeth,,
Sangam Health And Beauty Care Ayurvedic Medical Hall,+91 9866071930,"8-3-941/B,
            Ameerpet 'X' Road,
            Ameerpet,
            Hyderabad - 500016
            Telangana.",MEDICAL,ameerpeth,17.43405178,78.44578915
Hot Spot Mobile Store,+91 9966649982,"Opposite Green Park Hotel
            Address
            Plot No. 8, Laxmi Nivas,
            Ameerpet,
            Hyderabad - 500016
            Telangana.",MOBILE STORE,ameerpeth,17.436519,78.453655
Trendy Mobiles,+91 8686846562,"Opposite Mytrivanam
            Address
            Shop No 37, Nilagiri Block,
            Aditya Enclave,
            Ameerpet,
            Hyderabad - 500016
            Telangana.",MOBILE STORE,ameerpeth,17.44734,78.4499531
Shree Mobile Accessories,+91 9963978789,"Opposite Mytrivanam
            Address
            Shop No 35, Nilagiri Block,
            Aditya Enclave,
            Ameerpet,
            Hyderabad - 500016
            Telangana.
            40 66661221",MOBILE STORE,ameerpeth,,
Lot Mobiles Private Limited,+91 8297243555,"Beside Aditya Trade Centre
            Address
            Ground Floor,
            Sri Sai Arcade,
            Ameerpet,
            Hyderabad - 500016
            Telangana.",MOBILE STORE,ameerpeth,17.43650001,78.44639996
Sapna Mobiles,+91 9885388771,"Opposite Maitrivanam
            Address
            Shop No 36,
            Nilgiri Block, Aditya Enclave,
            Ameerpet,
            Hyderabad - 500016
            Telangana",MOBILE STORE,ameerpeth,17.44734,78.4499531
Classic Mobiles,+91 9550169313,"Opposite Huda Maitrivanam
            Address
            H.No 8-3-216,
            Srinivasa Colony,
            Ameerpet,
            Hyderabad - 500016
            Telangana.",MOBILE STORE,ameerpeth,17.44734,78.4499531
Srinivasa Mobile Care,+91 8897614183,"Shop No F2-803, 1st Floor,
            Elephant House, Ameerpet X Road,
            Ameerpet,
            Hyderabad - 500016
            Telangana.",MOBILE STORE,ameerpeth,17.4340718,78.4465114
R.S Mobiles,+91 9298404954,"G-17, Ground Floor,
            Elephant House, Ameerpet X Road,
            Ameerpet,
            Hyderabad - 500016
            Telangana.
            40 65880001",MOBILE STORE,ameerpeth,17.4340718,78.4465114
Pooja Mobiles,+91 9963731313,"Shop No. G-16,
            Elephant House, Ameerpet X Road,
            Ameerpet,
            Hyderabad - 500016
            Telangana.",MOBILE STORE,ameerpeth,17.4340718,78.4465114
Mobile King,+91 9949765786,"F3, First Floor,
            Elephant House, Ameerpet X Road,
            Ameerpet,
            Hyderabad - 500016
            Telangana.",MOBILE STORE,ameerpeth,17.44734,78.4499531
Sangeetha Mobiles,+91 8096015666,"Opposite Hotel Green Park
            Address
            H.No 6-3-666/A,
            Green Lands,
            Ameerpet,
            Hyderabad - 500016
            Telangana.",MOBILE STORE,ameerpeth,17.44734,78.4499531
Aaryan's Mobiles,+91 9700228840,"Beside TSRTC Counter
            Address
            H.No 6-3-788/A/5,
            Ameerpet,
            Hyderabad - 500016
            Telangana",MOBILE STORE,ameerpeth,17.44734,78.4499531
Ask Mobiles Store,+91 9885418328,"Near Sheeshmahal Theatre
            Address
            H.No. 7-1-95,
            Ameerpet,
            Hyderabad - 500016
            Telangana.
            40 66363803",MOBILE STORE,ameerpeth,17.44734,78.4499531
The Mobile Stores,+91 9000556265,"Ameerpet 'X' Roads
            Address
            S.No-G1,
            Elephant House,
            Ameerpet,
            Hyderabad - 500016
            Telangana.",MOBILE STORE,ameerpeth,17.44734,78.4499531
Shree Mobile,+91 9849960204,"No. 43 And 44, Nilgiri Block,
            Aditya Enclave, Srinivasa Nagar,
            Ameerpet,
            Hyderabad - 500016
            Telangana.",MOBILE STORE,ameerpeth,17.4393435,78.4430967
Azeem Electronic & Mobiles,+91 9951416190,"Rbi Quarters Lane
            Address
            Door No. 6-3-834/C,
            Preethi Complex, MCH Market Road,
            Ameerpet,
            Hyderabad - 500016
            Telangana.",MOBILE STORE,ameerpeth,17.44734,78.4499531
Brands & Bazaar Clothing Store,+91 40 66107782,"Beside Ramraj Cottons
            Address
            1st Floor,
            Ameerpet,
            Hyderabad - 500016
            Telangana.
            40 66107782",CLOTHING STORE,ameerpeth,17.44734,78.4499531
Zam Zam Clothing Store,+91 40 66513490,"Near MCH Ground
            Address
            Dharamkaran Road,
            Ameerpet,
            Hyderabad - 500016
            Telangana.",CLOTHING STORE,ameerpeth,17.44196838,78.4502182
Rishamita 9 Women Clothing Store,+91 9246878797,"Beside Ratnadeep Super Market
            Address
            7-1-79 & 80,
            Capital Complex,
            Ameerpet,
            Hyderabad - 500016
            Telangana.",CLOTHING STORE,ameerpeth,17.44734,78.4499531
Star Collection Men's Clothing,+91 9550014676,"Beside Vijaylaxmi Talkies
            Address
            S. No. 6-3-795/1/1,
            Ameerpet,
            Hyderabad - 500016
            Telangana.",CLOTHING STORE,ameerpeth,17.44734,78.4499531
Madames Choice Clothing Store,+91 9246162400,"Near Lal Bunglow
            Address
            H No. 6-3-862/1, Shop No 12/A,
            Lakshminivas Apartments,
            Ameerpet,
            Hyderabad - 500016
            Telangana",CLOTHING STORE,ameerpeth,17.44734,78.4499531
Mix And Match Clothing Store,+91 40 66849838,"Near Green Park Hotel
            Address
            H No. 7-1-24/2/C, Shop No. LG-1A, Plot No. 4,
            Dhansi Surabhi Commercial Complex, Greenlands,
            Ameerpet,
            Hyderabad - 500016
            Telangana.",CLOTHING STORE,ameerpeth,,
Guest Inn Suites Castle Hotel,tel:9948364860,"Near Casa Luxurio Hotel
Address
H No. 8-2-438 / 2,
Road No. 4,
Banjara Hills,
Hyderabad - 500034
Telangana.
40 23357716",Budget  Hotel,banjara,17.41539225,78.44936745
The Amough Boutique Hotel,+91 9705400020,"H No. 8-2-293/82/L,
MLA Colony, Road Number 12,
Banjara Hills,
Hyderabad - 500034
Telangana.

Telephone: 9705400020
40 23420580",Budget  Hotel,banjara,17.41113297,78.42217668
Hotel Crystal Banjara,"10-5-5/3,
Road No. 1,
Banjara Hills,
Hyderabad - 500034
Telangana.
40 23384488",+91 40 23384477,Budget  Hotel,banjara,,
Kens Business Hotel,tel:9849666431,"Opposite to Tv9 Lane
Address
Plot No 53,
Banjara Hills,
Hyderabad - 500034
Telangana.",Business Hotels,banjara,17.41539225,78.44936745
Kens Business Hotel,tel:9849666431,"Opposite to Tv9 Lane
Address
Plot No 53,
Banjara Hills,
Hyderabad - 500034
Telangana.",Hotel,banjara,17.41539225,78.44936745
Radisson Blu Plaza,tel:9595333333,"Address
D. No. 8-2-409 ,
Road No. 6,
Banjara Hills,
Hyderabad - 500034
Telangana.",Hotel,banjara,17.42473514,78.44307325
Ebony Boutique Hotel,tel:9248008802,"Near Annapurna Studio
Address
D No. 8-2-120/C/198/192 ,
Road No. 2,
Banjara Hills,
Hyderabad - 500034
Telangana.
40 40319696",Hotel,banjara,17.41539225,78.44936745
Taj Deccan Hotels,tel:40 66663939,"Address
Road No. 1,
Banjara Hills,
Hyderabad - 500034
Telangana.",Hotel,banjara,17.44224071,78.40138112
V Hotels,tel:9642477000,"Beside TV9
Address
Plot No. 100, Road No. 3,
Banjara Hills,
Hyderabad - 500034
Telangana.

Telephone: 7207350260",Hotel,banjara,17.42614199,78.43834503
Hotel Crystal Banjara,tel:40 23384477,"Beside Khaja Mansion
Address
10-5-5/3,
Road No. 1,
Banjara Hills,
Hyderabad - 500034
Telangana.
40 23384488",Hotel,banjara,17.41539225,78.44936745
Taj Banjara,tel:40 66669999,"Address
Road No 1,
Banjara Hills,
Hyderabad - 500034
Telangana.",Hotel,banjara,17.44224071,78.40138112
Guest Inn Suites Castle Hotel,tel:9948364860,"Near Casa Luxurio Hotel
Address
H No. 8-2-438 / 2,
Road No. 4,
Banjara Hills,
Hyderabad - 500034
Telangana.
40 23357716",Hotel,banjara,17.41539225,78.44936745
Rainbow Children Hospital,+91 40 67139999,"Address
Plot no 22, Road No - 4,
Banjara Hills,
Hyderabad - 500034
Telangana.
40 44665555",Hospitals,banjara,17.41539225,78.44936745
Care Hospital,tel:40 30418888,"Opp. Sana Medical Store
Address
Road No. 1,
Banjara Hills,
Hyderabad - 500034
Telangana.",Hospitals,banjara,17.41539225,78.44936745
Century Super Speciality Hospital,tel:9908648375,"Address
Road No. 12,
Banjara Hills,
Hyderabad - 500034
Telangana.",Hospitals,banjara,17.40701435,78.43248548
Basavatarakam Indo-American Cancer Hospital,tel:9912225336,"road No. 10,
Banjara Hills,
Hyderabad - 500034
Telangana.",Hospitals,banjara,17.4160606,78.43361022
The Birthplace,tel:40 67139999,"Opp. U.S. Polo Showroom
Address
Road No. 2,
Banjara Hills,
Hyderabad - 500034
Telangana.",Hospitals,banjara,17.42621855,78.42091105
Omega Hospital,tel:9160900045,"D No. 8-2-293/82/L/276A,
MLA Colony, Road No. 12,
Banjara Hills,
Hyderabad - 500034
Telangana.
40 23551034",Hospitals,banjara,17.41113297,78.42217668
Care Out Patient Centre,tel:9676825460,"Road No. 10,
Banjara Hills,
Hyderabad - 500034
Telangana.
040 39310444",Hospitals,banjara,17.4160606,78.43361022
Galaxy Enterprises,tel:9392984430,"Road No 1
Address
Shop No. 10-5-2/1/8/A/A1 & 1B,
Maheshwari Complex,
Banjara Hills,
Hyderabad - 500034
Telangana.
40 66664430>",Home Needs,banjara,17.41539225,78.44936745
Anwar Crockery House,tel:9392488041,"Beside Banjara Furniture
Address
S.K. Chambers ,
Road No. 1,
Banjara Hills,
Hyderabad - 500034
Telangana.
4066664696",Home Needs,banjara,17.41539225,78.44936745
Unique Lighting Solutions,tel:9885107172,"Road No 1
Address
D. No. 8-2-626/7 & 8, Shop No 3,
Sidh Vaishnavi Arcade,
Banjara Hills,
Hyderabad - 500034
Telangana.",Home Needs,banjara,17.41539225,78.44936745
Overseas Gallery,tel:8886940000,"Near Meena Bazar
Address
H. No. 8-2-350/3,
Road No. 3,
Banjara Hills,
Hyderabad - 500034
Telangana.
40 66680000
40 66680001",Home Furniture,banjara,17.42700001,78.44359999
Bed Stores,tel:40 23324546,"Address
Rd Number 12,
Banjara Hills,
Hyderabad - 500034
Telangana.",Home Furniture,banjara,17.414837,78.42628205
Furniturewalla FW,tel:40 23383842,"Laxmi Cyber Centre,
Road No. 12,
Banjara Hills,
Hyderabad - 500034
Telangana.",Home Furniture,banjara,17.40701435,78.43248548
Furniture World,tel:9701362951,"Near Nagarjuna Circle
Address
Plot No. 1, Road No. 3 ,
Journalist Colony,
Banjara Hills,
Hyderabad - 500034
Telangana.",Home Furniture,banjara,17.4229968,78.4072234
Nilkamal Limited @ home,tel:40 23316015,"Opp city center
Address
1st, 2nd, 3rd & 4th Floor Aztec Towers, 6-3-249/6/1, Rd Number 1,
Banjara Hills,
Hyderabad - 500034
Telangana.
40 23316016",Home Furniture,banjara,17.45430942,78.43772419
Seating World,tel:40 66518888,"1st Floor, M.J.Towers,
Road No. 12,
Banjara Hills,
Hyderabad - 500034
Telangana.
40 66368888",Home Furniture,banjara,17.40701435,78.43248548
The Natuzzi,tel:40 66365888,"Ground Floor, M.J Towers,
Road No. 12,
Banjara Hills,
Hyderabad - 500034
Telangana.",Home Furniture,banjara,17.40701435,78.43248548
Azeem Old Furnitures,tel:98494 93671,"Flat No. 24, Road No. 12,
Banjara Hills,
Hyderabad - 500034
Telangana.",Home Furniture,banjara,17.40701435,78.43248548
SleepwellWorld,tel:40 64507147,"D No. 6-3-348/10/2, Opposite Jalgam Vengal Road Park Main Gate,
Road No. 1,
Banjara Hills,
Hyderabad - 500034
Telangana.",Home Furniture,banjara,17.41539225,78.44936745
Technocrats,tel:9849007126,"D No. 10-5-2/F/G/7,8,9, 1st floor,
Sarda Sadan, Road Number 1,
Banjara Hills,
Hyderabad - 500034
Telangana.",Home Furniture,banjara,17.41539225,78.44936745
Italian Furniture In Hyderabad,tel:40 66518888,"Road no- 12, MJ Tower ,
Banjara Hills,
Hyderabad - 500034
Telangana.",Home Furniture,banjara,17.40701435,78.43248548
Al Ameen Refrigeration Services,tel:9533654367,"City Center Mall
Address
Sarwar Nagar,
Banjara Hills,
Hyderabad - 500034
Telangana.

Telephone: 8686251753",Home Appliances,banjara,17.41539225,78.44936745
Expert Cool Line Systems,tel:9885743395,"Hdfc Bank Atm
Address
No. 10/5/391/108A/1/2,
Ahmednagar,
Banjara Hills,
Hyderabad - 500034
Telangana.",Home Appliances,banjara,17.4050748,78.4484275
Imax Electronics,tel:8520880200,"No. 8-2-752/23/A1,
Bholanagar, Road No 12,
Banjara Hills,
Hyderabad - 500034
Telangana.",Home Appliances,banjara,17.40701435,78.43248548
Al Noor Electricals,tel:9848417823,"Opp Lane Brand Factory
Address
Road No. 2,
Banjara Hills,
Hyderabad - 500034
Telangana.",Home Appliances,banjara,17.42621855,78.42091105
,,,Home Appliances,banjara,18.77609574,100.773935
SB Electronics,tel:9849402700,"Opposite Minister Quarters
Address
D. No. 8-2-682/32/58,
Road No. 12,
Banjara Hills,
Hyderabad - 500034
Telangana.

Telephone: 9441583371",Home Appliances,banjara,17.41539225,78.44936745
Globe Electrical And Plumbing Solutions,tel:9493733003,"Near Care Hospital
Address
Ahmed Manzil,
Venkata Ramana Colony, A.C. Guards,
Banjara Hills,
Hyderabad - 500034
Telangana.",Home Appliances,banjara,17.41539225,78.44936745
A1 Electricals,tel:9866619616,"Opp Sri Sairam High School
Address
Shop No.8-2-684/10,
Banjara Hills,
Hyderabad - 500034
Telangana.",Home Appliances,banjara,17.4093067,78.4339069
Tirumala Music Center,tel:40 24549879,"Lane Beside Fusion 9
Address
No. 6-3-249/3/2, Road No. 1 ,
Naveen Nagar,
Banjara Hills,
Hyderabad - 500034
Telangana.",Home Appliances,banjara,17.338799,78.54365803
Tirumala Music Center,tel:40 24549879,"Lane Beside Fusion 9
Address
No. 6-3-249/3/2, Road No. 1 ,
Naveen Nagar,
Banjara Hills,
Hyderabad - 500034
Telangana.",Home Appliances,banjara,17.338799,78.54365803
Adishwar Electronics,tel:8040833999,"rd Number 1,
Banjara Hills,
Hyderabad - 500034
Telangana.",Home Appliances,banjara,17.41380575,78.45056947
New Golden Electronics,tel:9652346298,"Axis Bank
Address
Plot No. 1,
Banjara Hills,
Hyderabad - 500034
Telangana.",Home Appliances,banjara,17.41539225,78.44936745
S Designs,tel:8885748594,"Road No. 12,
Banjara Hills,
Hyderabad - 500034
Telangana.",Interior Designers,banjara,17.40701435,78.43248548
Design Space,tel:9948335353,"Near Sai Baba Temple
Address
Door No. 8-3-684/3/15,
Road No. 12,
Banjara Hills,
Hyderabad - 500034
Telangana.
40 23335353",Interior Designers,banjara,17.40970001,78.43672397
VD3 Logistics Private Limited,tel:9100111010,"Plot No. 12A,
Road No. 12, MLA Colony,
Banjara Hills,
Hyderabad - 500034
Telangana.
40 23541493",Interior Designers,banjara,17.40806559,78.42971775
Fastrack Interiors,tel:9395375084,"H.No. 8/2/326/F/5,
Ground Floor, Rainbow Apartment,
Banjara Hills,
Hyderabad - 500034
Telangana.

Telephone: 9246884486",Interior Designers,banjara,17.40681001,78.43866698
Insha Home Solutions,tel:8143620713,"Krishna Nagar,
Srinagar Colony,
Banjara Hills,
Hyderabad - 500034
Telangana.

Telephone: 9502692613",Interior Designers,banjara,17.4297646,78.4254608
Mystiq Designs,tel:9246369150,"Hyderabad Stock Exchange
Address
Door No. 3-6-278,
Plot No. 103-B, Thoma Prabhu Reliance,
Banjara Hills,
Hyderabad - 500034
Telangana.

Telephone: 9391117902
40 23220380",Interior Designers,banjara,17.41539225,78.44936745
Innovative Interiors,tel:9908223027,"Naveen Nagar,
Banjara Hills,
Hyderabad - 500034
Telangana.",Interior Designers,banjara,17.41153,78.451951
Marvitho Dezigns,tel:8341886043,"Above Samsung Mobiles
Address
D No. 8-2-270/2, 1st Floor,
Banjara Hills,
Hyderabad - 500034
Telangana.

Telephone: 9989095022",Interior Designers,banjara,17.41539225,78.44936745
Design Niche,tel:9849992507,"Medina School
Address
Plot No. 7, Road No. 7,
Chandra Apartments,
Banjara Hills,
Hyderabad - 500034
Telangana.",Interior Designers,banjara,17.41539225,78.44936745
Montu Interior,tel:9849720235,"Guru Brahama Nagar Bus Stop
Address
D No. 8/2/603/C/97,
House Guru, Brahama Naga,
Banjara Hills,
Hyderabad - 500034
Telangana.",Interior Designers,banjara,17.41539225,78.44936745
AK Interiors & Contractors,tel:8008419204,"Near GVK Mall
Address
H.No. 8-2-413/1/B,
4th Main Road,
Banjara Hills,
Hyderabad - 500034
Telangana.

Telephone: 8886991078
40 66443377
40 65888866",Interior Designers,banjara,17.41539225,78.44936745
Sri Ram Interior Hardware,tel:040 64557070,"Opp. Volvo Showroom
Address
GPC Business Centre,
Road No. 12,
Banjara Hills,
Hyderabad - 500034
Telangana.
040 64557070",Interior Designers,banjara,17.41263502,78.43038499
Kasim Ali Khan & Associates,tel:9396527041,"Axis Bank
Address
D No. 402,
Banjara Hills,
Hyderabad - 500034
Telangana.

Telephone: 985992042
40 23545871",Interior Designers,banjara,17.41539225,78.44936745
Moriq Interiors & Design Consultants,tel:8978622266,"Canara Bank ATM
Address
D No. 8/2/684/3,
Banjara Hills,
Hyderabad - 500034
Telangana.
40 23325223
040 23325224",Interior Designers,banjara,17.41539225,78.44936745
Kwality Insulations Pvt Ltd,tel:9246204812,"road no -12
Address
D No. 8-2-684/1/9/1,
Banjaragreen colony,
Banjara Hills,
Hyderabad - 500034
Telangana.
40 64553442",Interior Designers,banjara,17.40701435,78.43248548
Edelweiss Capital And Finance Limited,tel:40 40316915,"2nd Floor,
MB Towers, L V Prasad Marg, Road No. 2,
Banjara Hills,
Hyderabad - 500034
Telangana.",Financial Services,banjara,17.42567126,78.43622286
DHFL Hyderabad Regional Processing Unit,tel:40 23320192,"Plot No. 3A & 3A/1,
Third Floor, G.S. Plaza, Road No 1,
Banjara Hills,
Hyderabad - 500034
Telangana.",Financial Services,banjara,17.40953719,78.4499134
Tata Capital Limited,tel:40 66563262,"Opp. Times of India
Address
Plot No. 3, 4, 5 & 6, Auto Plaza,
Road No. 3,
Banjara Hills,
Hyderabad - 500034
Telangana.",Financial Services,banjara,17.42531418,78.43753781
Karvy Financial Services,tel:40 23312454,"No. 46, Avenue 4,
Road No. 1,
Banjara Hills,
Hyderabad - 500034
Telangana.",Financial Services,banjara,17.441257,78.40092604
Me And Mom,tel:40 66131201,"Opposite Taj Krishna Hotel
Address
Ground Floor, Road No. 1,
City Center,
Banjara Hills,
Hyderabad - 500034
Telangana.",BABY store,banjara,17.41539225,78.44936745
Jyothi Mediworld,tel:40 66107671,"Near Green Mosque
Address
D. No. 8-2-273 & 276, Indradhanush Complex,
Road No. 2,
Banjara Hills,
Hyderabad - 500034
Telangana.
40 64607672
40 66107672",BABY store,banjara,17.41539225,78.44936745
Babies Wonderland,tel:40 66132885,"Shop No. 8-2-630 to 636,
Road No. 1 & 12,
Banjara Hills,
Hyderabad - 500034
Telangana.
40 66132885",BABY store,banjara,17.41539225,78.44936745
Mom & Me,tel:40 66660949,"Next to Amrutha Valley
Address
D. No. 8-2-793/A,
AG Heights II, Road No. 12,
Banjara Hills,
Hyderabad - 500034
Telangana.",BABY store,banjara,17.41539225,78.44936745
Mother Care,tel:40 40110316,"Shop No. 107 & 108,
City Center, Road No 1,
Banjara Hills,
Hyderabad - 500034
Telangana.",BABY store,banjara,17.41539225,78.44936745
Born Babies,tel:40 40033391,"Opposite Taj krishna Hotel
Address
H No. 8-2-592, Ground Floor,
City Center, Road No. 1,
Banjara Hills,
Hyderabad - 500034
Telangana.",BABY store,banjara,17.41539225,78.44936745
Pundalik Spa,tel:8096815793,"Road No:1,
Banjara Hills,
Hyderabad - 500034
Telangana.",Spa & Saloon,banjara,17.41380575,78.45056947
Serena Spa,tel:40 6733 1133,"Near Green Valley
Address
D No. 8-2-409,
Radisson Blu Plaza Hotel, Road Number 6,
Banjara Hills,
Hyderabad - 500034
Telangana.",Spa & Saloon,banjara,17.41539225,78.44936745
Amazing Beauty Saloon & Spa,tel:8801821210,"Shop No. 10-5-5/F, Road No. 1 ,
First Lancer Road, Sai Enclave,
Banjara Hills,
Hyderabad - 500034
Telangana.",Spa & Saloon,banjara,17.4050964,78.44701134
Applepro Salon,tel:99592 35933,"Opp. Sathya Sai Nigamam
Address
Door no . 8-3-988/42, 3 Floor above Oriantal bank . ,
Sri Nagar Coloney,
Banjara Hills,
Hyderabad - 500034
Telangana.",Spa & Saloon,banjara,17.4297646,78.4254608
Faces Beauty Saloon,tel:7842176211,"OppositeCare Hospital
Address
No. 8-2-626/F/2,
Kamal Arcade,
Banjara Hills,
Hyderabad - 500034
Telangana.",Spa & Saloon,banjara,17.41539225,78.44936745
O2 Spa,tel:0970152889,"3Road Floor,
GVK One Mall, Road No 1 ,
Banjara Hills,
Hyderabad - 500034
Telangana.
40-67497710",Spa & Saloon,banjara,17.41539225,78.44936745
Paris De Saloon,tel:40 42004000,"Opp. K B R Park
Address
No. 286/A , Road # 12,
M L A Colony,
Banjara Hills,
Hyderabad - 500034
Telangana.",Spa & Saloon,banjara,17.4158293,78.432849
Naturals Salon,tel:40 64553294,"Opposite Indus Ind Bank
Address
Shop No. 8-2-332/1-A,
Road No. 3, Green Valley,
Banjara Hills,
Hyderabad - 500034
Telangana.",Spa & Saloon,banjara,17.42531418,78.43753781
ManageMySpa,tel:40 4025 4441,"Road Number 2,
Sri Nagar Colony,
Banjara Hills,
Hyderabad - 500034
Telangana.",Spa & Saloon,banjara,17.42385051,78.42657962
Funk Salon,tel:8885566733,"Opposite Times of India
Address
Shop No. FM6,
Lumbani Amrutha Chambers, Road No. 3,
Banjara Hills,
Hyderabad - 500034
Telangana.
40 40198013",Spa & Saloon,banjara,17.42531418,78.43753781
Kairali Ayurvedic Health,tel:9502233377,"Opposite Taj Krishna Hotel
Address
Shop No. 8-2-629, Road No. 1,
Sriram Nagar Colony,
Banjara Hills,
Hyderabad - 500034
Telangana.
40 23331534",Spa & Saloon,banjara,17.4158293,78.432849
Manik Salon,tel:9700065566,"Opp. Taj Banjara Backside Gate
Address
D. No. 8-2-676/1/A ,
Road No. 13, Near Kairali Massage Center,
Banjara Hills,
Hyderabad - 500034
Telangana.
40 23395589",Spa & Saloon,banjara,17.41539225,78.44936745
Park Hyatt,tel:40 49491234,"Road Number 2,
Sri Nagar Colony,
Banjara Hills,
Hyderabad - 500034
Telangana.",Spa & Saloon,banjara,17.42385051,78.42657962
Dr. Chandrikas Kerala Ayurveda Spa & Treatment Center,tel:9704440404,"Beside Mor Chemist
Address
Plot No. 8,
Road No. 12, Bhavani Nagar,
Banjara Hills,
Hyderabad - 500034
Telangana.",Spa & Saloon,banjara,17.414837,78.42628205
Ozone Fitness and Spa,tel:40 39100008,"H. No. 6-3-349/20,
Road No. 1,
Banjara Hills,
Hyderabad - 500034
Telangana.

Telephone: 9100952809
9052451660
9052418702",Spa & Saloon,banjara,17.42485332,78.44852033
Ozone 3 Fitness 'n' Spa,tel:9849340257,"Shop No. 6-3-349/20,
Road No. 1,
Banjara Hills,
Hyderabad - 500034
Telangana.
40 39100088",Spa & Saloon,banjara,17.42485332,78.44852033
W O F L Cafe,tel:8978471230,"Road No. 3, Green Valley,
Banjara Hills,
Hyderabad - 500034
Telangana.",Cafes,banjara,17.42531418,78.43753781
Di Bella Coffee Restaurant,tel:8886667854,"Harley Davidson Showroom
Address
D No. 8-2-269/4 CD,
Road No. 2,
Banjara Hills,
Hyderabad - 500034
Telangana.
40 60508777",Cafes,banjara,17.41539225,78.44936745
McDonald's Family Restaurant,tel:9966643724,"Opposite Taj Krishna
Address
G1, Upper Ground Floor,
Road No. 10, Citycentre,
Banjara Hills,
Hyderabad - 500034
Telangana.",Cafes,banjara,17.4160606,78.43361022
Cuppa,tel:9700516006,"Near Cancer Hospital
Address
8-2-601/v/1,
Road No 10,
Banjara Hills,
Hyderabad - 500034
Telangana.",Cafes,banjara,17.4160606,78.43361022
Cafe Coffee Day,tel:9394661065,"Opposite Taj Krishna Hotel
Address
2nd Floor, City Centre Mall,
Road No. 1,
Banjara Hills,
Hyderabad - 500034
Telangana.",Cafes,banjara,17.41539225,78.44936745
Hazzel Ice Cream Cafe,tel:9533889963,"Road No. 2, Park View Enclave,
Banjara Hills,
Hyderabad - 500034
Telangana.",Cafes,banjara,17.42621855,78.42091105
Guilt Trip Cafe,tel:40 65155050,"House-No. 5-2-585/A/1,
Road No. 9, Gaffar Khan Colony,
Banjara Hills,
Hyderabad - 500034
Telangana.",Cafes,banjara,17.41576573,78.44264449
The Waterside Cafe Coffee Shop,tel:40 66669999,"Road No 1,
Taj Banjara,
Banjara Hills,
Hyderabad - 500034
Telangana.",Cafes,banjara,17.409756,78.43729
Firdaus Restaurant & Cafe,tel:7893092786,"Opposite Q Mart
Address
Plot No. 100,
Road No. 3,
Banjara Hills,
Hyderabad - 500034
Telangana.
40 23541313",Cafes,banjara,17.42614199,78.43834503
Cafe Grafitti,tel:9700146212,"8-2-672/1/A,
Road No 13,
Banjara Hills,
Hyderabad - 500034
Telangana",Cafes,banjara,17.43026808,78.41679982
Dr. M S Goud,tel:40 23326888,"Plot No. 19,
Durga Enclave, Road No 12,
Banjara Hills,
Hyderabad - 500034
Telangana.",Dental Clinics,banjara,17.40701435,78.43248548
Dr. T Shankar,tel:40 23326888,"Flat No. 19,
Durga Enclave, Road No 12,
Banjara Hills,
Hyderabad - 500034
Telangana.",Dental Clinics,banjara,17.40701435,78.43248548
Dr. Snigdha Gowd,tel:40 23326888,"Flat No. 19,
Durga Enclave, Road No 12,
Banjara Hills,
Hyderabad - 500034
Telangana.",Dental Clinics,banjara,17.40701435,78.43248548
Dr. P Venkat Ratna Nag,tel:40 23350991,"Near Star Hospitals
Address
D No. A8-2-598/A/1,
Road No 10,
Banjara Hills,
Hyderabad - 500034
Telangana.",Dental Clinics,banjara,17.41539225,78.44936745
Dr. R Kranthi Kumar Reddy,tel:40 64565604,"Beside Keshav Reddy Sweets
Address
Plot No. 8-273, 276/277,
Pavani Indradanush Complex, Road No. 2,
Banjara Hills,
Hyderabad - 500034
Telangana.",Dental Clinics,banjara,17.41539225,78.44936745
Dr. P Sarika,tel:40 23350991,"Near Star Hospitals
Address
D No. 8-2-598/A/1,
Road No. 10,
Banjara Hills,
Hyderabad - 500034
Telangana.",Dental Clinics,banjara,17.41586301,78.44460296
Dr. Gayatri Moghe,tel:9676718000,"D No. 8-2-277/B,
Ground Floor, Inwinex Towers, Road No 2,
Banjara Hills,
Hyderabad - 500034
Telangana.
40 23548707",Dental Clinics,banjara,17.42446402,78.43220797
Denta Care Dental Hospital,tel:9848260321,"Opp. Rbs, Lv Prasad Eye Hospital
Address
Road No. 2,
Banjara Hills,
Hyderabad - 500034
Telangana.",Dental Clinics,banjara,17.41539225,78.44936745
Classic Electricals,tel:8464836635,"D. No. 8-2-686/1/A,
Road No 12, Resham Bagh,
Banjara Hills,
Hyderabad - 500034
Telangana.

Telephone: 7337419980",Electricians,banjara,17.40701435,78.43248548
Tommy Hilfiger Shoppe,tel:40 67491361,"Shop No. 21 & 22, Ground Floor, GVK Mall,
Road No. 1,
Banjara Hills,
Hyderabad - 500034
Telangana.",Foot WeaR,banjara,17.41539225,78.44936745
Twenty5 Foot WeaR,tel:9652020881,"Beside Lawrence & Mayo Store
Address
Flat No. 301,
1St Floor, Road No 1,
Banjara Hills,
Hyderabad - 500034
Telangana.",Foot WeaR,banjara,17.41539225,78.44936745
SSIPL Retail Limited,tel:40 66622441,"D. No. 6-3-344/A/4-5-6, Ground Floor,
Cupid Curve, Road No. 1,
Banjara Hills,
Hyderabad - 500034
Telangana.",Foot WeaR,banjara,17.41539225,78.44936745
Puma Store,tel:40 40178061,"D. No. 6-3-345/1/A,
Road No. 1,
Banjara Hills,
Hyderabad - 500034
Telangana",Foot WeaR,banjara,17.44224071,78.40138112
Bata Showroom,tel:40 67499764,"1st Floor, GVK One Mall,
Road No. 1,
Banjara Hills,
Hyderabad - 500034
Telangana.",Foot WeaR,banjara,17.41380575,78.45056947
Soles Footwear,tel:8978167525,"D. No. 12, 2nd Floor,
GVK One Mall, Road No. 1,
Banjara Hills,
Hyderabad - 500034
Telangana.
40 67467872",Foot WeaR,banjara,17.41539225,78.44936745
Ultimate Decors,tel:9246503987,"D. No. 8-2-270 (538),
Road No 3,
Banjara Hills,
Hyderabad - 500034
Telangana.
40 65163987",Furniture,banjara,17.42531418,78.43753781
Bed Stores,tel:40 23324546,"Rd Number 12,
Banjara Hills,
Hyderabad - 500034
Telangana.",Furniture,banjara,17.414837,78.42628205
SleepwellWorld,tel:40 64507147,"D No. 6-3-348/10/2, Opposite Jalgam Vengal Road Park Main Gate,
Road No. 1,
Banjara Hills,
Hyderabad - 500034
Telangana.",Furniture,banjara,17.41539225,78.44936745
Furniturewalla FW,tel:40 23383842,"Laxmi Cyber Centre,
Road No. 12,
Banjara Hills,
Hyderabad - 500034
Telangana.",Furniture,banjara,17.40701435,78.43248548
Technocrats,tel:9849007126,"D No. 10-5-2/F/G/7,8,9, 1st floor,
Sarda Sadan, Road Number 1,
Banjara Hills,
Hyderabad - 500034
Telangana.",Furniture,banjara,17.41539225,78.44936745
Nilkamal Limited @ home,tel:40 23316015,"Opp city center
Address
1st, 2nd, 3rd & 4th Floor Aztec Towers, 6-3-249/6/1, Rd Number 1,
Banjara Hills,
Hyderabad - 500034
Telangana.
40 23316016",Furniture,banjara,17.45430942,78.43772419
Italian Furniture In Hyderabad,tel:40 66518888,"Road no- 12, MJ Tower ,
Banjara Hills,
Hyderabad - 500034
Telangana.",Furniture,banjara,17.40701435,78.43248548
Hazzel Ice Cream Cafe,tel:9533889963,"Road No. 2, Park View Enclave,
Banjara Hills,
Hyderabad - 500034
Telangana",Ice Cream & Dessert Parlors,banjara,17.42621855,78.42091105
Keshav Reddy Sweets,tel:9550550011,"Beside Manyavar Garments
Address
Road No:2,
Pavani Estate,
Banjara Hills,
Hyderabad - 500034
Telangana.
40 64616662",Ice Cream & Dessert Parlors,banjara,17.41539225,78.44936745
Mountain Bakery,tel:9701007786,"Door No. 8-2-275/1,
Road No. 2,
Banjara Hills,
Hyderabad - 500034
Telangana.
40 23547395",Ice Cream & Dessert Parlors,banjara,17.42621855,78.42091105
Indulge IceCream,tel:40-66628084,"8-2-350/3/1,
Road Number 3,
Banjara Hills,
Hyderabad - 500034
Telangana.",Ice Cream & Dessert Parlors,banjara,17.42700001,78.44359999
Snowy Ice Gola,tel:9246829990,"Shop No. 8-2-592, Level 4,
Zahara Nagar, City Center Mall, Road No. 1,
Banjara Hills,
Hyderabad - 500034
Telangana.",Ice Cream & Dessert Parlors,banjara,17.41539225,78.44936745
Baskin Robbins,tel:9347578754,"Opposite Taj Krishna Hotel
Address
Level 4, Road No. 1,
City Center Mall,
Banjara Hills,
Hyderabad - 500034
Telangana.",Ice Cream & Dessert Parlors,banjara,17.41539225,78.44936745
Eats Pizza Restaurant,tel:40 65598230,"Opposite Taj Krishna Hotel
Address
3rd Floor, City Centre,
Road No. 1,
Banjara Hills,
Hyderabad - 500034
Telangana.",Ice Cream & Dessert Parlors,banjara,17.41539225,78.44936745
Blosoom Bakers,tel:9966697004,"Beside Dine Hill Hotel
Address
D No. 10-5-5/2,
Banjara Hills Road,
Banjara Hills,
Hyderabad - 500034
Telangana.

Telephone: 8686982420",Ice Cream & Dessert Parlors,banjara,17.42219998,78.42990002
Feast Foods,tel:8885589848,"Opposite Khaja Mansion
Address
No. G10,
Silver Oak, Raod No. 1, Masabtank,
Banjara Hills,
Hyderabad - 500034
Telangana.",Ice Cream & Dessert Parlors,banjara,17.41539225,78.44936745
The Lotus House,tel:9030938305,"Shop No. 7,
GVK One Mall, Road No. 1,
Banjara Hills,
Hyderabad - 500034
Telangana.
40 67466812",Jewellery,banjara,17.41539225,78.44936745
Calista Fashion For Women Folks,tel:9640800058,"Opposite Vengal Rao Park
            Address
            S. No. 4-2A,
            Road No. 1,
            Banjara Hills,
            Hyderabad - 500034
            Telangana.
            
            Telephone:
            40 64556688
            40 66466677",Jewellery,banjara,,
Swati Pearls And Jewellers,tel:40 23002992,"Near indoamerican cancer hospital
Address
8-2-120/120-29/B,
Road. No. 10 , Noor Nagar,
Banjara Hills,
Hyderabad - 500034
Telangana.",Jewellery,banjara,17.417157,78.431148
Xuxa Designer Jewellery,tel:40 66757740,"G2A, Alpha Business Center, Near Nagarjuna Circle, Road No. 1,
Banjara Hills,
Hyderabad - 500034
Telangana.",Jewellery,banjara,17.41539225,78.44936745
Tanishq,tel:40 65766471,"6-3-249/6/1,
Aztec Towers, Road Number 1,
Banjara Hills,
Hyderabad - 500034
Telangana.",Jewellery,banjara,17.44224071,78.40138112
Lepakshi Handicrafts & Jewels,tel:40 23212902,"Opposite Taj Krishna Hotel
Address
Ground Floor, City Centre,
Road No. 1,
Banjara Hills,
Hyderabad - 500034
Telangana.",Jewellery,banjara,17.41539225,78.44936745
Kothari Jewellery,tel:40 23732770,"Radha Ramana Nivas
Address
8-3-1116/B,
Srinagar Colony,
Banjara Hills,
Hyderabad - 500034
Telangana.",Jewellery,banjara,17.4297646,78.4254608
Tibarumal Gems & Jewels,tel:40 40329900,"Near TV 9 Office
Address
Shop No. 4 & 5, Lumbini Jewel Mall,
Road No. 2,
Banjara Hills,
Hyderabad - 500034
Telangana.",Jewellery,banjara,17.41539225,78.44936745
Meenakshi Jewellers,tel:40 23357702,"8-2-682/1, 3rd Floor ,
Road No. 12,
Banjara Hills,
Hyderabad - 500034
Telangana.",Jewellery,banjara,17.40701435,78.43248548
Mangatrai Jewellery,tel: 40 64566457,"Lumbini Jewel Mall,
Ground Floor, Road-2,
Banjara Hills,
Hyderabad - 500034
Telangana.",Jewellery,banjara,17.41539225,78.44936745
Cross Word Book Store Limited,tel:40 40110320,"Opposite Taj Krishna Hotel
Address
Shop No. 101-106, 2nd Floor,
City Centre, Road No. 1,
Banjara Hills,
Hyderabad - 500034
Telangana.
40 40110319",Books Stores,banjara,17.41539225,78.44936745
Visas Vision,tel:8977096371,"Flat No. 301, Banjarahills, Road No. 1,
Ganga Estate, Nagarjuna Circle,
Banjara Hills,
Hyderabad - 500034
Telangana.",Education Consultants,banjara,17.42581425,78.44927015
Europe Study Centre,+91 40 60505020,"Above Bata Show Room
Address
D. No. 6-3-350, 301, 3rd Floor, Ganga Estate,
Road No. 1,
Banjara Hills,
Hyderabad - 500034
Telangana.

Telephone: 7093501056",Education Consultants,banjara,17.41539225,78.44936745
Liberty Shoe Mall,tel:40 23382887,"Opposite Taj Krishna Hotel
Address
Ground Floor, City Center,
Road No. 1,
Banjara Hills,
Hyderabad - 500034
Telangana.",Shopping Malls,banjara,17.41539225,78.44936745
Gini & Jony GVK One Mall,tel:40 67497700,"GVK One Mall, Shop No-7, 2nd Floor,
Road No. 1,
Banjara Hills,
Hyderabad - 500034
Telangana.",Shopping Malls,banjara,17.44224071,78.40138112
GVK One Shopping Mall,tel:40 67497600,"Main Road,
Rd Number 1,
Banjara Hills,
Hyderabad - 500034
Telangana.",Shopping Malls,banjara,17.44224071,78.40138112
Medicines & More,tel:9885299359,,Shopping Malls,banjara,18.77609574,100.773935
Serenity Inn,,"Andhra Pradesh Housing Board,
              Gachibowli,
              Hyderabad - 500032
              Telangana.
              40 23004455",BUDGET HOTELS,gachibowli,17.4384406,78.330147
The Conclave Hotel,tel:9676283166,"Plot No. 38, 39,
Jayabheri 4 seasons,
Gachibowli,
Hyderabad - 500032
Telangana.",BUDGET HOTELS,gachibowli,17.4300094,78.3247117
Sheraton Hyderabad Hotel,tel:40 49251111,"No. 115/1,
ISB Road, Financial District,
Gachibowli,
Hyderabad - 500032
Telangana",BUSINESS HOTEL,gachibowli,17.43261606,78.34481664
Indus (Ellaa Hotels),tel:040 23002488,"House No. 2/55, ISB Rd,
Ellaa Hotels, Hill Ridge Springs,
Gachibowli,
Hyderabad - 500032
Telangana.
040 66288488",BUSINESS HOTEL,gachibowli,17.4384406,78.330147
The Conclave Hotel,tel:9676283166d,"Plot No. 38, 39,
Jayabheri 4 seasons,
Gachibowli,
Hyderabad - 500032
Telangana",NORMAL HOTEL,gachibowli,17.4300094,78.3247117
Ankithas Stay Inn,tel:9989050149,"Plot No. 23,
Jayabheri Enclave, Phase II,
Gachibowli,
Hyderabad - 500032
Telangana.",NORMAL HOTEL,gachibowli,17.4384406,78.330147
Sheraton Hyderabad Hotel,tel:40 49251111,"No. 115/1,
ISB Road, Financial District,
Gachibowli,
Hyderabad - 500032
Telangana.",NORMAL HOTEL,gachibowli,17.43261606,78.34481664
Indus (Ellaa Hotels),tel:040 23002488,"House No. 2/55, ISB Rd,
Ellaa Hotels, Hill Ridge Springs,
Gachibowli,
Hyderabad - 500032
Telangana.
040 66288488",NORMAL HOTEL,gachibowli,17.4384406,78.330147
Hyatt Hotel,tel:40 48481234,"Plot No.7, Road No.2,
I T Park,
Gachibowli,
Hyderabad - 500032
Telangana.",NORMAL HOTEL,gachibowli,17.44587721,78.38183141
At Home Suites,tel:9701006789,"JV Colony,
Indira Nagar,
Gachibowli,
Hyderabad - 500032
Telangana.
40 65656555",NORMAL HOTEL,gachibowli,17.440095,78.354303
The Lime Boutique Suites,tel:7680988977,"Jayabheri Enclave,
Gachibowli,
Hyderabad - 500032
Telangana.

Telephone: 40 66870002
40 66870000
40 66870001",NORMAL HOTEL,gachibowli,17.4494961,78.3629693
Serenity Inn,tel:9949823737,"Andhra Pradesh Housing Board,
Gachibowli,
Hyderabad - 500032
Telangana.
40 23004455",NORMAL HOTEL,gachibowli,17.4384406,78.330147
Continental Hospitals,tel:040 67000000,"Plot No. 3, Road No. 2,
Nanakramguda,
Gachibowli,
Hyderabad - 500032
Telangana",Hospital,gachibowli,17.44587721,78.38183141
The Spa,tel:40 48481234,"Financial District,
Nanakram Guda,
Gachibowli,
Hyderabad - 500032
Telangana.",SPA & SALOON,gachibowli,17.420806,78.337587
Green Trends Hair Salon,tel:8978525252,"S. No. 124/P, 1st Floor, KFC,
Gachibowli,
Hyderabad - 500032
Telangana.
40 40205252",SPA & SALOON,gachibowli,17.4384406,78.330147
Lavender Spa,tel:40 3190 70709,"2-37-76/ 2nd Floor, ,
MM arcade, Vinayak Nagar,
Gachibowli,
Hyderabad - 500032
Telangana.",SPA & SALOON,gachibowli,17.441895,78.3576188
Toni & Guy Hair Dressing,tel:9100107027,"No. 2-37/126/1,
Plot No. 126, Vinayaka Nagar, Indranagar,
Gachibowli,
Hyderabad - 500032
Telangana.
40 65146514
40 65176517",SPA & SALOON,gachibowli,17.4384406,78.330147
Studio 11 Saloon & Spa,tel:8125546464,"Shop No. 1-13/1/2, 3rd Floor,
Gachibowli,
Hyderabad - 500032
Telangana.
40 65546464",SPA & SALOON,gachibowli,17.4384406,78.330147
Nirva Spa,tel:40 23002488,"H. No. 2-55/H/H, ISB Road,
Hill Ridge Springs, Ellaa Hotels,
Gachibowli,
Hyderabad - 500032
Telangana.",SPA & SALOON,gachibowli,17.4402252,78.3487976
FM Cafe,tel:9652541214,"HIG A-2,
Gachibowli,
Hyderabad - 500032
Telangana",CAFE,gachibowli,17.4384406,78.330147
Dr. Ajay Krishna,tel:40 65303525,"Plot No. 6-10,
Millineum Square Building,
Gachibowli,
Hyderabad - 500032
Telangana.
40 65302525",DENTAL CLINIC,gachibowli,17.4384406,78.330147
Dr. Harshanand Jalagam,tel:9652469636,"Plot No. 134,
Vinayak Nagar,
Gachibowli,
Hyderabad - 500032
Telangana.
40 23002003",DENTAL CLINIC,gachibowli,17.441929,78.356719
Dr. Chaitanya Kumar Reddy,tel:9849296510,"Shop No. 2-21/1,
Indira Nagar,
Gachibowli,
Hyderabad - 500032
Telangana.
40 23002333",DENTAL CLINIC,gachibowli,17.440095,78.354303
Pearly Whites,tel:9550288419,"Plot No:4, Telecom Nagar,
Sri Shyam Nagar,
Gachibowli,
Hyderabad - 500032
Telangana.",DENTAL CLINIC,gachibowli,17.43447794,78.36711964
Dental Planet - 1,tel:9440247676,"Telecom Nagar,
Near Cyberbad Police Commissionerate,
Gachibowli,
Hyderabad - 500032
Telangana.
40 64567607",DENTAL CLINIC,gachibowli,17.43508699,78.36585549
Ramdev Electricals,tel:9949572100,"D. No. 1-60/34/1, Main Road,
Anjaiah Nagar,
Gachibowli,
Hyderabad - 500032
Telangana.

Telephone: 8897379787
40 64582100",Electrician number,gachibowli,17.450857,78.366542
Mukesh Electricals,tel:9885434368,"D. No. 1-57/8/1, Rajiv Nagar,
                Gachibowli,
                Hyderabad - 500032
                Telangana.
                40 64648781",Electrician number,gachibowli,17.4384406,78.330147
Heel To Toe Foot Care,tel:9701459592,"Plot No. 107,
Telecom Nagar,
Gachibowli,
Hyderabad - 500032
Telangana.

Telephone: 9246194412",Footwear shop,gachibowli,17.424779,78.364767
Bata India Limited,tel:9966036400,"Shop No. 2-37/135,
Vinayak Nagar colony,
Gachibowli,
Hyderabad - 500032
Telangana",Footwear shop,gachibowli,17.44084699,78.35848897
Hi Tech Foot Needs,tel:40 23000645,"H No. 2-60/8/1,
                Gachibowli X Roads,
                Gachibowli,
                Hyderabad - 500032
                Telangana",Footwear shop,gachibowli,17.4300721,78.37419053
Centro,tel:40 23000997,"Shop No. 3 & 3 A, Vamsirams Jyothi Imperial,Plot Nos.189 to 198,Sy. No. 50 (P),
Seri Lingampally Mandal, R R District,
Gachibowli,
Hyderabad - 500032
Telangana",Footwear shop,gachibowli,17.4384406,78.330147
S N Gardens,tel:9849805142,"Beside South India Shopping Mall
Address
Telecom Nagar,
Gachibowli,
Hyderabad - 500032
Telangana.",Function hall,gachibowli,17.424779,78.364767
MM Furniture World,tel:9014176857,"Opp. Casa World Lights
Address
H. No. 1-58/2,
Kondapur Road,
Gachibowli,
Hyderabad - 500032
Telangana.",Furniture shop,gachibowli,17.47072898,78.37009204
Furniture Point,tel:9246229182,"D No. 2-76/12/4,
Beside Radisson Hotel,
Gachibowli,
Hyderabad - 500032
Telangana.
40 65142609",Furniture shop,gachibowli,17.4384406,78.330147
Universal Furnitures,tel:8978268080,"D no. 1-57,
Gachibowli,
Hyderabad - 500032
Telangana.
40 65553377",Furniture shop,gachibowli,17.4384406,78.330147
Kakes N Krisps,40 64551188,"Survey 80/1, Tejas Fortune Towers,
Raidurgam,
Gachibowli,
Hyderabad - 500032
Telangana.",Ice cream center,gachibowli,17.42457101,78.37917299
Karachi Bakery,tel:40 65570909,"Address
Plot no 138 & 139, Vinayak Nagar,
Satyanarayana Arcade,
Gachibowli,
Hyderabad - 500032
Telangana.
40 65580909",Ice cream center,gachibowli,17.4384406,78.330147
Swati Pearls & Jewellers,tel:9849026916,"Plot No. 3&5,
Telecom Nagar,
Gachibowli,
Hyderabad - 500032
Telangana.",Jewellery shop,gachibowli,17.424779,78.364767
Sri Krishna Jewellers,tel:9441897677,"Anjaiah Nagar,
Gachibowli,
Hyderabad - 500032
Telangana.",Jewellery shop,gachibowli,17.450857,78.366542
Swati Pearls and Jewellers,tel:40 23002992,"Plot No. 3 & 5 ,
Telecom Nagar,
Gachibowli,
Hyderabad - 500032
Telangana.",Jewellery shop,gachibowli,17.424779,78.364767
Swathi Pearls & Jewellers,tel:9849026916,"Plot No. 3 & 5, Telecom Nagar,
Gachibowli,
Hyderabad - 500032
Telangana.

Telephone: 9000220225
040 23002992",Jewellery shop,gachibowli,17.424779,78.364767
Walden Book Links Private Limited,tel:40 65991414,"Beside Prakash Lights
Address
Plot No. 21/22,
Trendz Dwaraka, Telecom Nagar,
Gachibowli,
Hyderabad - 500032
Telangana.",Book store,gachibowli,17.424779,78.364767
Sai Swapna Books and Stationary Store,tel:9030817778,"Shop No. 3, Cellar,
Kannayalal Complex, Indira Nagar,
Gachibowli,
Hyderabad - 500032
Telangana.",Stationary Stores,gachibowli,17.440991,78.360511
Kitsons Stationery Store,tel:40 64645689,"2nd Floor, Mega Construction,
Prof CR Road, Telecom Nagar,
Gachibowli,
Hyderabad - 500032
Telangana.",Stationary Stores,gachibowli,17.424779,78.364767
Kitsons Stationery Store,tel:40 64645689,"2nd Floor, Mega Construction,
Prof CR Road, Telecom Nagar,
Gachibowli,
Hyderabad - 500032
Telangana.",Stationary Stores,gachibowli,17.424779,78.364767
Apollo Pharmacy - 1,tel:7569677881,"Opp. Al-Saba Restaurant
                                          Address
                                          H. No. 2-48/107 & 107A,
                                          Gachibowli,
                                          Hyderabad - 500032
                                          Telangana.
                                          40 64625034",Medical shop nearby,gachibowli,,
Apollo Pharmacy,tel:040 64625034,"Flat No. 107, 2-48/107 & 107/A,
Telecom Nagar,
Gachibowli,
Hyderabad - 500032
Telangana.",Medical shop nearby,gachibowli,17.424779,78.364767
MIA Boutique,tel:9494408392,"OPP. Tata Motors
Address
Plot No. 1-124, 2nd Floor,
TM Yadav Gokul Plaza,
Gachibowli,
Hyderabad - 500032
Telangana.",Clothing store,gachibowli,17.4384406,78.330147
Ram Krishna Garments,tel:9703395536,"Address
Nanakramguda,
Gachibowli,
Hyderabad - 500032
Telangana.

Telephone: 9246495617",Clothing store,gachibowli,17.4384406,78.330147
White House Apparels,tel:9581964969,"HDFC Bank Lane
Address
Indira Nagar,
Gachibowli,
Hyderabad - 500032
Telangana.
40 23000419",Clothing store,gachibowli,17.440095,78.354303
Kaira Womens Cloth Center,tel:40 23000953,"Above Optorium Eye Store
                                              Address
                                              H. No. 2-68,
                                              Indra Nagar,
                                              Gachibowli,
                                              Hyderabad - 500032
                                              Telangana.",Clothing store,gachibowli,,
Ram Krishna Garments,tel:9703395536,"Address
                                              Nanakramguda,
                                              Gachibowli,
                                              Hyderabad - 500032
                                              Telangana.
                                              
                                              Telephone: 9246495617",Clothing store,gachibowli,,
Black Knight Clothing Store,tel:9985381947,"Near Botanical Garden
                                              Address
                                              H No. 1-60-30-5/134,
                                              Gachibowli,
                                              Hyderabad - 500032
                                              Telangana.",Clothing store,gachibowli,,
Zip Zap Kids Wear,tel:7995713531,"Opposite Al Saba Restaurant
Address
Telecom Nagar,
Gachibowli,
Hyderabad - 500032
Telangana.",Clothing store,gachibowli,17.424779,78.364767
Arrow Clothing,tel:40 67456747,"Next To Radissan Hotel
Address
Shop No. G5, Ground Floor,
The Platina Mall,
Gachibowli,
Hyderabad - 500032
Telangana.",Clothing store,gachibowli,17.4384406,78.330147
White House Clothing Store,tel:8522802294,"Above Optorium Eye Store
Address
D. No. 1-37/1/125, Shop No. 2, Ground Floor,
Vinayak Nagar,
Gachibowli,
Hyderabad - 500032
Telangana.
40 23000419",Clothing store,gachibowli,17.441929,78.356719
Blue Sky Trade Tech,7729995801,"Beside Bank of India
Address
1-26/3/A, 2nd Floor, SS Tower,
Rajeev Nagar,
Gachibowli,
Hyderabad - 500032
Telangana.",HOME NEED,gachibowli,17.4384406,78.330147
Kitchen Solutions,tel:7095301777,"Opp. Tata Motors
Address
Gokul Plaza, Ground Floor,
Gachibowli,
Hyderabad - 500032
Telangana.",HOME NEED,gachibowli,17.4384406,78.330147
Bhavani Furnishings,tel:9581905325,"Near Radisson Hotel
Address
Gachibowli Cross Road to Kondapur Road,
Gachibowli,
Hyderabad - 500032
Telangana.
40 31901566",HOME NEED,gachibowli,17.4384406,78.330147
Darpan Furnishings,tel:9000017082,"Next to Axis Bank
Address
Before ORR Junction ,
P Janardhan Reddy Nagar,
Gachibowli,
Hyderabad - 500032
Telangana.",HOME NEED,gachibowli,17.442469,78.366069
Vgreen Furniture & Fixtures,tel:9440638415,"Opposite Axis Bank
Address
Plot No. 6-2-81,
Gachibowli,
Hyderabad - 500032
Telangana.
40 32440306",HOME FURNITURE,gachibowli,17.4384406,78.330147
MM Furniture World,tel:9014176857,"Opp. Casa World Lights
Address
H. No. 1-58/2,
Kondapur Road,
Gachibowli,
Hyderabad - 500032
Telangana.",HOME FURNITURE,gachibowli,17.47072898,78.37009204
Furniture Point,tel:9246229182,"Address
D No. 2-76/12/4,
Beside Radisson Hotel,
Gachibowli,
Hyderabad - 500032
Telangana.
40 65142609",HOME FURNITURE,gachibowli,17.4384406,78.330147
Universal Furnitures,tel:8978268080,"Address
D no. 1-57,
Gachibowli,
Hyderabad - 500032
Telangana.
40 65553377",HOME FURNITURE,gachibowli,17.4384406,78.330147
Furniture City,tel:7842144939,"Opp Ramky Towers
Address
D. No.1-157/5,
Maruthi Towers, Rajiv Nagar,
Gachibowli,
Hyderabad - 500032
Telangana.
40 64520006",HOME FURNITURE,gachibowli,17.4384406,78.330147
Home Experts,tel:9949671300,"Address
Gachibowli - Kondapur Road,
Next to Radisson Hotel,
Gachibowli,
Hyderabad - 500032
Telangana.
40 65745566
40 65545577",HOME FURNITURE,gachibowli,17.4384406,78.330147
Desire & Decor Furniture,tel:9160728728,"Near Royal Enfield Showroom
Address
D. No. 2-85/7/2,
Gachibowli,
Hyderabad - 500032
Telangana.",HOME FURNITURE,gachibowli,17.4400547,78.3490332
Sumeet Enterprises,tel:7680951252,"Opposite Bank of India
Address
Shop No. 1-58/2,
Syed Enclave,
Gachibowli,
Hyderabad - 500032
Telangana.
40 23001455",HOME FURNITURE,gachibowli,17.4384406,78.330147
Disegno Furniture,tel:9052827716,"Beside ICICI Bank
Address
D No. 1-72/5/2/P/74,
Rajiv Nagar,
Gachibowli,
Hyderabad - 500032
Telangana.

Telephone: 7680990903",Furniture,gachibowli,17.4384406,78.330147
Featherlite Furniture,tel:9515060942,"Next to Gachibowli Flyover
Address
Plot No. 4, Cybe Edifice,
Gachibowli,
Hyderabad - 500032
Telangana.",Furniture,gachibowli,17.43488096,78.36805375
Spacewood,tel:8886993046,"Opposite Ramky Towers
Address
1-57/69/1/134,66,72,
Gachibowli-Kondapur Main Road,
Gachibowli,
Hyderabad - 500032
Telangana.

Telephone: 8886990484",Furniture,gachibowli,17.4384406,78.330147
Sri Balaji Enterprises,tel:9966264403,"Near Ring Road
Address
H.No.1-26,
Gachibowli,
Hyderabad - 500032
Telangana.",Electrical service,gachibowli,17.4384406,78.330147
Pasari s Electro Hub,tel:40 6515 1515,"opp hotel Radisson OR the platina building
Address
1-60/6/1,
Anjaiah Nagar,
Gachibowli,
Hyderabad - 500032
Telangana.",Electrical service,gachibowli,17.450857,78.366542
Asra Refrigeration Enterprises,tel:9848531786,"Indira Nagar Lane
Address
Shop No. 2-25/3,
Gachibowli,
Hyderabad - 500032
Telangana.

Telephone: 9502008648",Electrical service,gachibowli,17.4448527,78.3529652
New Cool Line Enterprises,tel:8520042012,"Address
Plot no. 229,
Anjaiah Nagar,
Gachibowli,
Hyderabad - 500032
Telangana.",Electrical service,gachibowli,17.450857,78.366542
Rathan Air Conditioners,tel:9885820595,"Near Delhi Public School
Address
H No. 2-65/1/B, Shop No. 2,
Bhavana Model School, Khajaguda,
Gachibowli,
Hyderabad - 500032
Telangana.
40 40042680",Electrical service,gachibowli,17.4384406,78.330147
Fareed New Life Services,tel:8978523848,"Ramky Tower
Address
19-2-21/23/54/A/18,
Biryani Shah Tekri,
Gachibowli,
Hyderabad - 500032
Telangana.",Electrical service,gachibowli,17.4384406,78.330147
A To Z Electronics & Electricals,tel:9032629337,"Near Maharaja Hotel
Address
No. 1,
Gachibowli,
Hyderabad - 500032
Telangana.

Telephone: 7799862300",Electrical service,gachibowli,17.4384406,78.330147
Architecture & Interior Design,tel:9966098111,"Opposite RTTC
Address
G-2, Vaishnavi Tanmai Plaza ,
Gachibowli,
Hyderabad - 500032
Telangana.",INTERIOR  DESIGNER,gachibowli,17.436834,78.366382
Intra Designs,tel:8501018844,"Rajitha Hospital
Address
1-8-8/136 ,
1st Floor, Anjaiah nagar ,
Gachibowli,
Hyderabad - 500032
Telangana.",INTERIOR  DESIGNER,gachibowli,17.450857,78.366542
MS Interior,tel:9290036368,"HP Petrol Pump
Address
No. 7 ,
Ahmed Plaza,
Gachibowli,
Hyderabad - 500032
Telangana.",INTERIOR  DESIGNER,gachibowli,17.4384406,78.330147
Godrej Interio,tel:9440774581,"Opp. Axis Bank
Address
Plot No. 6 ,
Gachibowli,
Hyderabad - 500032
TelanganA",INTERIOR  DESIGNER,gachibowli,17.43042192,78.3737789
The Inner Space,tel:9032002209,"Regional Telecom Training Center
Address
Shop No. 1-73/8, 2nd Floor,
J.K.Chambers,
Gachibowli,
Hyderabad - 500032
Telangana.

Telephone: 7093001161
40 65557879",INTERIOR  DESIGNER,gachibowli,17.4384406,78.330147
Mahavir Digital,tel:9949360297,"Address
Gachibowli Main Road,
Gachibowli,
Hyderabad - 500032
Telangana.

Telephone: 9948139515
40 22220000",INTERIOR  DESIGNER,gachibowli,17.43496978,78.31960518
3F Architects & Interiors,tel:40 30163661,"Chitrapuri Colony, High tower road
Address
LIG-16, Flat No. 508,
Chitrapuri Colony,
Gachibowli,
Hyderabad - 500032
Telangana.",INTERIOR  DESIGNER,gachibowli,17.413819,78.38333301
Trendy Solution,tel:9949990107,"DLF Building
Address
Plot No. 1,
S S Complex,
Gachibowli,
Hyderabad - 500032
Telangana.",INTERIOR  DESIGNER,gachibowli,17.4384406,78.330147
Vgreen,tel:9000400458,"Address
Plot No. 6 2-81,
Axis bank,
Gachibowli,
Hyderabad - 500032
Telangana.",INTERIOR  DESIGNER,gachibowli,17.4384406,78.330147
V Green Furniture & Fixtures,tel:9440638415,"Telecom Nagar ,
Gachibowli X road,
Gachibowli,
Hyderabad - 500032
Telangana.

Telephone: 9440774581
40 32440306",INTERIOR  DESIGNER,gachibowli,17.4384406,78.330147
Team One India Private Limited,tel: 8008008326,"5th Floor, Anvis ECO Grand, Sy. No.135 & 136,,
Near Wipro Lake,Financial District,
Gachibowli,
Hyderabad - 500032
Telangana.
40 64510101",INTERIOR  DESIGNER,gachibowli,17.4384406,78.330147
Tesco Trading & Contract,tel:8099036003,"Microsoft Volley Ball Court
Address
Shop No. 2-9-5/20,
Sri Sai Santoshi Nilayam,
Gachibowli,
Hyderabad - 500032
Telangana.",INTERIOR  DESIGNER,gachibowli,17.4384406,78.330147
Aliens Group of Construction,tel:9966234138,"Infinite Homes
Address
Aliens Space Station,
Tellapur, Gopanapalli,
Gachibowli,
Hyderabad - 500032
Telangana.

Telephone: 7337361973",INTERIOR  DESIGNER,gachibowli,17.4384406,78.330147
A1 Creative Interiors,tel:9989331339,"Orion Building
Address
8-191/12/13, Shop No. 5,
Raidurgam,
Gachibowli,
Hyderabad - 500032
Telangana.",INTERIOR  DESIGNER,gachibowli,17.42331375,78.3797799
Poonam Interiors,tel:8106308818,"Dileep Super Market
Address
Plot No. 34, S.No. 5,
Sri Ram Colony,
Gachibowli,
Hyderabad - 500032
Telangana.",INTERIOR  DESIGNER,gachibowli,17.4384406,78.330147
Trendy Solution,tel:9949990107,"DLF Building
Address
Plot No. 1,
S S Complex,
Gachibowli,
Hyderabad - 500032
Telangana.",INTERIOR  DESIGNER,gachibowli,17.4384406,78.330147
Airtel Express,tel:40 40260961,"Beside Google Office
Address
Madhapur Road,
Gachibowli,
Hyderabad - 500032
Telangana.",INTERNET SERVICE PROVIDER,gachibowli,17.44787691,78.38405975
S N Gardens,tel:9849805142,"Beside South India Shopping Mall
Address
Telecom Nagar,
Gachibowli,
Hyderabad - 500032
Telangana.",FUNCTION HALL,gachibowli,17.424779,78.364767
Furniture Point,tel:9246229182,"D No. 2-76/12/4,
Beside Radisson Hotel,
Gachibowli,
Hyderabad - 500032
Telangana.
40 65142609",FURNITURE,gachibowli,17.4384406,78.330147
MM Furniture World,tel:9014176857>,"Opp. Casa World Lights
Address
H. No. 1-58/2,
Kondapur Road,
Gachibowli,
Hyderabad - 500032
Telangana.",FURNITURE,gachibowli,17.47072898,78.37009204
Sumeet Enterprises,tel:7680951252,"Opposite Bank of India
Address
Shop No. 1-58/2,
Syed Enclave,
Gachibowli,
Hyderabad - 500032
Telangana.
40 23001455",FURNITURE,gachibowli,17.4384406,78.330147
Disegno Furniture,tel:9052827716,"Beside ICICI Bank
                                                    Address
                                                    D No. 1-72/5/2/P/74,
                                                    Rajiv Nagar,
                                                    Gachibowli,
                                                    Hyderabad - 500032
                                                    Telangana.
                                                    
                                                    Telephone: 7680990903",FURNITURE,gachibowli,,
Desire & Decor Furniture,tel:9160728728,"Near Royal Enfield Showroom
Address
D. No. 2-85/7/2,
Gachibowli,
Hyderabad - 500032
Telangana.",FURNITURE,gachibowli,17.4400547,78.3490332
Universal Furnitures,tel:8978268080,"D no. 1-57,
Gachibowli,
Hyderabad - 500032
Telangana.
40 65553377",FURNITURE,gachibowli,17.4384406,78.330147
Ram Music & Mobile World,tel:9032804874,"D No. 2-21/4, S. No. 7, Cellar,
Kanhaiyalat Complex, Indira Nagar,
Gachibowli,
Hyderabad - 500032
Telangana.",MOBILE SHOP,gachibowli,17.440095,78.354303
